{
  "type": "FeatureCollection",
  "features": [
    {
      "type": "Feature",
      "properties": {
        "name": "1048海岸线"
      },
      "geometry": {
        "coordinates": [
          [117.90205280005608, 39.49542449406931],
          [117.70190535499688, 39.35513523234468],
          [117.63148310581073, 39.30352949597969],
          [117.56106085662242, 39.234662619120684],
          [117.3720327140669, 39.22604950153686],
          [117.32634355517118, 39.214915891833925],
          [117.30625950178484, 39.19677103836196],
          [117.31131586327557, 39.17465927152777],
          [117.33045420639567, 39.162718577144545],
          [117.34882611236874, 39.155664995324955],
          [117.37001935582958, 39.14686198861074],
          [117.39465614370421, 39.12963597471943],
          [117.41365002787742, 39.10453073965736],
          [117.43264409453074, 39.08205117026052],
          [117.44848253378268, 39.05644651664588],
          [117.45160527495347, 39.042759473737355],
          [117.4491710981449, 39.02979171973176],
          [117.43087357271995, 38.99306569423402],
          [117.40909705574433, 38.92680835177586],
          [117.40539062157791, 38.74492056303424],
          [117.4128034899129, 38.545177165790506],
          [117.42762922586701, 38.44945099659296],
          [117.48322573942033, 38.3448774318359],
          [117.59419951299202, 38.221029688894504],
          [117.72763114303149, 38.1277897030364],
          [117.84180913200152, 38.020873519331104],
          [117.957430061433, 37.95264340082561],
          [118.12051316481478, 37.83857379682968],
          [118.31324774153671, 37.738984343720816],
          [118.40220216156376, 37.63926073288921],
          [118.50598231826086, 37.557034757983615],
          [118.54590149686783, 37.488066039609095]
        ],
        "type": "LineString"
      },
      "id": 0
    }
  ]
}
