{
  "type": "FeatureCollection",
  "features": [
    {
      "type": "Feature",
      "properties": {
        "name": "1855年海岸线"
      },
      "geometry": {
        "coordinates": [
          [117.75335470299956, 38.100894557291355],
          [117.82714687216429, 38.111590682697965],
          [117.90870663808255, 38.11006276066314],
          [117.98055690805717, 38.10700682071109],
          [118.11454795206487, 38.084083196410404],
          [118.22717811505271, 38.06268131078389],
          [118.43496132914998, 37.98466441315303],
          [118.51457919623573, 37.94639050252752],
          [118.6233255512779, 37.862117694563466],
          [118.66798923281311, 37.809973520125226],
          [118.70809013376896, 37.756311798862214],
          [118.73013000709639, 37.713241535697485],
          [118.75149089829176, 37.654857395146124],
          [118.75343280250166, 37.541002048750315],
          [118.74969126277375, 37.417154439149854],
          [118.74149732667587, 37.36370129725087],
          [118.7301300217664, 37.312768442613134],
          [118.69841174619688, 37.22537035507057],
          [118.67122515755824, 37.19289188888749],
          [118.65180616567318, 37.16194702193202]
        ],
        "type": "LineString"
      },
      "id": 15
    }
  ]
}
