{
  "type": "FeatureCollection",
  "features": [
    {
      "type": "Feature",
      "properties": {
        "name": "大别山"
      },
      "geometry": {
        "coordinates": [
          [
            [114.54855429747141, 31.767540763425615],
            [114.41414599538314, 31.59608365904826],
            [114.74988655930821, 31.435761169217812],
            [115.01849650969092, 31.26941614331291],
            [115.2339918028714, 31.093920666837406],
            [115.43205406226289, 30.959558935978308],
            [115.52037022916055, 30.86781316968623],
            [115.58725071742191, 30.80062011688635],
            [115.77150745364304, 30.607211911536908],
            [115.91304963407015, 30.448802606422674],
            [116.07843418672411, 30.54465312387984],
            [116.140738244083, 30.59799463826763],
            [116.17522508146045, 30.625360851166352],
            [116.20829289607047, 30.644279646540397],
            [115.83135348226182, 31.057162512076403],
            [115.5157820144629, 31.315551042815784],
            [115.1738828177401, 31.568107129224956],
            [114.88428512621965, 31.73327375930799],
            [114.6353202463606, 31.844401872935507],
            [114.59487753255598, 31.798088222173575],
            [114.54855429747141, 31.767540763425615]
          ]
        ],
        "type": "Polygon"
      }
    }
  ]
}
