{
  "type": "FeatureCollection",
  "features": [
    {
      "type": "Feature",
      "properties": {
        "name": "大野泽"
      },
      "geometry": {
        "coordinates": [
          [
            [116.07071280217758, 35.69847837475899],
            [116.04254194563555, 35.687659561562214],
            [116.01638282290435, 35.666617208815715],
            [116.02308915332264, 35.63690631495906],
            [116.01918083209537, 35.6063448481861],
            [115.99750740105702, 35.58734143364508],
            [115.98263076737692, 35.55064444367966],
            [115.96387213038824, 35.51933888428161],
            [115.91580106221886, 35.50105032816825],
            [115.8466651814258, 35.49422914554336],
            [115.79687682125882, 35.45719735623436],
            [115.76873557420777, 35.420148529750676],
            [115.74584161476406, 35.396663330948655],
            [115.73218880106123, 35.347041276754126],
            [115.75358259502678, 35.315084400538765],
            [115.78503330136344, 35.315032009203826],
            [115.80786899575051, 35.31186100303219],
            [115.83213709115059, 35.30516326422201],
            [115.85449050840151, 35.298468585810554],
            [115.8686815236484, 35.301635861604126],
            [115.87999870620375, 35.31340556607486],
            [115.90550690400599, 35.32834254633917],
            [115.9426765625089, 35.334356030753],
            [115.99348961045865, 35.33641380347415],
            [116.02449866770979, 35.33884446533038],
            [116.09461271065197, 35.32278489149871],
            [116.12273575419056, 35.296779167987026],
            [116.13264660208084, 35.29312649846899],
            [116.15191767868757, 35.28888593904165],
            [116.1710193568768, 35.293926288118186],
            [116.17673804939017, 35.35751538179079],
            [116.22116024089985, 35.46513416768491],
            [116.23090144180117, 35.56471872084964],
            [116.21102425958605, 35.623658064965326],
            [116.21568923296223, 35.656028861315086],
            [116.21713346416021, 35.674740361883096],
            [116.20791862947243, 35.69056467025678],
            [116.18401715582583, 35.70133075379305],
            [116.16544521512006, 35.70993134195193],
            [116.14332025245578, 35.712760122329435],
            [116.11941877880713, 35.713424411998716],
            [116.07071280217758, 35.69847837475899]
          ]
        ],
        "type": "Polygon"
      },
      "id": 0
    }
  ]
}
