{
  "type": "FeatureCollection",
  "features": [
    {
      "type": "Feature",
      "properties": {
        "name": "淮河"
      },
      "geometry": {
        "coordinates": [
          [113.27633224341014, 32.38092108754772],
          [113.27588715254586, 32.38131701576218],
          [113.27545393077321, 32.381637766460784],
          [113.27506818535954, 32.38185828190558],
          [113.27490795264782, 32.38197355112848],
          [113.27487827992343, 32.382153972225254],
          [113.27491388719272, 32.38234942800773],
          [113.27491388719272, 32.38257495338446],
          [113.27488085096883, 32.38287080037884],
          [113.27493426187266, 32.38315646411286],
          [113.27495206550736, 32.38349224313603],
          [113.27505888731525, 32.383873125292936],
          [113.27518351275592, 32.38427906371966],
          [113.27532000728814, 32.38449456115529],
          [113.27553093820404, 32.384878205799396],
          [113.27569710546067, 32.38521898994543],
          [113.27582173090138, 32.38542947362855],
          [113.27584546908093, 32.38568004880263],
          [113.2759444382711, 32.386002629772136],
          [113.2761284091606, 32.38614295106504],
          [113.27631831459672, 32.38628828360217],
          [113.27650228548623, 32.38656391363509],
          [113.27677621116266, 32.38710540627551],
          [113.27687709842564, 32.38753137575422],
          [113.27712634930884, 32.387892195388574],
          [113.27722332489282, 32.388245801949026],
          [113.27741323032723, 32.38870684535705],
          [113.27753785576783, 32.38894738880971],
          [113.27769724929664, 32.38926879152139],
          [113.27773285656593, 32.38943917547269],
          [113.27778033292316, 32.38964964932208],
          [113.27792869654525, 32.38990021278927],
          [113.27813047106935, 32.39008562930783],
          [113.27839752558253, 32.39034621412716],
          [113.27862994346344, 32.39062990500189],
          [113.27876050344895, 32.39084538728656],
          [113.27892667070569, 32.391251294379785],
          [113.27922096533933, 32.391743815176966],
          [113.27932778714535, 32.39197432824723],
          [113.27950582349177, 32.39226497432294],
          [113.27968979438128, 32.39242533037863],
          [113.2799105993272, 32.39276471341364],
          [113.28007676658382, 32.392960146237186],
          [113.2801657847553, 32.39320568944039],
          [113.28029041019778, 32.393340988471664],
          [113.28040910109354, 32.393556464287784],
          [113.28057005530991, 32.39391969272836],
          [113.28095580072352, 32.39430053091694],
          [113.2810566879865, 32.394470905375556],
          [113.28123472433111, 32.3946964004888],
          [113.28138308795315, 32.394881807160544],
          [113.2815551897528, 32.39506721345087],
          [113.28180678587421, 32.39535455206108],
          [113.28195514949442, 32.39573538419759],
          [113.28214505492878, 32.39595085430119],
          [113.2823883712689, 32.39623146575697],
          [113.28267971262494, 32.39652716829572],
          [113.28317821439128, 32.397003202034256],
          [113.28332657801144, 32.39720363654156],
          [113.28329097074402, 32.3973990597577],
          [113.28313073803224, 32.39752934166714],
          [113.28292896350814, 32.39767465588285],
          [113.28279840352064, 32.39780994821824],
          [113.28273905730077, 32.398021653609646],
          [113.28286961729077, 32.39834234501339],
          [113.28307139181493, 32.39855780889522],
          [113.28319601725741, 32.39879331534091],
          [113.28329690454632, 32.39898372444638],
          [113.28340372639457, 32.3991490794248],
          [113.28351182687743, 32.399444727720876],
          [113.28333379053282, 32.399590038853916],
          [113.28312014691898, 32.399735349753115],
          [113.28278781238208, 32.39994579964669],
          [113.28269246837408, 32.40017441965327],
          [113.28279335559245, 32.4005401995456],
          [113.28309008282423, 32.400737734887315],
          [113.2834709410173, 32.40113629148016],
          [113.28372612644534, 32.401376801825606],
          [113.28393383551435, 32.401557184163835],
          [113.28408813368128, 32.401963043108196],
          [113.28433738456442, 32.40216847718662],
          [113.28442458539456, 32.40253073587101],
          [113.28439491267198, 32.40291654828043],
          [113.28446612719875, 32.40319212764008],
          [113.2844661271983, 32.403329785862496],
          [113.2841632042165, 32.40359158569095],
          [113.28390653224955, 32.40372573734976],
          [113.28383319740311, 32.40391148547273],
          [113.28412653679243, 32.404024998026046],
          [113.28439543123409, 32.404375854106775],
          [113.28465210320292, 32.404623516401585],
          [113.28479877289755, 32.40497437015597],
          [113.2851287797127, 32.405397456692754],
          [113.28576263457325, 32.405822686234046],
          [113.28620078500671, 32.40614216098339],
          [113.2862804487225, 32.406444820229765],
          [113.28689784251486, 32.40688199290457],
          [113.28743557259156, 32.4073191634626],
          [113.2880131345276, 32.40799172941669],
          [113.28855086460425, 32.408496150592796],
          [113.28898901503925, 32.408849243739496],
          [113.28892926725251, 32.40926959092151],
          [113.2891682583982, 32.409723563679464],
          [113.28966615661699, 32.41017753415447],
          [113.28996489554942, 32.41063150234527],
          [113.29024371855303, 32.41110228176089],
          [113.29052254155658, 32.41162349896321],
          [113.29121959906473, 32.41204383322439],
          [113.29163783356927, 32.412312846123854],
          [113.29180393795917, 32.413066435737804],
          [113.2921624246784, 32.41392390184224],
          [113.29250099546726, 32.41457960571833],
          [113.29281965032862, 32.4150839900732],
          [113.29289931404293, 32.41540343203984],
          [113.29345696005004, 32.41572287287484],
          [113.29381544676778, 32.41604231257962],
          [113.29391380394401, 32.416448469933414],
          [113.29425237473441, 32.41700328107679],
          [113.29459094552323, 32.41764215028839],
          [113.29492951631357, 32.4176925871391],
          [113.29538758267603, 32.41745721492917],
          [113.29602489239738, 32.41735634093709],
          [113.29654270654663, 32.417305903899035],
          [113.29723976405478, 32.41755808880852],
          [113.29777749413137, 32.41738996561385],
          [113.29823556049041, 32.4171209678471],
          [113.29915169321526, 32.416633407356784],
          [113.29996824629552, 32.41626353212395],
          [113.30034664894373, 32.41574234172259],
          [113.30076488348226, 32.41488489289385],
          [113.30102258349348, 32.414340691655894],
          [113.30169972507264, 32.41420618832936],
          [113.30259594186862, 32.414340691655894],
          [113.30341249495035, 32.41422300125629],
          [113.30450787103416, 32.41422300125629],
          [113.30522484447118, 32.41452563340293],
          [113.30622064091028, 32.41482826453523],
          [113.30647954798496, 32.41539989834891],
          [113.30725626920884, 32.41662721753741],
          [113.30799315857331, 32.41738377584285],
          [113.30827198157687, 32.417955393466315],
          [113.30845122493577, 32.41830844960076],
          [113.30799315857331, 32.418695128544],
          [113.30826741672098, 32.4196373544426],
          [113.30850640786667, 32.42064606378415],
          [113.30908396980124, 32.42136896520746],
          [113.3099403547393, 32.42178925406998],
          [113.31095606743207, 32.42118403768677],
          [113.31117514264884, 32.42015852254288],
          [113.31193194838761, 32.419704602371624],
          [113.3125891740379, 32.41935155170016],
          [113.31300740854249, 32.41943561150899],
          [113.31353622835229, 32.42003108370835],
          [113.31455194072032, 32.42036731994166],
          [113.31562740087526, 32.420770801766466],
          [113.31680244067473, 32.42102297699138],
          [113.31745966632502, 32.42115747015579],
          [113.31795756454534, 32.42182993297213],
          [113.31909277248701, 32.422704127139056],
          [113.31986949370935, 32.42334295598013],
          [113.32034747600073, 32.423410200857944],
          [113.32095537649491, 32.424248307535436],
          [113.3213484554285, 32.425181485573546],
          [113.32152042746088, 32.425907284038786],
          [113.32075883702908, 32.42636349722872],
          [113.31948133049639, 32.42675749767088],
          [113.31901454926418, 32.427047812685586],
          [113.3194076281979, 32.42762843991059],
          [113.31935849333092, 32.42810538090629],
          [113.32021835349656, 32.42878968314646],
          [113.32098583040374, 32.42942148141387],
          [113.32201766260181, 32.4304790217995],
          [113.32317233196716, 32.4304168138852],
          [113.32464637796573, 32.430354605927164],
          [113.32557994042992, 32.42981546849751],
          [113.32582561468661, 32.42906896509578],
          [113.32624326105366, 32.4279906716402],
          [113.32752076756816, 32.426746470857864],
          [113.32839841714292, 32.425593070886265],
          [113.3292968226101, 32.42510467643032],
          [113.32993557587457, 32.424855829685455],
          [113.3311671040758, 32.42501880093006],
          [113.33259201520735, 32.425226172890135],
          [113.33347644280644, 32.42537133297881],
          [113.33465567960536, 32.42514322416348],
          [113.33529443286983, 32.425246910060096],
          [113.3358594838358, 32.42537133297881],
          [113.33637539993487, 32.425226172890135],
          [113.33667020913452, 32.42530912154051],
          [113.3372565074717, 32.42493585271703],
          [113.3385340140025, 32.42483216646285],
          [113.33904993010151, 32.4250602760649],
          [113.33936930673468, 32.42564091608514],
          [113.3392464695674, 32.426076393647094],
          [113.33959041363403, 32.42632523702447],
          [113.33983608796677, 32.42667776396692],
          [113.34054854353354, 32.42642892156222],
          [113.34099075733218, 32.425972708704066],
          [113.3418014826309, 32.42562017900579],
          [113.3425630730627, 32.42553723064147],
          [113.34330622158996, 32.426082770014446],
          [113.34360103078967, 32.42676708760207],
          [113.3447065652881, 32.42751360995655],
          [113.34524704882057, 32.42801128809384],
          [113.34603320668771, 32.4284052813383],
          [113.3472124434847, 32.42855043630959],
          [113.34861278709997, 32.42836380840663],
          [113.34925154037126, 32.42776244933047],
          [113.34984115882298, 32.42689150839176],
          [113.35040620978896, 32.42622792869335],
          [113.35013596802276, 32.425149601269965],
          [113.34989028871547, 32.42432011074544],
          [113.34957091208412, 32.42361503705274],
          [113.34927610296347, 32.42288922010677],
          [113.34876925777462, 32.42211811598088],
          [113.34872691835614, 32.421219154192556],
          [113.34938274966248, 32.42047179345205],
          [113.3499401499177, 32.42017603411776],
          [113.35072721680524, 32.42053585391173],
          [113.35046484876466, 32.42142161825993],
          [113.35190760805358, 32.42203059276207],
          [113.35220587998339, 32.422827972431165],
          [113.35296006042307, 32.4236860519875],
          [113.35414056497143, 32.42437799305553],
          [113.35505869345428, 32.4241566236646],
          [113.35604243659071, 32.42346463469788],
          [113.35637035279223, 32.42238511212881],
          [113.35630477814448, 32.42147164139563],
          [113.35594408427886, 32.4208903564835],
          [113.35486195918884, 32.42025374787937],
          [113.35364873041732, 32.419755487067945],
          [113.35256659178418, 32.41936797157193],
          [113.35246824362468, 32.41873131873338],
          [113.35318960523176, 32.41834378645629],
          [113.3539766390785, 32.41790090381531],
          [113.35522265208999, 32.418177698135125],
          [113.35637035074376, 32.41806697494533],
          [113.35797713727823, 32.41823305425545],
          [113.35899366564502, 32.418426826304795],
          [113.36037090971638, 32.4181500144295],
          [113.36151860144429, 32.41776247904767],
          [113.36201051712925, 32.41684897570288],
          [113.3626991370939, 32.41632302285217],
          [113.3636811678038, 32.41499781980718],
          [113.36364834695752, 32.41394579315903],
          [113.36240217058531, 32.41322596219379],
          [113.36082800661444, 32.412256988849194],
          [113.36079521069558, 32.41128799124871],
          [113.36120165584953, 32.410407173153615],
          [113.36087372923373, 32.40921675433269],
          [113.36046551157966, 32.40820152646468],
          [113.36026876620463, 32.407315717014],
          [113.36171159364386, 32.406761946811045],
          [113.36276096114352, 32.4066511191301],
          [113.36466281881076, 32.40678965923904],
          [113.36551535295996, 32.407232656349095],
          [113.3663024601758, 32.407952357091574],
          [113.36708948238959, 32.4086167760568],
          [113.3668599936853, 32.40925349186682],
          [113.36748304618698, 32.41000097150301],
          [113.36781091568548, 32.41055466815894],
          [113.36853226301406, 32.41063773489515],
          [113.36908971469859, 32.41030553183913],
          [113.3693521694106, 32.409281187346835],
          [113.3696145622784, 32.40828451791812],
          [113.36997528201562, 32.407177112211244],
          [113.37006015728412, 32.406053367559664],
          [113.37110947885685, 32.4056104107688],
          [113.37327377959411, 32.405112053781934],
          [113.37451993750108, 32.404835174827255],
          [113.37622514322823, 32.40428145152006],
          [113.3772088932422, 32.403810792867674],
          [113.37714703769785, 32.4029982937937],
          [113.3760320129283, 32.401696903779836],
          [113.37468741115703, 32.400976977482046],
          [113.37314600023325, 32.40017399513701],
          [113.37216213894101, 32.400090935373726],
          [113.37140784220128, 32.39939871157118],
          [113.371375063085, 32.39823571856172],
          [113.3721294107043, 32.39732184635352],
          [113.3722933122346, 32.396463542654686],
          [113.37350676911859, 32.39646348162748],
          [113.37481859584238, 32.396934204541424],
          [113.37642556247596, 32.39770954341937],
          [113.3779669931348, 32.39856792466203],
          [113.37875406354738, 32.399010978254324],
          [113.38006591870624, 32.39842946478879],
          [113.38059063698813, 32.39723876517725],
          [113.38052497406585, 32.39596501189985],
          [113.38075525444293, 32.39500878277367],
          [113.38042741709666, 32.39412273386901],
          [113.38013230044675, 32.39351356280069],
          [113.3789845760947, 32.39268286459419],
          [113.37898457115585, 32.39171371168837],
          [113.37872211179405, 32.3907723129642],
          [113.37639393410939, 32.39049535473703],
          [113.37563972192197, 32.389443083606665],
          [113.37491829204504, 32.38852925265108],
          [113.37409847262177, 32.388196960347486],
          [113.37393451385037, 32.38670156165833],
          [113.3744591971311, 32.38548312791326],
          [113.37518063592586, 32.384292367069335],
          [113.37590208298059, 32.383572331419956],
          [113.37734494833853, 32.38324006873246],
          [113.37836148138081, 32.38354477438],
          [113.37911574288557, 32.38456933721213],
          [113.38072262867468, 32.38578774473602],
          [113.38173921328615, 32.38648004260445],
          [113.38308373830074, 32.38678464149345],
          [113.3840673512027, 32.38650784582862],
          [113.38449386377289, 32.38465230351723],
          [113.38501537074302, 32.38348412579538],
          [113.38527771801495, 32.38254256038813],
          [113.38596403903495, 32.38158117923447],
          [113.38658712299201, 32.38058418168454],
          [113.38757088995061, 32.37889486456433],
          [113.3887513482473, 32.37792565831748],
          [113.39091568507314, 32.37787023188557],
          [113.39301429974125, 32.378396507473056],
          [113.3946210478922, 32.37936583752888],
          [113.39553951601295, 32.38047342694553],
          [113.39599845461208, 32.38155354542842],
          [113.39530998685785, 32.38241196359132],
          [113.394162375083, 32.38371349372699],
          [113.39435912313127, 32.384655057018975],
          [113.39550684894755, 32.38504276149446],
          [113.39715832765944, 32.384125568586185],
          [113.3995521408753, 32.38321171299809],
          [113.40050319003228, 32.382436294036026],
          [113.40247073086903, 32.38210398016015],
          [113.40647873019117, 32.38061571911982],
          [113.40756096561313, 32.37989568712213],
          [113.40936450806294, 32.37845562494029],
          [113.41100396421666, 32.37720943533763],
          [113.41313332344106, 32.37501257696137],
          [113.41516650899746, 32.37426479555391],
          [113.41775717546045, 32.37420939116747],
          [113.42002551953578, 32.374013885204405],
          [113.42317350750187, 32.37326612020945],
          [113.4248131523301, 32.37301685702121],
          [113.4264855506359, 32.37257372842279],
          [113.42756763794091, 32.37149360580389],
          [113.42753479895828, 32.370468870068834],
          [113.42690183744577, 32.36852906976712],
          [113.42604913526225, 32.36764272411273],
          [113.42562286194311, 32.36647938585405],
          [113.42618036772859, 32.36523293114081],
          [113.42759049263935, 32.36329396912592],
          [113.42930868288045, 32.3616509420314],
          [113.4312106768304, 32.36090304185397],
          [113.43268637698941, 32.35996123600856],
          [113.43422761984323, 32.35932412449256],
          [113.43514581339059, 32.35865931094621],
          [113.43671987787133, 32.357994492090356],
          [113.43849062178765, 32.35727427871207],
          [113.4388405675449, 32.356183801932886],
          [113.43873673918227, 32.353947015236244],
          [113.43863831197649, 32.35245114900707],
          [113.43867103258992, 32.3512599976263],
          [113.43772251448092, 32.35001999693496],
          [113.43683714569886, 32.34882877113782],
          [113.43539429099235, 32.348053076883815],
          [113.43375468054938, 32.346667883736714],
          [113.43359069727506, 32.345504310593356],
          [113.4326397248758, 32.34445152998164],
          [113.43250853964952, 32.34323252750981],
          [113.43293474189215, 32.34173657500688],
          [113.4336890776101, 32.34054508918747],
          [113.43427938399924, 32.339325964064884],
          [113.43552554865732, 32.33832847551405],
          [113.43746021195778, 32.3386056664873],
          [113.43900154696865, 32.33940908401382],
          [113.44185445916821, 32.33976930246594],
          [113.44388770980186, 32.33899346691052],
          [113.44565862617486, 32.33810679522827],
          [113.44713433694898, 32.33730327428208],
          [113.44809742711345, 32.33676302030581],
          [113.4493434949672, 32.337594253480205],
          [113.45127828251304, 32.33884099387288],
          [113.4526227715449, 32.33958905401333],
          [113.4541968312817, 32.34017086837123],
          [113.45603320865143, 32.340724982678694],
          [113.45800073768561, 32.34036481065668],
          [113.45941084546297, 32.33947821326967],
          [113.46121715272108, 32.33832997360015],
          [113.46187294347538, 32.33686154825257],
          [113.46274938590733, 32.33529739303333],
          [113.46227800575019, 32.33369587991096],
          [113.46135986712187, 32.332532164668464],
          [113.4603104864558, 32.331423824777985],
          [113.45942507505578, 32.33020464620677],
          [113.45952345398342, 32.3290131646052],
          [113.45998254500506, 32.327873606610865],
          [113.46185173377819, 32.32787359263776],
          [113.46398319812505, 32.32779047450096],
          [113.46618033523953, 32.327735040510476],
          [113.4676231216506, 32.32734712388468],
          [113.46932835948269, 32.32745795252055],
          [113.47027933345447, 32.32801214393287],
          [113.4698529826839, 32.329619282123616],
          [113.47008262460179, 32.33117097031659],
          [113.47001702435563, 32.3329442999149],
          [113.47051323698133, 32.333927339601544],
          [113.47185769284192, 32.33500791043345],
          [113.47254631539414, 32.33578369538888],
          [113.47346446639483, 32.33736293273809],
          [113.47421868470059, 32.33836036334179],
          [113.47503846460455, 32.33966250889222],
          [113.4761205934742, 32.34038285581862],
          [113.47753064789987, 32.34068763013309],
          [113.47861274848196, 32.340382853617044],
          [113.47890788169622, 32.33960711481902],
          [113.47920092995776, 32.33789831098824],
          [113.47926653014264, 32.33629135210849],
          [113.47893859440103, 32.3350722539375],
          [113.47887301102145, 32.333243582240584],
          [113.47884021058672, 32.33205215790822],
          [113.47920091561127, 32.33094384248869],
          [113.48033489508464, 32.32996529718598],
          [113.48131865399387, 32.328967780171496],
          [113.48217124406119, 32.328413603659286],
          [113.48341733515997, 32.32744377850136],
          [113.48505693708523, 32.32672333147852],
          [113.48725399835286, 32.32611371784941],
          [113.48869683018609, 32.32567036345348],
          [113.49069714419892, 32.32533784229682],
          [113.49297268421549, 32.32474937477936],
          [113.49451389944994, 32.32383494237463],
          [113.49592392038522, 32.323391583394056],
          [113.49703883621987, 32.323225320384864],
          [113.49851448019649, 32.32394578220769],
          [113.49985890209302, 32.32505418206934],
          [113.50346955751797, 32.326283947586845],
          [113.50504276445639, 32.32660610382784],
          [113.50691188009546, 32.32627358563481],
          [113.50861705357039, 32.325608554099404],
          [113.51005989507178, 32.32552542495546],
          [113.51150268501743, 32.32591335808027],
          [113.51235540556632, 32.326550692723615],
          [113.5134736867883, 32.32811293589975],
          [113.5141295229538, 32.32919357733526],
          [113.51537559988151, 32.330107953446856],
          [113.51629377979981, 32.33027420956607],
          [113.51727754823986, 32.33002484071382],
          [113.51891720443717, 32.32980318972302],
          [113.5203600305108, 32.33057902413216],
          [113.52183568461822, 32.331244029006],
          [113.5241310761051, 32.33127172475693],
          [113.52504406985793, 32.33192766747331],
          [113.52648690840249, 32.332204746261695],
          [113.52874954856424, 32.33273119470324],
          [113.52983168388096, 32.333313054894404],
          [113.53212711091214, 32.333728666157214],
          [113.53455032765135, 32.33513092168066],
          [113.53632108258756, 32.33582358849141],
          [113.53769833778557, 32.3363223068671],
          [113.53923954370373, 32.336017535747004],
          [113.54104310371736, 32.33474302785049],
          [113.54235476881729, 32.33421659447495],
          [113.54478134364405, 32.33266498540269],
          [113.54697034392427, 32.3330986841965],
          [113.54923299364685, 32.33406844413561],
          [113.55067585176573, 32.335093613345904],
          [113.55277454988823, 32.33717162750966],
          [113.55614748783228, 32.339940276818425],
          [113.55752473425684, 32.34085454570541],
          [113.55886919271478, 32.34210126261456],
          [113.55995131557353, 32.34276617078018],
          [113.56319769996276, 32.342489130225516],
          [113.56528285136397, 32.342376072636526],
          [113.57108696460227, 32.34281934380107],
          [113.57292329420494, 32.34334572558261],
          [113.57649756944556, 32.34481403506773],
          [113.57948484744543, 32.34716148496855],
          [113.58161631493783, 32.34923921437742],
          [113.58507803175667, 32.35252601439335],
          [113.58816059856622, 32.35308005902452],
          [113.59173498799953, 32.352969249581335],
          [113.59445681062078, 32.35305235665547],
          [113.59708008686988, 32.352996950749386],
          [113.59934295824178, 32.353384782813436],
          [113.60062199341792, 32.354629552761764],
          [113.60042524831414, 32.356125386103756],
          [113.59858888695805, 32.35803669416288],
          [113.59645745130808, 32.35944938147938],
          [113.59376851893308, 32.36008647844179],
          [113.59075164534369, 32.360197284170226],
          [113.58822664279188, 32.36077897715647],
          [113.58616860220474, 32.36223458765578],
          [113.5857094795038, 32.36461666446185],
          [113.58613577676567, 32.366527802427925],
          [113.58807045691498, 32.36713720375835],
          [113.59174318651071, 32.36782959285823],
          [113.59515355435752, 32.36769115410114],
          [113.59853378191013, 32.36705829107176],
          [113.6000422081068, 32.365839587767226],
          [113.60269840455771, 32.3636237773912],
          [113.60417404433878, 32.362155741077856],
          [113.60669897306809, 32.36099236089092],
          [113.60978048255299, 32.36023514466662],
          [113.61322366905097, 32.36081682231317],
          [113.61597830035817, 32.362257216907665],
          [113.61791309565945, 32.363337497052925],
          [113.6187984442168, 32.36530408467344],
          [113.61870148048553, 32.36949395441961],
          [113.619194414378, 32.37211684841989],
          [113.61894794743176, 32.37523924203313],
          [113.6195190825336, 32.38110750017627],
          [113.62205733997848, 32.383986737373576],
          [113.62442342266348, 32.38515229048649],
          [113.62743031940971, 32.386817340275286],
          [113.62974710870702, 32.38810773275165],
          [113.63270471206368, 32.390313844929906],
          [113.63408492696368, 32.39376859157967],
          [113.6353172616968, 32.39713996390036],
          [113.63728899726851, 32.400261492704516],
          [113.6377335186242, 32.40406522499232],
          [113.64005030791958, 32.4070616648484],
          [113.64093758892716, 32.40910085175514],
          [113.64315579144511, 32.41201389598588],
          [113.64458529973484, 32.41409458429446],
          [113.64719784936784, 32.41588393786763],
          [113.65094103170992, 32.41484690730492],
          [113.65453944912787, 32.41364012399052],
          [113.65774351943082, 32.41318237437366],
          [113.66001101533845, 32.41451400317524],
          [113.66104617651297, 32.415928837244536],
          [113.65789139959969, 32.41896649426451],
          [113.65665906486669, 32.42187922000738],
          [113.65759563921017, 32.423751637354826],
          [113.65941949461302, 32.42420933334887],
          [113.66275857851912, 32.42147904571962],
          [113.66487819425794, 32.41998107758067],
          [113.67103986791938, 32.420688454523415],
          [113.67326176245331, 32.42198178008981],
          [113.6755785517505, 32.42260592266132],
          [113.68031071712232, 32.42144085303518],
          [113.68228245269216, 32.41998449484264],
          [113.6843527750575, 32.41898583563683],
          [113.68795119247551, 32.419526777412244],
          [113.68972575449067, 32.420483820300646],
          [113.69278194462663, 32.42223143763759],
          [113.69554237442668, 32.42231465666684],
          [113.69736622982958, 32.42077509220836],
          [113.69820421744754, 32.418236833977815],
          [113.69909703409076, 32.416315650286265],
          [113.69978714153979, 32.41427662640491],
          [113.70156170355494, 32.41302822169558],
          [113.70511082758344, 32.41290338027464],
          [113.70752620365795, 32.4140685601529],
          [113.70954723261929, 32.41635726253902],
          [113.71163921540051, 32.4191356072927],
          [113.71395600469589, 32.41975976955624],
          [113.71691360805437, 32.4191356072927],
          [113.7194275709083, 32.41742954174077],
          [113.72268093460076, 32.415348930333124],
          [113.72494843050839, 32.415140866552974],
          [113.72731451319333, 32.41767921188563],
          [113.72874402323686, 32.41867788565658],
          [113.72953271791664, 32.42217315653872],
          [113.73115940279001, 32.42587093281],
          [113.73341245059441, 32.428294198900886],
          [113.73563065311237, 32.43066575171191],
          [113.7398987461143, 32.42922492290049],
          [113.74344477436603, 32.42736993239831],
          [113.74680864384794, 32.42522540581933],
          [113.74834283676432, 32.42308914776547],
          [113.7481781540888, 32.42009485469109],
          [113.75055536049916, 32.41724746047274],
          [113.7554808944003, 32.41911564876044],
          [113.75797944328315, 32.421235738690456],
          [113.76271274244982, 32.42451747179726],
          [113.76913607366635, 32.4283696006801],
          [113.77605669797106, 32.431075829726026],
          [113.78180715506016, 32.43193329258162],
          [113.78620184029944, 32.43021979215919],
          [113.78856885910386, 32.428220981625685],
          [113.79195070988135, 32.42379649650475],
          [113.79499424412177, 32.421084923497574],
          [113.7975315045453, 32.416800449318245],
          [113.80159009302116, 32.416800449318245],
          [113.80428730434659, 32.42023644936789],
          [113.80445720838594, 32.424801011023135],
          [113.80496907531216, 32.431504658422696],
          [113.80818156528773, 32.433074356257606],
          [113.81376002678871, 32.4325037157069],
          [113.81748910128687, 32.430646579141154],
          [113.822708989234, 32.431934582358366],
          [113.82763101053604, 32.43649908880039],
          [113.83168563733153, 32.434643918577095],
          [113.83319766605996, 32.43193347823261],
          [113.83300943245706, 32.427514291152946],
          [113.82896745975779, 32.424086958271175],
          [113.82574367672817, 32.421095872601384],
          [113.82744653155692, 32.41809406261309],
          [113.83100508438343, 32.414236504164535],
          [113.83741835158759, 32.41738104522298],
          [113.84199461046074, 32.423085054190295],
          [113.84574035112422, 32.42621961450607],
          [113.84928076697832, 32.4233667655335],
          [113.85215000464291, 32.419514012818894],
          [113.85522368348427, 32.41386740273579],
          [113.85744168936981, 32.4102390466427],
          [113.86076874882002, 32.40661064456373],
          [113.86547868660153, 32.404036599022234],
          [113.86686846847397, 32.399353525660175],
          [113.86658459113744, 32.39318693722015],
          [113.86671655922964, 32.38967975251997],
          [113.8653371064052, 32.38592765936458],
          [113.86484601494158, 32.38001184640174],
          [113.86429149818747, 32.37427370592846],
          [113.8660940558189, 32.36794949545826],
          [113.86734257192217, 32.364435384434586],
          [113.87316651161728, 32.35881319430051],
          [113.87801998570814, 32.35459616512058],
          [113.88168236382063, 32.34860342499729],
          [113.8854217766505, 32.343455049778655],
          [113.88389836289747, 32.3353814866649],
          [113.88148568095482, 32.33010538520115],
          [113.87995949089816, 32.32554030125341],
          [113.88120830546461, 32.32108568351468],
          [113.88689201614221, 32.31721914926828],
          [113.89715105764907, 32.31639954547654],
          [113.90283426856456, 32.30983844195087],
          [113.90755107903306, 32.29788473449253],
          [113.9253410686149, 32.280660244366615],
          [113.93114043204116, 32.27268082974361],
          [113.93580160873478, 32.26662495546816],
          [113.94580468657932, 32.25989749165295],
          [113.95181599234252, 32.25303234151143],
          [113.9575065782123, 32.24671124385013],
          [113.96170871064737, 32.24757866298306],
          [113.96751714063265, 32.250072227095686],
          [113.97481387293539, 32.25191960229655],
          [113.98057697099233, 32.25045264819178],
          [113.98443781866166, 32.248370403908666],
          [113.99036915680688, 32.2458620799533],
          [113.9961351826874, 32.24318667513752],
          [114.00313217699295, 32.243944100070124],
          [114.01236529733637, 32.24821617568148],
          [114.01757198972649, 32.25118055784915],
          [114.02221556504378, 32.25610107507802],
          [114.02495692299465, 32.2590343642147],
          [114.02899784251184, 32.26738318807155],
          [114.0299488324901, 32.270930790246695],
          [114.03150577809754, 32.27395811764639],
          [114.03418098163763, 32.28082355838602],
          [114.0382088201631, 32.28578947983135],
          [114.04309657765094, 32.28978112434396],
          [114.04880351275165, 32.29323386749195],
          [114.05361523280146, 32.29654451876088],
          [114.0611462347793, 32.305495741599174],
          [114.06394316642167, 32.30785968883828],
          [114.06780953052976, 32.31068372874407],
          [114.07436320290526, 32.31364341071989],
          [114.07822310144786, 32.31610173704655],
          [114.08197131034694, 32.31969489267169],
          [114.08085246813226, 32.32376051483217],
          [114.07637415167125, 32.32915691470622],
          [114.0693277105558, 32.336007897685946],
          [114.06378880199435, 32.33865548687852],
          [114.06356503247571, 32.34347687200078],
          [114.06892342463692, 32.35248090115621],
          [114.07321601521068, 32.356894937077726],
          [114.07638839634518, 32.359102315440424],
          [114.08072043781027, 32.3616522316659],
          [114.08240441994315, 32.364303739468184],
          [114.08356764857109, 32.36733619914149],
          [114.08616985408275, 32.369534675483436],
          [114.08762388787386, 32.3736083843275],
          [114.0850976043011, 32.37612994378921],
          [114.08731775458295, 32.379621274807306],
          [114.08976747461026, 32.381819595754294],
          [114.09336568461873, 32.383953001615396],
          [114.09662870045327, 32.38699434942983],
          [114.099843488933, 32.39242532137909],
          [114.10122155810194, 32.39753220163969],
          [114.10191058232277, 32.40179855368588],
          [114.10168090527935, 32.40425482606129],
          [114.10155005764443, 32.40735342549176],
          [114.10323356761381, 32.411165783745105],
          [114.10499519719144, 32.4134285351508],
          [114.10698571363974, 32.413428979857414],
          [114.11119520241351, 32.41575465065321],
          [114.11509909898695, 32.41775771362656],
          [114.11754884278963, 32.418920773080785],
          [114.11800805586847, 32.42150556095679],
          [114.1164767767936, 32.42454223460368],
          [114.11326194699382, 32.42641630051615],
          [114.1111950277309, 32.429259718612784],
          [114.10813279592298, 32.432942972468894],
          [114.10713756705519, 32.43585058727919],
          [114.10744403054156, 32.438628075755275],
          [114.11063622779858, 32.441308605809866],
          [114.11392860198987, 32.443053849062096],
          [114.11890651602073, 32.44466965260568],
          [114.12434418010793, 32.44848326306413],
          [114.12633559666824, 32.45249058823251],
          [114.12901616999693, 32.45817762187623],
          [114.13215658952709, 32.45966446141277],
          [114.14226599270029, 32.4597931230402],
          [114.149005797072, 32.458823762637536],
          [114.15536519550318, 32.455916906888305],
          [114.15797016723548, 32.45158681441815],
          [114.1588133537253, 32.4473855813755],
          [114.16331050479613, 32.439173817829285],
          [114.16491958204938, 32.43516541864288],
          [114.1668347176261, 32.432191171624794],
          [114.17051105827522, 32.429346059988745],
          [114.17708612213727, 32.42827518878454],
          [114.18298588485413, 32.42872802678228],
          [114.19034074210919, 32.42762859066664],
          [114.19486020456992, 32.427111117024],
          [114.19884558167587, 32.42542986883781],
          [114.20146066866772, 32.422265160097794],
          [114.20467543887293, 32.419809600368325],
          [114.20681823734623, 32.41806484302141],
          [114.21102942026926, 32.415673458685816],
          [114.21753683958946, 32.41496254833902],
          [114.22159459615284, 32.41567350029223],
          [114.2316241243256, 32.415867564284554],
          [114.23522262452144, 32.415156511811475],
          [114.2415007713638, 32.41354064325701],
          [114.24425725083893, 32.409274596739834],
          [114.2457887711758, 32.40345676029416],
          [114.2469692955055, 32.39901243070153],
          [114.24765830460495, 32.395650976219656],
          [114.24827085901376, 32.39344620584512],
          [114.25934578711929, 32.38910954059146],
          [114.26799573602585, 32.388442149064275],
          [114.2738137350392, 32.38786031003907],
          [114.27970864026992, 32.383205385718384],
          [114.28078049866997, 32.38036065825871],
          [114.28238829237722, 32.37531782005695],
          [114.28712190344993, 32.37060057982555],
          [114.29293999500294, 32.37008342844361],
          [114.30090126405099, 32.37176460573083],
          [114.30595367783803, 32.37396262771807],
          [114.3112351410997, 32.37266972761434],
          [114.3177426287603, 32.371117838634376],
          [114.32276264649653, 32.36995685541743],
          [114.33072312225914, 32.369956482260946],
          [114.33524096578225, 32.36762912271983],
          [114.33753750202794, 32.36459005644798],
          [114.33891548819707, 32.359352288720174],
          [114.342893403451, 32.35155791889311],
          [114.3426633935631, 32.34405550510776],
          [114.34128571683237, 32.338686983948605],
          [114.34105608288479, 32.33318876397762],
          [114.34197117250267, 32.32945794650125],
          [114.34487870971367, 32.32538405366684],
          [114.34931801078437, 32.32253817964026],
          [114.35406330006401, 32.319627639977725],
          [114.3591150574382, 32.31697556415641],
          [114.36294215639225, 32.31432340537937],
          [114.3647466107472, 32.3117601560364],
          [114.36421062886512, 32.30768496409165],
          [114.36482142566541, 32.30414988285516],
          [114.36436217068956, 32.300591746569026],
          [114.3659695428546, 32.29666390728477],
          [114.37086078271733, 32.29473158310272],
          [114.38073695114178, 32.2938255757055],
          [114.38693833268331, 32.293437206363876],
          [114.3948242591585, 32.291948713378076],
          [114.3994943626223, 32.29149567697833],
          [114.40368369942121, 32.28899573498549],
          [114.40605694018473, 32.286342303371086],
          [114.41072682890433, 32.28284734325321],
          [114.4164686293741, 32.28097039311075],
          [114.4202954406718, 32.28381799018136],
          [114.42603627449301, 32.29041870371553],
          [114.42840825998303, 32.29080652892935],
          [114.43188876573333, 32.28860543211762],
          [114.4351010386564, 32.28666335315684],
          [114.43862624400958, 32.28278065785118],
          [114.44113778977726, 32.28165840919209],
          [114.44513525618106, 32.282008013771545],
          [114.45005168845091, 32.28402797294356],
          [114.45427879801639, 32.28795115393861],
          [114.45768119693037, 32.291286060569035],
          [114.46018438889365, 32.29345813353643],
          [114.46431973707627, 32.29520596969431],
          [114.46937403315064, 32.29516712062686],
          [114.47240666646945, 32.29306972544562],
          [114.47759588940681, 32.28899738261944],
          [114.48423015891575, 32.287368089579076],
          [114.4867573163196, 32.28643582776523],
          [114.4908008355813, 32.289310273777104],
          [114.48956018017418, 32.29389364739616],
          [114.4941571044364, 32.30033323947424],
          [114.50215210631404, 32.30149837861153],
          [114.50688475001863, 32.30223628853922],
          [114.51671301268101, 32.300805506057316],
          [114.52100698806464, 32.29801480490882],
          [114.52447131262966, 32.29438809025379],
          [114.53040688097775, 32.288808203085054],
          [114.5376722638386, 32.28783126392881],
          [114.54527208762971, 32.29048079363258],
          [114.54989313091369, 32.29480439650882],
          [114.55533675762632, 32.300802413381035],
          [114.56309101387433, 32.307079705599236],
          [114.56556441007933, 32.3101510234861],
          [114.57662123558941, 32.3102931186918],
          [114.58355298923391, 32.309173108644984],
          [114.59114355561411, 32.305963957144826],
          [114.59774132420779, 32.30582076200717],
          [114.60352449295351, 32.30527115768808],
          [114.6086943008595, 32.30256333567371],
          [114.61744011743491, 32.30214353524758],
          [114.62222505823183, 32.307861149227065],
          [114.6266791739231, 32.3127405634406],
          [114.63063924290981, 32.31274079631096],
          [114.63856389412638, 32.310931875002595],
          [114.64599158022133, 32.308003760546825],
          [114.65209192654902, 32.30451434305051],
          [114.65885723377198, 32.303398564907624],
          [114.66792808958974, 32.307302131906525],
          [114.67338595532425, 32.30939824388574],
          [114.67784700300183, 32.30856293269815],
          [114.6809824750697, 32.30507550739722],
          [114.68180668309651, 32.30116936206886],
          [114.67848798549807, 32.29656362692825],
          [114.67487615843072, 32.292380512673304],
          [114.67487767735395, 32.287636827463714],
          [114.67618949712056, 32.28373063173713],
          [114.68131371229339, 32.28233473460543],
          [114.68839825807805, 32.28289376665252],
          [114.6941504385822, 32.28658527741712],
          [114.70058600301581, 32.28909597698923],
          [114.70438157737539, 32.29648904963892],
          [114.70669259419134, 32.30388217966343],
          [114.71230306159543, 32.31280836824226],
          [114.71626542701284, 32.319922988240236],
          [114.72610546777207, 32.326135972980495],
          [114.7335326412375, 32.32529957694075],
          [114.74244602695813, 32.32432382240849],
          [114.75217824959446, 32.3180464835459],
          [114.76043619679024, 32.312328238116194],
          [114.77314212016404, 32.30953860290231],
          [114.78253850178345, 32.30763333777277],
          [114.79261736638131, 32.30484116739163],
          [114.80351217078572, 32.29953660635201],
          [114.81326370553364, 32.29702236819142],
          [114.81606619631276, 32.303864122374776],
          [114.82233424834578, 32.30819131752612],
          [114.83142397764738, 32.30735404346841],
          [114.8392788330375, 32.30569376024296],
          [114.84703887236805, 32.30387924323625],
          [114.85149581492755, 32.304018327580096],
          [114.86403934369014, 32.30178699398468],
          [114.87113427998122, 32.30304144443579],
          [114.87674566850137, 32.30346008156316],
          [114.8848406447812, 32.30081067079534],
          [114.89077582075464, 32.29829891087077],
          [114.89992895093292, 32.29517135317525],
          [114.90983092388393, 32.288336996665976],
          [114.91593522784865, 32.284570652173485],
          [114.9207645240798, 32.28145038124836],
          [114.92515245218232, 32.279078975672064],
          [114.92856564559173, 32.27804712324445],
          [114.93344386616769, 32.2788736255622],
          [114.93722324532058, 32.28011045863367],
          [114.94441844641233, 32.27876891390869],
          [114.94758640955808, 32.276296427485065],
          [114.95233950899404, 32.27506051262276],
          [114.9617334808874, 32.27464532408814],
          [114.96721705091386, 32.274234215680664],
          [114.97234408182305, 32.276603693656256],
          [114.97356313533732, 32.278047189771755],
          [114.97149541287092, 32.28237674925897],
          [114.97099914624323, 32.28598548596089],
          [114.9705083072796, 32.288562258764955],
          [114.9735549122974, 32.29082957971812],
          [114.9783197129126, 32.291861551266535],
          [114.97964946958376, 32.29464257865634],
          [114.97710377102578, 32.30052161689986],
          [114.97867953828182, 32.30350711361875],
          [114.98285013562088, 32.3054173774766],
          [114.98870370679424, 32.30541816390139],
          [114.99492230688247, 32.303252336366924],
          [114.99992171806855, 32.303149320198],
          [115.00455782980384, 32.30459301070917],
          [115.0130919889163, 32.30418019242238],
          [115.01992721058997, 32.302737888441925],
          [115.02651385731184, 32.30242864849315],
          [115.03346111046972, 32.3028406587741],
          [115.03968837134971, 32.305212312910626],
          [115.04571746019957, 32.304974642824405],
          [115.05156930271494, 32.30332439972439],
          [115.05974077398002, 32.30198344650415],
          [115.0666986930766, 32.30198447386856],
          [115.07377817500424, 32.3086867166424],
          [115.07841845657077, 32.31198534468356],
          [115.08182291325159, 32.31724385822643],
          [115.08353612648972, 32.32252548285848],
          [115.0845128864027, 32.32705948477587],
          [115.08414651794226, 32.332728064051],
          [115.08475540324491, 32.3404583399942],
          [115.09228176416099, 32.344671633012965],
          [115.0984248594853, 32.34918663166005],
          [115.10281491578678, 32.35402792101347],
          [115.10598840692876, 32.35927664782757],
          [115.11074422319092, 32.366711044784054],
          [115.11049853561292, 32.3732011468838],
          [115.1141580813815, 32.377628317916546],
          [115.12013236163858, 32.37814509426293],
          [115.12598642797599, 32.37227269466703],
          [115.13074205415535, 32.36794776747331],
          [115.1389130836987, 32.36547683609993],
          [115.14696095553336, 32.36423989599339],
          [115.15616308768307, 32.363361554795276],
          [115.16299191217132, 32.36181610182729],
          [115.16725883004216, 32.35924037673662],
          [115.17067280507382, 32.3589313659411],
          [115.17786963409873, 32.362537434805105],
          [115.18628608757791, 32.36212604119966],
          [115.18920916316432, 32.35810785291919],
          [115.19359558533392, 32.35254544104929],
          [115.19542126384505, 32.34677767657614],
          [115.19701494687962, 32.341315846971995],
          [115.20420621523505, 32.34008048827617],
          [115.20835126081823, 32.34378938385801],
          [115.21395514891077, 32.3467774234001],
          [115.21935195265746, 32.345513074425384],
          [115.22276646605167, 32.341908355725465],
          [115.22825183174069, 32.33861262590899],
          [115.23410202214467, 32.33634715632424],
          [115.23849068866934, 32.3361410366272],
          [115.24166833821454, 32.34283476543983],
          [115.24214875252238, 32.350456406057006],
          [115.24361338284552, 32.356326864408814],
          [115.25616719355361, 32.35848854924673],
          [115.25970537059521, 32.357768562197876],
          [115.26727410911161, 32.35663799899528],
          [115.27542306404627, 32.35634322318478],
          [115.2803013829544, 32.36097752712085],
          [115.28810396439292, 32.36365339559764],
          [115.29481036479143, 32.36489081223114],
          [115.30273433712335, 32.36416932901726],
          [115.30967992466816, 32.36375596902086],
          [115.31679766872497, 32.36550876022061],
          [115.32802348054764, 32.370249279671],
          [115.33485367155942, 32.372926827702116],
          [115.34352433549265, 32.374786006928915],
          [115.35353071435452, 32.37519794316722],
          [115.3629101377768, 32.38021080898646],
          [115.36705635218334, 32.38659519556248],
          [115.36936951438162, 32.389580456392025],
          [115.37070934789836, 32.39215350615781],
          [115.37119796167372, 32.39544784628377],
          [115.36985831422913, 32.400492811287066],
          [115.3674220935585, 32.403378180626845],
          [115.36230086953543, 32.407085261518205],
          [115.35791094794314, 32.41274883440694]
        ],
        "type": "LineString"
      },
      "id": 0
    },
    {
      "type": "Feature",
      "properties": {
        "name": "淮河"
      },
      "geometry": {
        "coordinates": [
          [115.35792936609243, 32.412742687565],
          [115.3571244610664, 32.412980805282274],
          [115.35641492570699, 32.41337372657303],
          [115.35380533913047, 32.41532829739458],
          [115.35291788000632, 32.41612393389504],
          [115.3517360459719, 32.418706373340655],
          [115.35220805721963, 32.42007401508155],
          [115.35295755869925, 32.42124253775354],
          [115.35489902060488, 32.4238782449589],
          [115.3574109555567, 32.42467514613398],
          [115.36015891124242, 32.42541511949197],
          [115.36263712894635, 32.426126626611506],
          [115.37017816612081, 32.42894005076873],
          [115.3697567005259, 32.43061913293573],
          [115.37263952520073, 32.43199937198234],
          [115.37599317837748, 32.43464618353532],
          [115.37912888253129, 32.4346177261404],
          [115.38153966574066, 32.4346177261404],
          [115.38555313004497, 32.432450284980945],
          [115.38642977848389, 32.43101313559343],
          [115.38935981776922, 32.4266964441705],
          [115.38988243510784, 32.42480383479767],
          [115.39137065289168, 32.41978319581497],
          [115.39061201486425, 32.41692270187721],
          [115.3892166177983, 32.41232886849596],
          [115.39019441798092, 32.41012284080199],
          [115.39236918055332, 32.408969991903476],
          [115.39944290467406, 32.40894780209673],
          [115.40184135695768, 32.41082870751275],
          [115.40413412979939, 32.41215232024736],
          [115.40745360322944, 32.41618573052878],
          [115.40620606506485, 32.41814967746977],
          [115.40302027310076, 32.423554168578335],
          [115.40153671420086, 32.42504498517219],
          [115.40065496109901, 32.42976929527971],
          [115.40267799595887, 32.43107840083671],
          [115.40358836164569, 32.43220250892108],
          [115.40559169068536, 32.4352446301356],
          [115.40892969820561, 32.43440513602472],
          [115.41292519205467, 32.434533194953346],
          [115.4159428858631, 32.43487468446202],
          [115.41730843469736, 32.43717970530376],
          [115.41769618304562, 32.43912896709925],
          [115.41730843507077, 32.44133428561625],
          [115.41896372799869, 32.444592082416605],
          [115.42252757531907, 32.445330780473256],
          [115.42696675360065, 32.44467122893316],
          [115.43206243003095, 32.44322019854111],
          [115.43936398541064, 32.4401331230703],
          [115.44324045091685, 32.439209696305824],
          [115.44833612734715, 32.438787555206105],
          [115.45880582112466, 32.43947030405768],
          [115.46299490481653, 32.439074547978876],
          [115.4665900139558, 32.4393911529813],
          [115.47015386127629, 32.43912731555584],
          [115.47231092675992, 32.438256646575866],
          [115.4755746582095, 32.43452998827415],
          [115.47738784368863, 32.432603853466034],
          [115.47938860007815, 32.43080960868487],
          [115.4850930913442, 32.42880650238938],
          [115.48750025137588, 32.427698249925825],
          [115.49131419324681, 32.42587751988643],
          [115.49387766237021, 32.42413591762789],
          [115.49484677874852, 32.421998450715265],
          [115.49603472776369, 32.419570648979146],
          [115.4976916041224, 32.41696550412527],
          [115.49972362237281, 32.415250120147604],
          [115.50309989878048, 32.41509177540655],
          [115.50732809300348, 32.4163387389419],
          [115.51289269671344, 32.41779020193958],
          [115.51889496588439, 32.41731518025598],
          [115.52164600592062, 32.414834470832346],
          [115.52191291837619, 32.40949118673822],
          [115.52306960589709, 32.40745894495788],
          [115.52535171865594, 32.40524190190506],
          [115.53085379905394, 32.40579616752329],
          [115.53464294878603, 32.406087566939135],
          [115.53955105437956, 32.40574445150412],
          [115.5441465417137, 32.404345582680236],
          [115.54696010538748, 32.40782951762394],
          [115.54927347996272, 32.409465864894656],
          [115.5517541925721, 32.408764535590436],
          [115.55459901806472, 32.407180961872726],
          [115.55800655629122, 32.40583490236793],
          [115.56185175997854, 32.40678506410248],
          [115.57235440207558, 32.41375753156464],
          [115.57316720935745, 32.41626466107094],
          [115.57770017305393, 32.41969535697933],
          [115.58728569675759, 32.425008974561194],
          [115.59147478044946, 32.42611726006979],
          [115.59754539164237, 32.427804004860405],
          [115.60254728261862, 32.42785677903352],
          [115.60429794446009, 32.426590190340775],
          [115.60470434831865, 32.424558333849234],
          [115.60588276893714, 32.42173250977358],
          [115.61025638005128, 32.41731300925095],
          [115.61460177283732, 32.41586153857649],
          [115.61857915267132, 32.41481274605965],
          [115.62802022188993, 32.41636979542521],
          [115.63170911648331, 32.416633699434215],
          [115.63699236382644, 32.41856017531647],
          [115.64279362253887, 32.42233177345551],
          [115.64448176074274, 32.42510254393352],
          [115.64961586486965, 32.43097934491347],
          [115.65146031241005, 32.43314298463821],
          [115.65410301851006, 32.43492490403709],
          [115.65771758987864, 32.437288135617536],
          [115.66059367828063, 32.43910863533425],
          [115.66275074375812, 32.440533348550844],
          [115.66537673651908, 32.441958039248064],
          [115.67035889075572, 32.44601043392393],
          [115.673797690801, 32.4498620895057],
          [115.67547128442817, 32.45439852396537],
          [115.67368297911628, 32.45888885403092],
          [115.67190105545609, 32.462238797207775],
          [115.6692515420591, 32.4668478330035],
          [115.67137734572395, 32.46853585973831],
          [115.67562895305105, 32.469168861604814],
          [115.68241276768748, 32.46911611161981],
          [115.68925910596158, 32.469722734589055],
          [115.69144743326154, 32.46869411062228],
          [115.69547179622708, 32.4723154061483],
          [115.69497235357062, 32.47616139124192],
          [115.69144098042574, 32.47928358597156],
          [115.68834606038496, 32.48199986324316],
          [115.68572063498988, 32.489229314229846],
          [115.6886592459366, 32.49173434456651],
          [115.69084757432546, 32.494081100147724],
          [115.69486522692023, 32.497243101017574],
          [115.69877295424527, 32.49700579987778],
          [115.7018366124671, 32.49629389270103],
          [115.70430629581881, 32.493894460283684],
          [115.7111638734815, 32.49006916422121],
          [115.71357103349902, 32.48724765181473],
          [115.7253710441459, 32.482073792154864],
          [115.73012284057165, 32.48004318650946],
          [115.7344369715388, 32.47869821469254],
          [115.74328253423772, 32.4779292698809],
          [115.75400533801547, 32.48172681806716],
          [115.75781927988413, 32.48267618007722],
          [115.77387638758512, 32.49005540754503],
          [115.77908694554236, 32.486311314800446],
          [115.78263246209269, 32.48205113731122],
          [115.7825247771301, 32.475070356619526],
          [115.794452860805, 32.48377306594058],
          [115.80046946367099, 32.48839588325309],
          [115.81360851275275, 32.49868629577223],
          [115.81758327846376, 32.50240227434162],
          [115.82392363652974, 32.50647995476716],
          [115.83037051028259, 32.5065705666313],
          [115.83441311920598, 32.52128418760789],
          [115.83598625844985, 32.528336625536866],
          [115.83813145311649, 32.5327974377428],
          [115.8435656120754, 32.53545004084688],
          [115.85730580865123, 32.54090357587036],
          [115.86253392487492, 32.547275060900034],
          [115.86918035677627, 32.55406328341607],
          [115.87304244686555, 32.55810105900416],
          [115.87704395595244, 32.56298062665371],
          [115.88404964162186, 32.57258692607468],
          [115.88648072392522, 32.57656341891203],
          [115.88976670976518, 32.57957344391002],
          [115.89384141225673, 32.58059754287558],
          [115.90468475503224, 32.57869985145628],
          [115.91252817806492, 32.575641761019995],
          [115.91853459722296, 32.57106279135421],
          [115.92611603724964, 32.56985802524984],
          [115.93333889227273, 32.574197230387256],
          [115.95143930315913, 32.58679463184086],
          [115.95830120814986, 32.5924557247465],
          [115.98735330090489, 32.602398559955446],
          [115.99740639666851, 32.59263101803435],
          [116.00941615956043, 32.58913776901403],
          [116.02281897404168, 32.58306150972804],
          [116.02503537743866, 32.576193323834275],
          [116.03255732621716, 32.56811115590891],
          [116.04631985638133, 32.558314613483915],
          [116.05368328548195, 32.55463892815163],
          [116.05990375349734, 32.552951201375365],
          [116.06858074824379, 32.54907576236603],
          [116.0802332190566, 32.546424654595626],
          [116.08416520053669, 32.541120291850945],
          [116.08809901068184, 32.53328331827629],
          [116.0899586420332, 32.529003216621305],
          [116.09609621033661, 32.51676817712436],
          [116.09873918853356, 32.51152137326895],
          [116.1025295438991, 32.50518867035056],
          [116.10906338686368, 32.49295199286236],
          [116.11120925037136, 32.48643747802373],
          [116.1238905994727, 32.46993060538453],
          [116.13728590042643, 32.461394923389705],
          [116.14576790965572, 32.45354759042901],
          [116.15479435061303, 32.44408511048172],
          [116.17174995186502, 32.435545231921225],
          [116.19554266571777, 32.45123995660144],
          [116.23191662673622, 32.46254719287067],
          [116.25844137692962, 32.471313246967114],
          [116.29998519216502, 32.47455055427815],
          [116.34156578228647, 32.47455154660409],
          [116.36563701085123, 32.47270374495366],
          [116.44444094707188, 32.474254696677036],
          [116.46030357971404, 32.46848667033392],
          [116.48491899963358, 32.47563899932017],
          [116.49650734710923, 32.4851721811814],
          [116.53629790870042, 32.50718311272779],
          [116.55253010904653, 32.52484263719988],
          [116.5660760854393, 32.53906290212878],
          [116.57338025338822, 32.54130269046561],
          [116.61161004826693, 32.547922693716515],
          [116.62422143759835, 32.551838107006404],
          [116.6509110106266, 32.558778803994116],
          [116.65926119899689, 32.56359118304334],
          [116.67100825520822, 32.56826830469589],
          [116.6781697553186, 32.57299967839728],
          [116.68833133167539, 32.58658648869657],
          [116.69317067649177, 32.592567586890866],
          [116.70421506089059, 32.60293563458609],
          [116.71234737253923, 32.60701363283593],
          [116.72202134412049, 32.610073768634024],
          [116.7296376038081, 32.61393387268495],
          [116.73628511370583, 32.619315811266475],
          [116.73925301155936, 32.622033219149785],
          [116.74251942417732, 32.63183687240347],
          [116.73698549708462, 32.646470235604255],
          [116.73330696413251, 32.65375203709665],
          [116.72736513687892, 32.66126020855512],
          [116.71929926201415, 32.66668979104989],
          [116.71155876685066, 32.66875530642447],
          [116.70459032364846, 32.67081963042999],
          [116.70021182957714, 32.67564531920226],
          [116.699367138539, 32.679777465641564],
          [116.70442444216252, 32.68945908953967],
          [116.70790940211259, 32.6960297389231],
          [116.71436209421552, 32.69624730514816],
          [116.72417085635885, 32.69152383506869],
          [116.73223817474553, 32.692121845400706],
          [116.73669231069533, 32.69559662644515],
          [116.73617596995831, 32.69880043377111],
          [116.73308171829103, 32.70411336085729],
          [116.731699520056, 32.71685240800417],
          [116.73615250495254, 32.722876502039085],
          [116.74557191131652, 32.72602445963604],
          [116.7576318106183, 32.73111202664212],
          [116.77626470166302, 32.722391142704],
          [116.79883586121105, 32.71278637095672],
          [116.80802294144326, 32.70903231576783],
          [116.81954706566222, 32.70390376927902],
          [116.82794162268317, 32.695291706785184],
          [116.82204183081205, 32.68778285171406],
          [116.82375024662826, 32.67949918028677],
          [116.82997787925092, 32.67083254371737],
          [116.8379914471534, 32.6686180874006],
          [116.84783165628744, 32.66143867428559],
          [116.85636397997467, 32.6565760454459],
          [116.86502724769247, 32.65237640453586],
          [116.87212382516384, 32.6476109821504],
          [116.88012767663429, 32.64385478169959],
          [116.88721404826822, 32.63976641559513],
          [116.89377073926232, 32.63733709290297],
          [116.90225690083946, 32.6378932464022],
          [116.90594080935136, 32.64065273445115],
          [116.90488906176967, 32.65015418416229],
          [116.90790603354719, 32.65998538856829],
          [116.91132866209466, 32.665550121331464],
          [116.93155334448534, 32.67410625675835],
          [116.94599502114983, 32.67698096029088],
          [116.95937159824354, 32.67826875885754],
          [116.97276373838662, 32.67937308256697],
          [116.98063678191158, 32.6771645560884],
          [116.98903985959788, 32.673959477706546],
          [116.99928156272614, 32.67119588089044],
          [117.00637068884413, 32.66909593757023],
          [117.01398343929213, 32.671638933102784],
          [117.02251589511854, 32.67771490154804],
          [117.03308562933586, 32.681961117103185],
          [117.04480867988946, 32.690237740373945],
          [117.05636031669167, 32.69343880481705],
          [117.06882684819425, 32.69443699914817],
          [117.07735827796472, 32.69664348669467],
          [117.08273861722046, 32.70205306353482],
          [117.08998748116483, 32.710718774108585],
          [117.09116939466003, 32.717457503513074],
          [117.08788868837144, 32.72496489474966],
          [117.08599631830526, 32.731220584483225],
          [117.0791633472441, 32.74264426219406],
          [117.08244440884732, 32.7562195129679],
          [117.08493638513704, 32.76371985338889],
          [117.09782822070082, 32.783616449628425],
          [117.10097807817363, 32.78935454078973],
          [117.10615942888364, 32.81153704693084],
          [117.10642097164288, 32.818259642654894],
          [117.10720927526398, 32.82476977558889],
          [117.11101269392856, 32.83193022191233],
          [117.11900085349401, 32.846540567903205],
          [117.12529866396562, 32.85139045108835],
          [117.13579298429505, 32.85392155186338],
          [117.14484865481666, 32.85591013371314],
          [117.15703802094492, 32.856214533392546],
          [117.17252020660544, 32.856436062771735],
          [117.18380363619411, 32.85753828661454],
          [117.19128116452191, 32.86525220299916],
          [117.19560860937202, 32.87230322363962],
          [117.18699064613168, 32.88638957986035],
          [117.18108586773587, 32.90049384474014],
          [117.17081425749723, 32.91957393002225],
          [117.16976792925226, 32.92552326469573],
          [117.17199317709151, 32.93212836199156],
          [117.18017130026794, 32.9346761476843],
          [117.1875038734832, 32.934720105976595],
          [117.1935270586253, 32.936390504914314],
          [117.20172385510546, 32.94606983306832],
          [117.21080033333607, 32.95708940736921],
          [117.2150427506952, 32.95889122260486],
          [117.22628943914714, 32.96007923309557],
          [117.23608366194253, 32.959420045523316],
          [117.24759768035346, 32.95727698117537],
          [117.25555875984452, 32.957057245563306],
          [117.27454935755321, 32.955918347405145],
          [117.28072966926328, 32.95578650407646],
          [117.28869074875433, 32.95503938816526],
          [117.30652511516269, 32.95487053801179],
          [117.30781944940787, 32.953366053809546],
          [117.31557102680557, 32.951476226063974],
          [117.32384635943464, 32.950289569387266],
          [117.34859010680833, 32.94952082387579],
          [117.35393241015123, 32.951542543284546],
          [117.35932709005175, 32.95532215596195],
          [117.36440751577811, 32.958134785758844],
          [117.37022796233435, 32.96111443870764],
          [117.38059831588237, 32.963575333361334],
          [117.39115525591484, 32.96491981365678],
          [117.4022064912599, 32.96540318826858],
          [117.41460363192937, 32.96463813499582],
          [117.42073156811614, 32.96349559903163],
          [117.44106142330014, 32.96587013060282],
          [117.44514671409331, 32.97048400347781],
          [117.45497446750119, 32.976539480509715],
          [117.46162615891916, 32.979307498753],
          [117.46707321330672, 32.98102099037244],
          [117.47409153338407, 32.98110886084174],
          [117.4782291996986, 32.97992260213465],
          [117.48121917900681, 32.978080665179505],
          [117.49038489552635, 32.97597167746744],
          [117.4980840974028, 32.977948854923085],
          [117.50950104671074, 32.980079354443646],
          [117.5144767213925, 32.9822761133549],
          [117.52652309167479, 32.98166102636915],
          [117.53422229355124, 32.978805209231155],
          [117.53984382911028, 32.97280660434326],
          [117.54670502261962, 32.96810496946814],
          [117.55147119521007, 32.964325903957956],
          [117.56453407990239, 32.951366736818585],
          [117.56751948471185, 32.948685745752044],
          [117.58000432803567, 32.93872608172663],
          [117.58702264811495, 32.93463805219963],
          [117.59366427390756, 32.92703589744988],
          [117.60345849670296, 32.925497210553075],
          [117.61341801628078, 32.9253872600881],
          [117.62373599430538, 32.92516744521609],
          [117.63117331856716, 32.92195808590637],
          [117.64022855581476, 32.91446320516677],
          [117.6501799051781, 32.913495896254474],
          [117.66132981664305, 32.91618082295007],
          [117.66363433965324, 32.920093843368505],
          [117.66588648714014, 32.92457821580386],
          [117.67122251772844, 32.93218958448571],
          [117.67321278760073, 32.93733270107542],
          [117.68293963019624, 32.95555355797457],
          [117.68540127977639, 32.9600800783067],
          [117.69340088504322, 32.97454008118862],
          [117.69287713030968, 32.98077912545449],
          [117.69667168234679, 32.99659183187427],
          [117.70054747104678, 33.001028398473125],
          [117.70369000242408, 33.005332972615506],
          [117.7118605840065, 33.006958114353296],
          [117.72862709727303, 33.00485142213401],
          [117.73963850918278, 33.00939214736212],
          [117.74555694327819, 33.01637533101206],
          [117.74869947469443, 33.02247967381422],
          [117.75439697886634, 33.03602060594774],
          [117.76483522341329, 33.04633590715805],
          [117.76928714286578, 33.04910173546736],
          [117.7780338552007, 33.048311507670746],
          [117.78369072262797, 33.04398596842171],
          [117.78981865957059, 33.03959546827733],
          [117.79758576161748, 33.03247653161796],
          [117.80444695512682, 33.03001755783413],
          [117.818431219758, 33.031378783943],
          [117.84522293028533, 33.03479251580322],
          [117.84825757844726, 33.03777867943563],
          [117.86197996546588, 33.040325248120965],
          [117.86873640792851, 33.04401325156867],
          [117.89005386778467, 33.05259945934334],
          [117.89204413810182, 33.05720879723167],
          [117.90000975310335, 33.0683723842303],
          [117.8994336225843, 33.07491201036673],
          [117.89927649607449, 33.07933893909457],
          [117.89434519123131, 33.0924934163415],
          [117.89272155005119, 33.09977714529691],
          [117.88987648487972, 33.11122324528908],
          [117.89206879710974, 33.12407311351545],
          [117.89566185625176, 33.13552613897258],
          [117.8975997506007, 33.14092053334181],
          [117.90572370518885, 33.151509504292406],
          [117.91331815601865, 33.15321964637016],
          [117.92337425642859, 33.15234265459766],
          [117.92754581015674, 33.14952369976689],
          [117.93734003295015, 33.14566470780011],
          [117.94257758524839, 33.14220024088165],
          [117.95575082171894, 33.13836571797444],
          [117.96434040748596, 33.14288285146617],
          [117.9715158541332, 33.145075550880435],
          [117.98218455767352, 33.15119370606442],
          [117.9929739154041, 33.14926426802987],
          [117.99868284770031, 33.145580677624224],
          [118.00295038083192, 33.14230420117647],
          [118.01311123228663, 33.137611609392536],
          [118.01730127412446, 33.134015247731625],
          [118.02725262348781, 33.133269642116616],
          [118.03743008303525, 33.13467166776279],
          [118.04900507360969, 33.13839957295673],
          [118.06082071833913, 33.142260657349595],
          [118.07140057397834, 33.14462878714217],
          [118.07862839614688, 33.14853167639748],
          [118.08846371309869, 33.15386678084518],
          [118.1054364386988, 33.1591129760445],
          [118.11559729015545, 33.16218217194256],
          [118.12620105779155, 33.16600108168679],
          [118.14327547827884, 33.16963997339259],
          [118.15564578583314, 33.17066901496446],
          [118.16998487005156, 33.170230596145444],
          [118.17956959075366, 33.16961682190879],
          [118.21143749877143, 33.16259224444981],
          [118.21416102596618, 33.16127689408425],
          [118.21806249136165, 33.15257629425193],
          [118.21827199345296, 33.14819121554669],
          [118.21520968607535, 33.129820894483856],
          [118.2147232138264, 33.11447173877475],
          [118.21579141184202, 33.109021362155275],
          [118.2181801185643, 33.09288735710115],
          [118.22070555541768, 33.08401602508184],
          [118.2227857760223, 33.07024072683434],
          [118.2269632645739, 33.0632393265457],
          [118.23482414328123, 33.047951139658025],
          [118.23640969118901, 33.02816953385208],
          [118.2381578044126, 33.01953731601036],
          [118.23757549433611, 33.00813458893377],
          [118.2422128460592, 32.99382723480224],
          [118.25192463507057, 32.981688922977014],
          [118.26241185630198, 32.97712772075562],
          [118.2771804412879, 32.97362104829462],
          [118.29283345080518, 32.97080172374234],
          [118.30662073083562, 32.96520266493795],
          [118.3232980721844, 32.95806607853265],
          [118.33935110197604, 32.950780198863455],
          [118.35761198378253, 32.949590897404036],
          [118.39293605891135, 32.95224593693355],
          [118.39927353141434, 32.96106254018761],
          [118.42288661480569, 32.97459568804467],
          [118.43756335889674, 32.981241387694865],
          [118.4572055410228, 32.99392098746715],
          [118.48065991941382, 33.011815561900136],
          [118.4939304968508, 33.03183833445469],
          [118.5006865400814, 33.03819985846228],
          [118.51699730729217, 33.05759655318427],
          [118.52116792695807, 33.064934664294114],
          [118.52326057763878, 33.084258892457754],
          [118.52426123902126, 33.095856208454606],
          [118.52724730801219, 33.11659619143883],
          [118.53091634043244, 33.12358008675007],
          [118.54120914554198, 33.139561946459935],
          [118.55286376763064, 33.15041799106572],
          [118.56474787741394, 33.169603876830465],
          [118.57075173043523, 33.17483888694005],
          [118.5916433945647, 33.197370609355175],
          [118.62432788376066, 33.20819513151609],
          [118.90229477835976, 33.35881135591549],
          [118.91135356808115, 33.363056931948506],
          [118.91702387915484, 33.3671939013379],
          [118.92686573074286, 33.370242141882656],
          [118.93344869173336, 33.373671319580325],
          [118.93827190643873, 33.37644721375554],
          [118.94654719732381, 33.38063079452323],
          [118.95012353110877, 33.38229574034301],
          [118.96166602639846, 33.3879002990069],
          [118.96600193550074, 33.390093608992714],
          [118.9730007051474, 33.39324264201964],
          [118.97673528379107, 33.39509231149553],
          [118.97983688300195, 33.396466326194314],
          [118.98524826734666, 33.39893492306577],
          [118.98841316450108, 33.400625940220266],
          [118.99694451167863, 33.404098212993475],
          [119.00640096223532, 33.408608682736144],
          [119.01274489798283, 33.41147266878933],
          [119.01635288073703, 33.413057769557355],
          [119.02203542895603, 33.41569212202292],
          [119.03602161641254, 33.422129562400286],
          [119.04664722401975, 33.427091044759266],
          [119.05307375831103, 33.43045439706327],
          [119.05687163489586, 33.432197625158295],
          [119.06285361678289, 33.43526000600771],
          [119.0705173007317, 33.43886122735725],
          [119.07333405919917, 33.440709925407305],
          [119.07659390326882, 33.44282267494374],
          [119.08123460815256, 33.445055704428555],
          [119.08376652587651, 33.44774931612547],
          [119.08642503948761, 33.448726389889885],
          [119.08900562307377, 33.449469931976665],
          [119.09296174451742, 33.45150324898252],
          [119.09520882149798, 33.45271793509693],
          [119.10066200007441, 33.45569133654077],
          [119.10621731771869, 33.4588751339336],
          [119.10878088475539, 33.46048577281448],
          [119.1107431209901, 33.46167392979578],
          [119.11524878832006, 33.46433070259886],
          [119.11879347313317, 33.46631086735553],
          [119.12691853964083, 33.4710966167476],
          [119.1297352981083, 33.4729974273867],
          [119.136341932177, 33.477543601112075],
          [119.13829353570293, 33.47854336898311],
          [119.13963046095563, 33.479581577253555],
          [119.14770021915422, 33.48101296075535],
          [119.1489197313291, 33.48260226626465],
          [119.15282957453098, 33.48577429479951],
          [119.15505778328065, 33.48694057870553],
          [119.16093746279228, 33.490369323592745],
          [119.16281223153561, 33.491317681158904],
          [119.16872690610688, 33.4944593474184],
          [119.1708321792006, 33.49570240393406],
          [119.17545006327572, 33.49861881357748],
          [119.18096097773758, 33.50139449519371],
          [119.18262060908279, 33.502291476220336],
          [119.18830864543253, 33.50534234427984],
          [119.19195061421755, 33.50732841346452],
          [119.19621341135127, 33.510291364740695],
          [119.20263099895612, 33.513410487662114],
          [119.20496677640494, 33.51490951400591],
          [119.21112359922347, 33.518315642785396],
          [119.21299836872839, 33.5193149400377],
          [119.21816987718358, 33.52245821651735],
          [119.22110496595104, 33.52367524934294],
          [119.22789326866592, 33.527538474306],
          [119.23029051394275, 33.528832295780475],
          [119.24543181755234, 33.537123541615],
          [119.25225588358563, 33.541052200780214],
          [119.25659583791258, 33.5437813847484],
          [119.26543842898542, 33.548712271251645],
          [119.27379853913641, 33.55333508069269],
          [119.27954183156618, 33.555933936033355],
          [119.28784695929909, 33.56051408169377],
          [119.29678778316901, 33.565032510825276],
          [119.30091983518798, 33.566786509184396],
          [119.31052912794189, 33.57251769627037],
          [119.31372562101274, 33.57347040732293],
          [119.32329028225064, 33.57789986566941],
          [119.32716245678432, 33.58064953612208],
          [119.33781118519511, 33.585097075329756],
          [119.34113761700769, 33.58700220921477],
          [119.34842569066831, 33.590506332933884],
          [119.36088491892991, 33.596293956158746],
          [119.36452320372513, 33.59811225793872],
          [119.36761574580316, 33.59967077180973],
          [119.38178942070374, 33.60691403953247],
          [119.38560961974002, 33.607996233348274],
          [119.38896203930136, 33.60994414798388],
          [119.39531111168714, 33.61349597320721],
          [119.41005072717087, 33.620817003974054],
          [119.41407882819692, 33.62278626890024],
          [119.42494019711398, 33.627958644815465],
          [119.43533432127407, 33.632913861841985],
          [119.44102938525555, 33.635939358635056],
          [119.4481792398459, 33.63977238357292],
          [119.45642072516483, 33.64377976120406],
          [119.46462141029684, 33.64791598616293],
          [119.47309079261015, 33.65236447335781],
          [119.48301611598896, 33.658075327113934],
          [119.49028569294416, 33.66265728516356],
          [119.49798084681589, 33.667724335459894],
          [119.50680252716035, 33.67470101788834],
          [119.51236278702441, 33.67920946386893],
          [119.5224707158456, 33.68872413257141],
          [119.52520894195743, 33.692492146074244],
          [119.52909835555016, 33.69817044797429],
          [119.53527370233007, 33.70623686956387],
          [119.54182139263065, 33.71564312783218],
          [119.54427875410772, 33.71853395208443],
          [119.55560368373114, 33.735666524835565],
          [119.55904401489619, 33.74065856033711],
          [119.56727252034347, 33.7538503288866],
          [119.56958947418775, 33.75726523068323],
          [119.57980692505913, 33.77374680685158],
          [119.58317706145908, 33.77879499658897],
          [119.58842521390329, 33.78801136986834],
          [119.59987985934794, 33.8010912558491],
          [119.60293402840716, 33.80400836601589],
          [119.60792831841792, 33.81084088321019],
          [119.61823764496512, 33.82062080104218],
          [119.62957831078126, 33.829246526002635],
          [119.63277279632467, 33.830821198038564],
          [119.64253653909492, 33.83773710642137],
          [119.65249483720203, 33.84654186787233],
          [119.66387390307034, 33.85459715069449],
          [119.67502791036748, 33.86380259638153],
          [119.68884117466791, 33.87409408887653],
          [119.69326437143894, 33.87654237327364],
          [119.70326826172891, 33.8837735284511],
          [119.715076070588, 33.89245529919454],
          [119.72995280226257, 33.90347977124347],
          [119.74253499005812, 33.91200931668453],
          [119.753379411725, 33.91817746425548],
          [119.7684404304133, 33.925371509395646],
          [119.77419783478962, 33.92732318570813],
          [119.78278186559885, 33.931673773259476],
          [119.79356030771146, 33.93610873514743],
          [119.81089078459485, 33.942918193254286],
          [119.81534905035494, 33.94396661364999],
          [119.82534647438064, 33.94787257065106],
          [119.84146518605274, 33.95317078670334],
          [119.84764376166913, 33.95550033837165],
          [119.85815899414985, 33.9603887093827],
          [119.86525035721917, 33.96164075330523],
          [119.87709019686679, 33.967268269601945],
          [119.88728348644912, 33.97027966728359],
          [119.89297073896876, 33.973074596971855],
          [119.90890976882923, 33.97901760519798],
          [119.9245465469117, 33.98445522127312],
          [119.93705513935646, 33.989154996832866],
          [119.9418998384557, 33.99098876926993],
          [119.96123125242087, 33.998018761055434],
          [119.96511689557167, 33.99924953993295],
          [119.97604230273288, 34.003704309705256],
          [119.97965660876963, 34.0045653009816],
          [119.99124600190305, 34.00933315854033],
          [119.99394634549367, 34.00995303205168],
          [120.00317834097268, 34.01400190980094],
          [120.02255036356303, 34.02024369288054],
          [120.03254632183149, 34.02427285149692],
          [120.03851946731021, 34.02652633497388],
          [120.0455128232947, 34.02938784382074],
          [120.05850201678032, 34.03366564104482],
          [120.06697821876674, 34.036852554178466],
          [120.08602952850094, 34.04405050451615],
          [120.09545618452671, 34.04733875930664],
          [120.10434819828527, 34.05060755851784],
          [120.1141815502487, 34.05384639831891],
          [120.11943683431406, 34.055309213598974],
          [120.13083034634514, 34.0591377175822],
          [120.14594933666734, 34.06340883785312],
          [120.15862434422894, 34.066868727049155],
          [120.16871911519331, 34.07014484285541],
          [120.1760750682767, 34.072530660112136],
          [120.18623200075035, 34.07487669426288],
          [120.18965826417389, 34.076161157942536],
          [120.19877337784982, 34.07893681021804],
          [120.20996651034659, 34.08290764983026],
          [120.2132622467991, 34.083236804772326],
          [120.22405750405602, 34.08635119159452],
          [120.22719405699735, 34.08786505424192],
          [120.23559957975641, 34.09067058528959],
          [120.24480142450335, 34.09387062817568],
          [120.25386448660964, 34.09654946886201],
          [120.27058134960402, 34.101602865708045],
          [120.27949894139681, 34.10450290103158],
          [120.2850034879475, 34.10620562939627],
          [120.29701864376369, 34.109595640353305],
          [120.30692461928135, 34.11175989256927],
          [120.31594032939813, 34.11398320711936],
          [120.32462155543766, 34.117077711778904]
        ],
        "type": "LineString"
      },
      "id": 1
    }
  ]
}
