{
  "type": "FeatureCollection",
  "features": [
    {
      "type": "Feature",
      "properties": {},
      "geometry": {
        "coordinates": [
          [
            [116.36329025739286, 32.822969192387916],
            [116.40967466412735, 32.79465878778447],
            [116.44017015891993, 32.77607913599643],
            [116.46782362729641, 32.767096105007624],
            [116.51645398803271, 32.75133221528499],
            [116.56507109818396, 32.73565842433589],
            [116.66570364976715, 32.703429844385525],
            [116.76300139631043, 32.67068626112979],
            [116.81328703121528, 32.655417718113796],
            [116.86192696303965, 32.63919736703169],
            [116.90962253228932, 32.623836490637586],
            [116.95969162959936, 32.607341117994764],
            [117.00806028775065, 32.59183894357739],
            [117.05633516768498, 32.57609916890148],
            [117.25369601670269, 32.512022277958536],
            [117.30565441953459, 32.60112804717439],
            [117.33495133022443, 32.63534392400369],
            [117.3664376908036, 32.667056534186855],
            [117.39668248479032, 32.70000232851069],
            [117.42126341319069, 32.7263257925389],
            [117.44984409639494, 32.768850993617576],
            [117.49594759248029, 32.834105860775175],
            [117.55060337508168, 32.88617887150599],
            [117.60257529356247, 32.89968729017109],
            [117.65013051077091, 32.90595427632584],
            [117.70982210101579, 32.913623263889505],
            [117.74585846464609, 32.91225990268972],
            [117.77862458339155, 32.908494872946335],
            [117.81888239265801, 32.89413625156997],
            [117.98700188393474, 32.79583963727485],
            [118.13364555061781, 32.76669038869],
            [118.20696487348118, 32.76265916168994],
            [118.28732552013281, 32.77803188137628],
            [118.33328421419967, 32.79381394231521],
            [118.36418933750294, 32.81632862036942],
            [118.38228424123653, 32.83825776970245],
            [118.40836678116233, 32.86775759540257],
            [118.44650581967423, 32.92169452871546],
            [118.53488478591444, 33.03632801099732],
            [118.63746949320922, 33.05612145448313],
            [118.80595059499188, 33.03625998045278],
            [118.89367661024389, 32.988207050354006],
            [118.96090169028668, 32.941581525392266],
            [119.06343382239145, 32.822796741442474],
            [119.14618002106158, 32.7039257964917],
            [119.18939393859687, 32.64448077467031],
            [119.24002600975658, 32.591223910798234],
            [119.36206469695493, 32.398424494213884],
            [119.42029817639033, 32.41277931245365],
            [119.47675593470535, 32.416539843729446],
            [119.53730126621012, 32.40270564657074],
            [119.54726088273341, 32.408066856005725],
            [119.53751219588733, 32.44972798272315],
            [119.52607003859589, 32.546376439726046],
            [119.51827796364508, 32.69141443738573],
            [119.50831121540648, 32.80964122180264],
            [119.47248051816999, 32.935114349056946],
            [119.34268419208567, 33.1368140869152],
            [119.29835566904339, 33.19656525112147],
            [119.25375644228806, 33.25827591515376],
            [119.22148733424007, 33.2974567433058],
            [119.18423761692287, 33.35467301358249],
            [119.1363135742734, 33.43954118536341],
            [119.07510790690338, 33.51611080000636],
            [118.98005302038422, 33.608013304195254],
            [118.86884884204532, 33.66180417562715],
            [118.71629510801606, 33.68616577716912],
            [118.61652442736926, 33.68637998870106],
            [118.48450788269682, 33.67427362161855],
            [118.34964588099214, 33.6707015276668],
            [118.22691010365979, 33.63684841634296],
            [118.0400486339579, 33.457989913087154],
            [117.94379082224438, 33.370124314451246],
            [117.86370243590085, 33.26701441234074],
            [117.58226228809878, 33.13668143348637],
            [117.28874073203363, 33.09566862626248],
            [116.95754542888847, 33.099628697838924],
            [116.67748148586338, 33.24560828522036],
            [116.51728485437377, 33.35978324387746],
            [116.1617130537741, 33.59534833570674],
            [115.94231605678458, 33.71031851560937],
            [115.89410933494915, 33.73194808622492],
            [115.86753071131267, 33.74090093281837],
            [115.8539928322033, 33.745956940386336],
            [115.8451741228607, 33.751632607822195],
            [115.84270343544333, 33.75288225896813],
            [115.73048004207129, 33.75647215624696],
            [115.80296385836733, 33.7155254152821],
            [115.8034923527554, 33.71342122045504],
            [115.80745597477943, 33.71241135488748],
            [115.8101190054953, 33.71113153246491],
            [115.81222324666692, 33.71044189691227],
            [115.81730102677938, 33.70813783437822],
            [115.82226618084326, 33.70418011284923],
            [115.83180719440135, 33.69480921073196],
            [115.84474126080707, 33.68426906500171],
            [115.85084302677431, 33.67980509343582],
            [115.85921157955102, 33.67651995444717],
            [115.86881915006111, 33.67142545378243],
            [115.8821905937063, 33.63711743273233],
            [115.88384996561241, 33.636069374490546],
            [115.90076960819042, 33.62859975662032],
            [115.90893154359163, 33.62499769513391],
            [115.91390313203155, 33.62263670234498],
            [115.9190454225049, 33.62054071015146],
            [115.93303944813013, 33.61419607286544],
            [115.94523554970726, 33.60697883127568],
            [115.96962814709654, 33.591545530513486],
            [116.01368909440444, 33.560014220837694],
            [116.02831908523083, 33.54751313634445],
            [116.05475828465141, 33.52309234381812],
            [116.07670299110063, 33.50342972885505],
            [116.1068648118661, 33.48865342683402],
            [116.12279939146873, 33.46571903725171],
            [116.15040603011197, 33.44472942930112],
            [116.19223276281909, 33.41046870096192],
            [116.21552638382586, 33.38065403478116],
            [116.26331788859989, 33.334467506900154],
            [116.28612472451094, 33.3108200696834],
            [116.30736128633285, 33.297497100143005],
            [116.34776143232831, 33.25839176645624],
            [116.40446099829296, 33.20988517386419],
            [116.4408432692027, 33.171864286098454],
            [116.4802448916355, 33.12369106764408],
            [116.5334942968956, 33.08273948465833],
            [116.55690618451553, 33.061481251287105],
            [116.59467042196448, 33.042926697786484],
            [116.63942814118084, 33.03410630434344],
            [116.71671385517348, 33.023869061269096],
            [116.73371651817567, 33.02203050147184],
            [116.74595756059009, 33.021677522250116],
            [116.74870369398563, 33.02131459489233],
            [116.75103506627266, 33.02120004773719],
            [116.75662873202245, 33.02061536057646],
            [116.76192910468237, 33.02039845063936],
            [116.76520422892574, 33.01946509328931],
            [116.76751783404927, 33.01870618401412],
            [116.76829101422462, 33.01665569486289],
            [116.76743026591916, 33.01295151197425],
            [116.76127411878203, 33.0039524073992],
            [116.72846664978573, 32.98058779590862],
            [116.69381777909845, 32.96600003166792],
            [116.66081323936197, 32.95274893684833],
            [116.60683891154416, 32.935828423558874],
            [116.56393297010305, 32.93752153369241],
            [116.53231568395714, 32.94492346232242],
            [116.47599907243425, 32.95825497231161],
            [116.4710997120265, 32.9603307887935],
            [116.48320661488344, 32.945537533923016],
            [116.49169570942277, 32.931297336247184],
            [116.5093830409806, 32.9031145385305],
            [116.48506458446852, 32.879398807973395],
            [116.36329025739286, 32.822969192387916]
          ]
        ],
        "type": "Polygon"
      }
    },
    {
      "type": "Feature",
      "properties": {},
      "geometry": {
        "coordinates": [
          [
            [115.67386436063634, 33.30073116432786],
            [115.69077074958389, 33.34792075399209],
            [115.72683479367441, 33.34729130809603],
            [115.76105811445775, 33.335130378829106],
            [115.85205327660836, 33.30172156955627],
            [115.93771004486568, 33.268109242472235],
            [116.01692428154132, 33.22371919083365],
            [116.1145841365126, 33.14347370209655],
            [116.20119765145688, 33.06090706844971],
            [116.28354601730945, 32.94357408187645],
            [116.36346869496458, 32.82296977801295],
            [116.36670130910316, 32.82440209349042],
            [116.37237162259177, 32.82716967790003],
            [116.38338598754775, 32.83223518921176],
            [116.40544696845674, 32.84263479020717],
            [116.4498071178682, 32.86290028650165],
            [116.47116679607565, 32.87313149577071],
            [116.48325955915354, 32.87845640886247],
            [116.48514330228478, 32.879421434146494],
            [116.48726972663138, 32.8816774010279],
            [116.49127989410923, 32.884898393193325],
            [116.50945527016164, 32.90318757175034],
            [116.50584202828054, 32.9088019754427],
            [116.48899347212597, 32.9360883118385],
            [116.48271700804305, 32.945922490684225],
            [116.48086084424912, 32.94867052980025],
            [116.47117249816974, 32.96027346635693],
            [116.41642179704584, 32.992042654009595],
            [116.29104090798677, 33.096233555176454],
            [116.13750377052702, 33.27761424900248],
            [116.04538734511311, 33.36010479394044],
            [115.93313544815533, 33.44346838813141],
            [115.87682038643871, 33.48969503859061],
            [115.84337428080114, 33.51494897454963],
            [115.80661081372301, 33.547440681973185],
            [115.79440912318339, 33.557938344470315],
            [115.79174342858988, 33.57970921653305],
            [115.79278453685882, 33.58628332513946],
            [115.79545558184316, 33.59670854554857],
            [115.79854273430784, 33.60864011186602],
            [115.80592442309194, 33.62921451113405],
            [115.81597470923853, 33.64577462688175],
            [115.82735989174046, 33.65154353483065],
            [115.82968923355342, 33.651626888755835],
            [115.83568969098866, 33.651387937927424],
            [115.8419450467971, 33.65216138393171],
            [115.85049661733902, 33.650930353255575],
            [115.85641117904214, 33.65003626970657],
            [115.85866569168863, 33.64945215316928],
            [115.86162274651039, 33.648052214121364],
            [115.86384012093143, 33.64662219043712],
            [115.86592241856344, 33.645404321922214],
            [115.8682401338267, 33.64414214993539],
            [115.87391036011743, 33.64145370666718],
            [115.88217759688642, 33.637116752859384],
            [115.86890177307743, 33.67143461606531],
            [115.85951279403272, 33.676428490427604],
            [115.85122275618289, 33.67970412944234],
            [115.84754638295553, 33.68223860841513],
            [115.84347883067784, 33.68547060087367],
            [115.83593378629031, 33.69174007248181],
            [115.82842111568951, 33.698271442930775],
            [115.82147520632273, 33.70501426889066],
            [115.81720524642725, 33.70823316918455],
            [115.81301164816827, 33.710245069326575],
            [115.80759620884754, 33.712415801315316],
            [115.80370807806267, 33.71350660117038],
            [115.80296114878304, 33.71554526454575],
            [115.80083705247648, 33.716725371816906],
            [115.7969086055269, 33.71909391784659],
            [115.78866073116365, 33.72351716115332],
            [115.72999335643135, 33.7570381441879],
            [115.67386436063634, 33.30073116432786]
          ]
        ],
        "type": "Polygon"
      }
    },
    {
      "type": "Feature",
      "properties": {},
      "geometry": {
        "coordinates": [
          [
            [113.66509633026863, 34.90652243486181],
            [113.81066021786779, 34.644432719276026],
            [114.01799610652608, 34.39910646794384],
            [114.10283936725219, 34.24305690090555],
            [114.13492515999081, 34.08700733386726],
            [114.18185244510798, 33.950615551876844],
            [114.23065975897589, 33.833504287558796],
            [114.28964972785565, 33.61888377231685],
            [114.55502853991862, 33.31719245947143],
            [114.76218534762975, 33.113851182891466],
            [115.02665186865755, 32.99268041655505],
            [115.30425949430233, 32.8737560091617],
            [115.45826787077306, 32.786773847047485],
            [115.61427406337484, 32.71240039640416],
            [115.668305326704, 32.684249636563365],
            [115.69152817166692, 32.63882755730418],
            [115.6920504452334, 32.615271815180776],
            [115.68503392630763, 32.600179837539436],
            [115.67782838924131, 32.58225095752768],
            [115.66955821128646, 32.57144541051957],
            [115.66291840706612, 32.55194012845685],
            [115.65354746379884, 32.540203284276046],
            [115.64374576715672, 32.53590331121805],
            [115.63296229493466, 32.52875245383548],
            [115.5985228075653, 32.501458416009946],
            [115.58097185483983, 32.482931855538595],
            [115.5647012315462, 32.465485233440134],
            [115.54278677200814, 32.45408962587843],
            [115.53069728661461, 32.44269430094566],
            [115.49093451735357, 32.42051978064519],
            [115.47898647406073, 32.407283501303],
            [115.47421654589215, 32.395493694377535],
            [115.47604488432556, 32.38895526249193],
            [115.48450794373562, 32.38073663573632],
            [115.50673760644817, 32.372140316064446],
            [115.54559417505047, 32.35913067442561],
            [115.57174420070251, 32.356178794251974],
            [115.59437063331157, 32.35644957723561],
            [115.63111010662973, 32.35448795297661],
            [115.69646587506519, 32.35567231129434],
            [115.75710607927991, 32.3570356829323],
            [115.8545776500095, 32.34438504161942],
            [115.91733408432728, 32.32748054319839],
            [115.95017011625936, 32.318656191881786],
            [115.97228715219183, 32.30817001587966],
            [115.98544285015808, 32.302672684593304],
            [115.99599928938709, 32.296134825064],
            [116.01323086982114, 32.28668176857825],
            [116.01913667950924, 32.28350366496712],
            [116.02446129889839, 32.28021342515159],
            [116.0278200595725, 32.278271504652466],
            [116.03745294926532, 32.27222991312057],
            [116.04437524079864, 32.26749702567309],
            [116.06548547418551, 32.25455436603811],
            [116.07980841046412, 32.24571930456644],
            [116.09611204060627, 32.238226346940365],
            [116.12848326651616, 32.21182844665191],
            [116.17297445423826, 32.194107366572354],
            [116.22949101884649, 32.18227939301828],
            [116.26664583816066, 32.167366186897326],
            [116.30028386471074, 32.146261170697215],
            [116.32551120476045, 32.12337558072379],
            [116.35494415563699, 32.09515035496926],
            [116.37316550380388, 32.06395349251075],
            [116.40824463776124, 31.999807320869763],
            [116.42241922149898, 31.979216326028222],
            [116.43868862768232, 31.95969457648816],
            [116.45190050869559, 31.93904565858208],
            [116.46829921352241, 31.915991159711737],
            [116.52522606638286, 31.864808444627833],
            [116.56659676242862, 31.8532625408383],
            [116.64475179797475, 31.85587477987938],
            [116.68808021022353, 31.85987840710376],
            [116.72293666384547, 31.89089446016378],
            [116.7375859433939, 31.89302301138593],
            [116.74755001597534, 31.9084556077838],
            [116.76433787666596, 31.957937984822706],
            [116.79184861646371, 32.04055298233321],
            [116.772547627974, 32.26396899022144],
            [116.8000900459993, 32.38749116384609],
            [116.85601888533111, 32.421168761838075],
            [116.90025767878501, 32.42378938261349],
            [117.07751517722508, 32.43307318786722],
            [117.15691418097141, 32.44229839168916],
            [117.20989103158252, 32.44529388564456],
            [117.23897939645735, 32.47945630787626],
            [117.25369801492712, 32.51202592856025],
            [116.44003279652935, 32.77622954498865],
            [116.20603565394919, 32.91920006130039],
            [116.07308273202727, 32.945929919985744],
            [115.87631246787117, 33.07979173517302],
            [115.67422499266507, 33.29783499190462],
            [115.7049515605944, 33.56096203401679],
            [115.71477189104989, 33.62540816779678],
            [115.72245336388082, 33.691413525193255],
            [115.7299710994848, 33.75650094964409],
            [115.84283040275406, 33.75279484367533],
            [115.68772419138783, 33.78611726832247],
            [115.5835816565928, 33.810576574693265],
            [115.44118667614515, 33.85970798863369],
            [115.27063177946727, 33.93904791000487],
            [115.20563084555545, 33.963190150798084],
            [115.13660555975675, 33.979810875271625],
            [115.0537891162752, 34.02494353408824],
            [114.9136700924834, 34.092714788974476],
            [114.81790508207857, 34.13781029730347],
            [114.73022451952187, 34.20073927634205],
            [114.57103164505827, 34.32879701844229],
            [114.33812947993727, 34.54624357775944],
            [114.25554298624867, 34.61118117755089],
            [114.20733633021854, 34.64732327365658],
            [114.15515455049868, 34.67738671581557],
            [114.07330722034935, 34.711178931191085],
            [114.01869123817221, 34.74291879514493],
            [113.95671166390986, 34.786481806836136],
            [113.88096369695927, 34.84517722431833],
            [113.78729948648788, 34.89925694320313],
            [113.66509633026863, 34.90652243486181]
          ]
        ],
        "type": "Polygon"
      }
    }
  ]
}
