{
  "type": "FeatureCollection",
  "features": [
    {
      "type": "Feature",
      "properties": {
        "name": "前602海岸线"
      },
      "geometry": {
        "coordinates": [
          [117.1917145426055, 39.51367147311228],
          [117.18056568934782, 39.42186924163042],
          [117.17684937291403, 39.30119045696631],
          [117.1917146386537, 39.19470551690284],
          [117.2325941194411, 39.125547778591454],
          [117.24374306874694, 39.01302150771886],
          [117.27347360022856, 38.77004835151442],
          [117.29205518240417, 38.65405489525085],
          [117.2660409673565, 38.587273461098164],
          [117.27718991666234, 38.50298217972619],
          [117.31806939744973, 38.412768491379126],
          [117.42584257407009, 38.27286031200538],
          [117.50016890277288, 38.19112246937519],
          [117.60050944652119, 38.097595345683004],
          [117.7714600025385, 37.986376227954224],
          [117.82348843263173, 37.92484058287488],
          [117.88294949559264, 37.85151666647363],
          [118.06133268448201, 37.75755554664855],
          [118.13937290581447, 37.68406710013177],
          [118.23226343244767, 37.6164047491374],
          [118.31711927063793, 37.57462510727014]
        ],
        "type": "LineString"
      },
      "id": 10
    }
  ]
}
