{
  "type": "FeatureCollection",
  "features": [
    {
      "type": "Feature",
      "properties": {
        "name": "燕山"
      },
      "geometry": {
        "coordinates": [
          [
            [115.9225970481786, 40.50021039955203],
            [115.91752814578771, 40.46159986120212],
            [115.92762022336855, 40.42875157312321],
            [115.93762080750142, 40.390495408970565],
            [115.94121913427627, 40.3563292245736],
            [115.9789039403579, 40.30483816497164],
            [116.09350367570065, 40.35752300240167],
            [116.22772051225746, 40.38804754615914],
            [116.30253249004511, 40.42101671338841],
            [116.37042496845888, 40.43271764115323],
            [116.4548077019632, 40.45087869982581],
            [116.54290480606556, 40.491662551214375],
            [116.66338580549285, 40.51447366876809],
            [116.78071976589075, 40.547411815950355],
            [116.99194402420778, 40.577921013915955],
            [117.16904702104318, 40.58526137432273],
            [117.37430013191386, 40.59844274230147],
            [117.49061432628795, 40.59158837377498],
            [117.62831173276767, 40.573991968171],
            [117.7160982386236, 40.58119435792858],
            [117.92278068545211, 40.575354945037496],
            [117.95849779307329, 40.65635264580892],
            [117.96643859475714, 40.720010228847656],
            [117.94668349072604, 40.75843126242436],
            [117.82397064575835, 40.780933777224575],
            [117.66818559329624, 40.78369801021188],
            [117.55990250055098, 40.78331895834286],
            [117.49432131108534, 40.79155479173005],
            [117.32568569399547, 40.8089892561315],
            [116.91230149226647, 40.76407669464956],
            [116.77136755454717, 40.744555289878576],
            [116.67732230960257, 40.741611717806876],
            [116.49819928143557, 40.70793788447743],
            [116.4305692589841, 40.698244881572414],
            [116.35356390826632, 40.681408629058126],
            [116.24612175092295, 40.63774410663973],
            [116.12924613008681, 40.60358492428679],
            [116.04935637634111, 40.567792882067096],
            [115.9225970481786, 40.50021039955203]
          ]
        ],
        "type": "Polygon"
      }
    }
  ]
}
