{
  "type": "FeatureCollection",
  "features": [
    {
      "type": "Feature",
      "properties": {
        "name": "11年海岸线"
      },
      "geometry": {
        "coordinates": [
          [117.2330418173143, 39.55492335872799],
          [117.22798793954041, 39.45749134895928],
          [117.22293654662627, 39.3482011826417],
          [117.23809072536869, 39.26221023616176],
          [117.25829629702673, 39.164365049340745],
          [117.28860465451459, 39.011454442749084],
          [117.29870744034287, 38.893605429492226],
          [117.31386161908682, 38.795248287393235],
          [117.32396440491505, 38.64943030770954],
          [117.32396440491505, 38.50726791817891],
          [117.37952972697514, 38.36878488441275],
          [117.51086594275029, 38.23003635052277],
          [117.59244296027305, 38.13179050988626],
          [117.82458250878466, 37.9840202859652],
          [117.87952760688714, 37.90237018177704],
          [117.96407783293586, 37.84491869105341],
          [118.22162254707337, 37.67295234044005],
          [118.33185020992636, 37.60058085383453],
          [118.42252002133176, 37.4839413889616],
          [118.31804932649897, 37.423977159421796],
          [118.28302616731372, 37.38622963903986],
          [118.23835403442817, 37.357292729073166],
          [118.19427756907373, 37.33840699016902],
          [118.16774427471013, 37.324278751510754],
          [118.14204394948516, 37.31125538181249],
          [118.07795278636532, 37.288872085165224],
          [117.9942362337058, 37.24899048810093],
          [117.8788922844563, 37.21850675830067],
          [117.85658260015998, 37.212154891307634],
          [117.83659801479888, 37.20659687001111],
          [117.82834405499338, 37.20071273256815],
          [117.82424691203634, 37.19615375341019],
          [117.82252339693929, 37.18773441872975],
          [117.82336907834082, 37.18515306628428],
          [117.82376333909153, 37.17745397380992],
          [117.82889502396075, 37.16907417080127],
          [117.83667706947003, 37.163328877852344],
          [117.8468066980665, 37.15675185156543],
          [117.86882439725417, 37.15219747839056],
          [117.92653998320978, 37.159808912460065],
          [117.96868388731436, 37.17350588093599],
          [118.0200831060989, 37.188119550959996],
          [118.08367555678778, 37.204572695633665],
          [118.17858506625237, 37.237269754146126],
          [118.2074119829634, 37.2521640436582],
          [118.23966979781301, 37.2697926004239],
          [118.28431938749972, 37.30651974966001],
          [118.30294210018707, 37.31791961465578],
          [118.3247174062766, 37.32479980868291],
          [118.35597538129514, 37.346514930161305],
          [118.38146462106064, 37.36164692464738],
          [118.39937388462671, 37.375164670878306],
          [118.41664446534884, 37.38779236286162],
          [118.42774662394277, 37.39604848416177],
          [118.4424860882568, 37.402687319999416],
          [118.4702722395073, 37.418626252733915],
          [118.47750235642103, 37.42634432764068],
          [118.48220477957767, 37.432344829721266],
          [118.4856410567082, 37.43917411522578],
          [118.4944867824896, 37.44645173808283],
          [118.5033858911759, 37.45326988558787],
          [118.50796132409464, 37.45837738890762],
          [118.51786230488477, 37.46489414849729],
          [118.52658970473342, 37.4747086563619],
          [118.5365272239349, 37.48462035699915],
          [118.54431083838097, 37.48348485075384],
          [118.54720045636844, 37.475342926243925],
          [118.54942258263601, 37.46207998487355],
          [118.55119598231684, 37.43166815898179],
          [118.559408562688, 37.40112469009328],
          [118.5742488679607, 37.37369285763037],
          [118.57939252024222, 37.34393175798806],
          [118.5893565961205, 37.318243797270085],
          [118.6032590671756, 37.26016112610502],
          [118.63292182261591, 37.190741918500436],
          [118.67268631307797, 37.12663994321632],
          [118.73330267140705, 37.01782028507843],
          [118.80540760673546, 36.92339624752948],
          [118.90840010993355, 36.87281566552765],
          [118.92156777287889, 36.797109982073074],
          [119.02541582279252, 36.76116022801807],
          [119.13316414491686, 36.734060422476105],
          [119.27838072979023, 36.72501295193698],
          [119.39767457369902, 36.77237866602857],
          [119.56824032311917, 36.827631903223065],
          [119.62651026625585, 36.870181836975206],
          [119.68582254835268, 36.892798658623505],
          [119.77952664136421, 36.90813618108943],
          [119.72401320381232, 36.96709364112626],
          [119.65914396923893, 37.006141415324436],
          [119.72570026503675, 37.037654365609086],
          [119.75802131232336, 37.091547319423604],
          [119.82918291876561, 37.12431587896944],
          [119.83039946239131, 37.19436699752423]
        ],
        "type": "LineString"
      }
    }
  ]
}
