{
  "type": "FeatureCollection",
  "features": [
    {
      "type": "Feature",
      "properties": {
        "name": "1128年海岸线"
      },
      "geometry": {
        "coordinates": [
          [118.09031217387599, 37.85902299121484],
          [118.1374996012795, 37.87019881454947],
          [118.19097868566763, 37.86771544472231],
          [118.24760359854992, 37.86523199119685],
          [118.3152389111591, 37.85405541461489],
          [118.38287422376828, 37.836666260434],
          [118.43949913665057, 37.816787920896175],
          [118.50398862076747, 37.77701517998949],
          [118.54016564844216, 37.734733184596166],
          [118.56533227638823, 37.69491629520499],
          [118.57948850460929, 37.646360536907764],
          [118.57948850460929, 37.59777301580944],
          [118.58420726044727, 37.542918200831025],
          [118.563759373577, 37.49861070965572],
          [118.54488440261565, 37.48613066708994]
        ],
        "type": "LineString"
      },
      "id": 14
    }
  ]
}
