{
  "type": "FeatureCollection",
  "features": [
    {
      "type": "Feature",
      "properties": {
        "name": "大陆泽"
      },
      "geometry": {
        "coordinates": [
          [
            [115.14322415065425, 37.66853706969549],
            [115.08763483917255, 37.67250240105467],
            [115.01043761387459, 37.66215412310579],
            [114.96410441768893, 37.657465601703706],
            [114.89847331581899, 37.64475586983423],
            [114.85907932358748, 37.63389636184107],
            [114.83638095912767, 37.62336861203187],
            [114.79821398861827, 37.599050466099555],
            [114.75253389960005, 37.55085881855604],
            [114.73729351326946, 37.44238352070422],
            [114.72204746995669, 37.34356671977123],
            [114.72026763063366, 37.226320244261075],
            [114.73266621580575, 37.10236337613175],
            [114.750985360362, 37.080533824289915],
            [114.76443901240768, 37.065286348721855],
            [114.79614983712258, 37.05702124720122],
            [114.85060980466159, 37.04772540201881],
            [114.91230709135306, 37.03362999321158],
            [114.97585506122783, 37.02628707450255],
            [115.03049273652724, 37.02529531200314],
            [115.07046958818427, 37.02335795650541],
            [115.09432525682763, 37.0247336784028],
            [115.13204748229242, 37.03654787613834],
            [115.15376306619356, 37.05164688817183],
            [115.16678710191331, 37.06906152770046],
            [115.1841422879632, 37.10990634305789],
            [115.213633513189, 37.28033097640771],
            [115.26225299925028, 37.40815650408473],
            [115.27348150680555, 37.47815529721312],
            [115.27955702260392, 37.51536176741757],
            [115.27410023392798, 37.56279030571518],
            [115.26238661392483, 37.600203255277755],
            [115.23253599341484, 37.6337274549127],
            [115.19214944658603, 37.65972840182805],
            [115.14322415065425, 37.66853706969549]
          ]
        ],
        "type": "Polygon"
      }
    }
  ]
}
