{
  "type": "FeatureCollection",
  "features": [
    {
      "type": "Feature",
      "properties": {
        "name": "济水"
      },
      "geometry": {
        "coordinates": [
          [113.10714736529388, 35.10470196916282],
          [113.2042137142646, 35.07288254216557],
          [113.38389675818541, 35.0291513287801],
          [113.45188493696622, 34.989375365986035],
          [113.6308657586207, 34.9852793025284],
          [113.89862640818762, 34.97672503977125],
          [114.23691395232197, 34.992044257849884],
          [114.53330764377921, 34.96292340118394],
          [114.7356137747127, 35.003646831536045],
          [115.012374957134, 35.101309477672245],
          [115.2634286926799, 35.20853753072235],
          [115.47216836325782, 35.378293450109126],
          [115.64883988766701, 35.45200477998486],
          [115.81699653013425, 35.595795128185244],
          [115.97241204196564, 35.6786858154109],
          [116.13178470178082, 35.78904804776103],
          [116.26381612664915, 35.9504348771313],
          [116.40548345567339, 36.17061261588766],
          [116.50169195381898, 36.36215276065201],
          [116.62689085749628, 36.683094331283584],
          [116.83254511941499, 36.872139390805074],
          [117.041194234687, 37.074941812530824],
          [117.52630158556099, 37.357751085550504],
          [117.79005690448889, 37.46618343134698],
          [118.07069248674014, 37.540592088413845],
          [118.21004821292706, 37.549719103420216]
        ],
        "type": "LineString"
      }
    }
  ]
}
