{
  "type": "FeatureCollection",
  "features": [
    {
      "type": "Feature",
      "properties": {
        "name": "漯水"
      },
      "geometry": {
        "coordinates": [
          [114.44977891438174, 35.67363298362652],
          [114.62582971709367, 35.71166536733267],
          [114.75803429391027, 35.77962181524775],
          [114.98420915780048, 35.850456584914696],
          [115.16425023127465, 35.96024466149622],
          [115.35964014523768, 36.05413185010771],
          [115.52056407384043, 36.15532425676834],
          [115.68170084072483, 36.219171773848174],
          [115.87119097933044, 36.28703397816362],
          [115.96582058834272, 36.3236657066793],
          [116.02865469079296, 36.358704253453084],
          [116.20309993768325, 36.4215257066836],
          [116.2559467105632, 36.46360722962078],
          [116.28870732540787, 36.535354263900665],
          [116.28888248108217, 36.66291109470323],
          [116.34858682635985, 36.807482816563564],
          [116.44987584355545, 36.937705548846836],
          [116.53361572065339, 37.08860754587261],
          [116.6166195551782, 37.20723878812532],
          [116.75114120648877, 37.31398880999892],
          [116.8184020321428, 37.37245100363287],
          [116.93071957323417, 37.40529367285541],
          [117.06227118383921, 37.44353077205287],
          [117.20455058383374, 37.47322607864693],
          [117.43109174934102, 37.54543924934187],
          [117.65491210809142, 37.65559220326281],
          [117.72182166011841, 37.66774271744232],
          [117.82256531923227, 37.691537644968854],
          [117.92410371652153, 37.71318678898862]
        ],
        "type": "LineString"
      }
    }
  ]
}
