{
  "type": "FeatureCollection",
  "features": [
    {
      "type": "Feature",
      "properties": {},
      "geometry": {
        "coordinates": [
          [
            [117.7084380505529, 35.57726459309703],
            [117.84556400517454, 35.47609036541553],
            [117.96702951024645, 35.41110748696616],
            [118.1778661309603, 35.32723726084049],
            [118.20925922834246, 35.34718815974028],
            [118.2038843115078, 35.38636512847626],
            [118.20851157482721, 35.44947776040075],
            [118.16067687272084, 35.48804079589374],
            [117.92908673243687, 35.603703485246726],
            [117.79531996829061, 35.68546781535624],
            [117.7201811508627, 35.75973242089381],
            [117.6589701025153, 35.755529785002366],
            [117.62091671982111, 35.71579622144745],
            [117.64181029781138, 35.63853189152591],
            [117.7084380505529, 35.57726459309703]
          ]
        ],
        "type": "Polygon"
      }
    },
    {
      "type": "Feature",
      "properties": {},
      "geometry": {
        "coordinates": [
          [
            [120.33336711942928, 37.58098374578995],
            [120.24373049837106, 37.50253231647081],
            [120.21778358767875, 37.440910702272234],
            [120.22128599772128, 37.320648647086266],
            [120.28103664228507, 37.27731569517046],
            [120.35828400445334, 37.25867688983527],
            [120.59532044465277, 37.17454287568802],
            [120.93281488271316, 37.082025154795886],
            [121.14312194958399, 37.041572884803436],
            [121.30115237268245, 37.018390210350134],
            [121.45923088349048, 37.022302060173544],
            [121.71094272014957, 37.003473992873154],
            [122.02298769212177, 37.02282167569297],
            [122.1356651345562, 37.06605444428433],
            [122.19933950204171, 37.170030850316],
            [122.24035395845851, 37.3130476865247],
            [122.24119210393998, 37.37286013148711],
            [122.17837434812705, 37.397832288533394],
            [122.06445494599308, 37.43511081488873],
            [121.94586633142481, 37.434642169687265],
            [121.83918723199838, 37.41517684425986],
            [121.31589788746157, 37.439725069771725],
            [121.03628143536054, 37.65896944222992],
            [120.86360110603437, 37.74284855663705],
            [120.64729721470553, 37.74054863347608],
            [120.33336711942928, 37.58098374578995]
          ]
        ],
        "type": "Polygon"
      }
    },
    {
      "type": "Feature",
      "properties": {},
      "geometry": {
        "coordinates": [
          [
            [117.18481966224829, 36.15287814977438],
            [117.13831279966496, 36.07117893712994],
            [117.18054584750331, 36.0049586414056],
            [117.3821249190558, 35.97551938094759],
            [117.63013808637385, 35.96047189919339],
            [117.87620966839825, 35.95690868824609],
            [117.98398791314266, 35.95348781664515],
            [118.06748274086081, 35.95636643273465],
            [118.13264476013771, 35.97392038699769],
            [118.19969133759133, 36.0104080237453],
            [118.24187765625052, 36.07303428681455],
            [118.23708400769988, 36.14241267679627],
            [118.08564353876159, 36.20143438782315],
            [117.96261863839845, 36.21433826496862],
            [117.75570080038676, 36.22100930914074],
            [117.54888725449061, 36.22500103428981],
            [117.44207513039454, 36.203167011689786],
            [117.3011746335124, 36.19419847274034],
            [117.18481966224829, 36.15287814977438]
          ]
        ],
        "type": "Polygon"
      }
    },
    {
      "type": "Feature",
      "properties": {},
      "geometry": {
        "coordinates": [
          [
            [119.08647396315416, 35.69375495827789],
            [119.07545994495501, 35.59991075393523],
            [119.22047295145006, 35.62792118740602],
            [119.32876384750756, 35.62988026003702],
            [119.37485608874437, 35.59644167294573],
            [119.42769286208292, 35.67584037230874],
            [119.46163093173811, 35.72879072944538],
            [119.55599248985948, 35.72033420467914],
            [119.71012816789198, 35.75885832614627],
            [119.780340704629, 35.77545426946935],
            [119.80797199782548, 35.81425583220147],
            [119.862098503304, 35.8273003122624],
            [119.9300212298895, 35.82026735946309],
            [119.94376409109537, 35.780927949637864],
            [119.97033189881944, 35.75386048143163],
            [119.9901588326842, 35.72941040460306],
            [120.00848334132007, 35.724768443164855],
            [120.01808388497565, 35.76786263787106],
            [120.01970525163708, 35.78896952485883],
            [120.00612448544207, 35.80311181949504],
            [119.97999464502044, 35.824410518437276],
            [120.00111579528905, 35.923259994751604],
            [120.10971430446108, 35.9573816869792],
            [120.13994504880078, 35.97491095073548],
            [120.09083817737994, 36.01860733204133],
            [120.05030382767858, 36.03828631626988],
            [119.99839841540836, 36.02068991204956],
            [119.77547170322424, 35.95334848133895],
            [119.61572146750049, 35.891263755187396],
            [119.55254499104012, 35.88600705062833],
            [119.47743716020108, 35.83988337663705],
            [119.3902581612067, 35.806195347313405],
            [119.32864365054695, 35.83334671604885],
            [119.21978724404323, 35.80024919134925],
            [119.08647396315416, 35.69375495827789]
          ]
        ],
        "type": "Polygon"
      }
    },
    {
      "type": "Feature",
      "properties": {},
      "geometry": {
        "coordinates": [
          [
            [117.38001845662359, 35.025288396231986],
            [117.38759147185758, 35.00103640214968],
            [117.41063004819188, 34.982333431302145],
            [117.45604914410205, 34.96196934220767],
            [117.51631871417138, 34.938698501733974],
            [117.54508343373105, 34.928448295679004],
            [117.58214080959527, 34.92597387012523],
            [117.66437614166793, 34.90810731936973],
            [117.7174408954766, 34.90418501685314],
            [117.74318716173443, 34.90439021459423],
            [117.78289438356182, 34.9083733176235],
            [117.79329970546404, 34.90656834266832],
            [117.81241621908603, 34.908910960249706],
            [117.81078843668878, 34.92062857368771],
            [117.8130225747928, 34.93777340122345],
            [117.82048219422606, 34.95385854148701],
            [117.82267216465651, 34.967152166953035],
            [117.81399931270849, 34.990255576420324],
            [117.7967063726819, 35.012197553843066],
            [117.78489327712597, 35.02520143662262],
            [117.76308181126518, 35.03547544287742],
            [117.74010945388038, 35.04027195086941],
            [117.70464488334588, 35.04506670261355],
            [117.70016793348361, 35.05311920089248],
            [117.67144802578554, 35.08013546622351],
            [117.63253821644332, 35.091590749473916],
            [117.60223532622106, 35.09110381523172],
            [117.59915320677582, 35.104849049567],
            [117.60112516514664, 35.11152969175882],
            [117.59185586023449, 35.115152471580885],
            [117.57759265495262, 35.11714619303535],
            [117.56426785825889, 35.10995140304358],
            [117.5428155466991, 35.08979685829696],
            [117.50988324715587, 35.09001094198085],
            [117.43649317224151, 35.09172998505312],
            [117.39897542958326, 35.0735827290561],
            [117.37991586374828, 35.051718829225514],
            [117.38001845662359, 35.025288396231986]
          ]
        ],
        "type": "Polygon"
      }
    },
    {
      "type": "Feature",
      "properties": {},
      "geometry": {
        "coordinates": [
          [
            [117.62242480017301, 35.392697076039525],
            [117.61376925240518, 35.35598881785954],
            [117.60875718910714, 35.33773421190994],
            [117.63692902142714, 35.3318972889093],
            [117.66106776786134, 35.32857004778596],
            [117.67504377834865, 35.3159779884718],
            [117.67153924162056, 35.28394166565613],
            [117.68343655240051, 35.27105318740558],
            [117.70559501247646, 35.25774400622939],
            [117.7266962498037, 35.256640415543075],
            [117.77250999035829, 35.24775385622047],
            [117.80846064502947, 35.22429333837201],
            [117.82844016975037, 35.20470260862919],
            [117.83240675161142, 35.18564204980051],
            [117.85626886158599, 35.18354693433779],
            [117.86737924404827, 35.198286624533964],
            [117.873709280849, 35.20392758052242],
            [117.88375471905606, 35.19895577084494],
            [117.88410817546131, 35.18869797944063],
            [117.86942437780597, 35.17063344235346],
            [117.8742318960991, 35.157215188238915],
            [117.88131963146515, 35.1455658862274],
            [117.87047919309225, 35.138563551405284],
            [117.85980234973272, 35.11955307738292],
            [117.85842839981433, 35.10190462394013],
            [117.92119141423771, 35.056756420808625],
            [117.98382166007231, 35.05154701354509],
            [118.01388374853758, 35.05803653301276],
            [118.034568103124, 35.067229178830814],
            [118.05344330365008, 35.07906403244948],
            [118.06511214366577, 35.098145111349794],
            [118.07408542723721, 35.1216068722067],
            [118.09166397213284, 35.14180855098451],
            [118.07937610020576, 35.20773670641156],
            [118.03985961396779, 35.266108064209334],
            [117.99251043799089, 35.28898870429721],
            [117.95307485490703, 35.298893636913725],
            [117.86629009584627, 35.331679209618116],
            [117.8273314886586, 35.33140175685481],
            [117.81615822038219, 35.34518538618315],
            [117.76203793605187, 35.35224356739536],
            [117.72580155421164, 35.37419761136786],
            [117.71749004348844, 35.38607306988976],
            [117.7046403109178, 35.39785854548572],
            [117.65576894975726, 35.408447124235536],
            [117.62803616069635, 35.40783816926026],
            [117.62242480017301, 35.392697076039525]
          ]
        ],
        "type": "Polygon"
      }
    }
  ]
}
