{
  "type": "FeatureCollection",
  "features": [
    {
      "type": "Feature",
      "properties": {
        "name": "太行山脉"
      },
      "geometry": {
        "coordinates": [
          [
            [114.96498986384472, 40.041831661612406],
            [114.61444125215974, 39.82191726877224],
            [114.33822549269496, 39.64216551953632],
            [113.9451668084555, 39.38811335402977],
            [113.67958291081709, 39.1083831406369],
            [113.37708471097034, 38.85325899710426],
            [113.06899324226174, 38.430079968366215],
            [112.83526821524157, 37.803214067687165],
            [112.71712265470262, 37.31891038940293],
            [112.63343072502192, 36.77208302973307],
            [112.61369457957363, 36.21859094153032],
            [112.5899759600648, 35.76401066005832],
            [112.57860484212605, 35.61643509987538],
            [112.59434465923744, 35.43081874767273],
            [112.65830260781479, 35.16180834109939],
            [112.77589391873462, 35.21024843956254],
            [112.8981379473538, 35.23874723779255],
            [113.07475283250193, 35.264656211528916],
            [113.25747061099779, 35.33003109133325],
            [113.39787405297534, 35.40990842933765],
            [113.40988611472852, 35.66909187188025],
            [113.42203352900475, 35.93889406089025],
            [113.47075314786198, 36.3100009662373],
            [113.55742593585866, 36.60411020999585],
            [113.55022908540735, 36.831233645288734],
            [113.70752028902291, 37.58605972317869],
            [113.7511434320499, 37.85067186939966],
            [113.84453106839442, 38.13821138299295],
            [114.0808240245533, 38.547791090658365],
            [114.32386514356605, 38.8954716878316],
            [114.45347089824294, 39.04031879300867],
            [114.65327664943464, 39.22990104105668],
            [114.878374723635, 39.40829569637734],
            [115.16532071347274, 39.56761682026098],
            [115.3274633414818, 39.699656643095466],
            [115.39834513853873, 39.793438993759764],
            [115.36180377019198, 39.87987125356069],
            [115.24299508375503, 39.96956140721734],
            [115.09158674733547, 40.034074430406456],
            [114.96498986384472, 40.041831661612406]
          ]
        ],
        "type": "Polygon"
      }
    }
  ]
}
