{
  "type": "FeatureCollection",
  "features": [
    {
      "type": "Feature",
      "properties": {
        "name": "泰山"
      },
      "geometry": {
        "coordinates": [
          [
            [116.80935057616978, 36.51957126084497],
            [116.80993747219543, 36.37199326254358],
            [116.96980522778188, 36.37804062298139],
            [117.17932169653608, 36.3880649066093],
            [117.46894347536073, 36.39801587004881],
            [117.76019782411396, 36.39407147172889],
            [117.87357420921441, 36.389801249105396],
            [117.96389433311691, 36.38350925960512],
            [118.10743623208026, 36.357733993994266],
            [118.23361087295933, 36.310641322299276],
            [118.29987924927036, 36.45380030324574],
            [118.15505170922458, 36.507157683316336],
            [117.98362699862793, 36.53221207203299],
            [117.79386217545914, 36.54455079792711],
            [117.60821701606682, 36.55078637996067],
            [117.39543211452812, 36.54435932461187],
            [117.17735132210703, 36.541506597611416],
            [116.98038117720108, 36.531803702063826],
            [116.80935057616978, 36.51957126084497]
          ]
        ],
        "type": "Polygon"
      },
      "id": 3
    }
  ]
}
