{
  "type": "FeatureCollection",
  "features": [
    {
      "type": "Feature",
      "properties": {
        "name": "星宿海"
      },
      "geometry": {
        "coordinates": [
          [
            [96.94337250448353, 35.01094090547707],
            [96.92609307531279, 35.01069571057094],
            [96.90566793796086, 35.01719975416964],
            [96.8889507247838, 35.017507068787395],
            [96.88179417455277, 35.015412849226394],
            [96.87625338384466, 35.01199561166821],
            [96.86732629527475, 35.002955203121225],
            [96.86408923425003, 34.98895771670275],
            [96.86192301276736, 34.97845917852135],
            [96.86368137488259, 34.97346167008412],
            [96.86731599314732, 34.96735302202523],
            [96.8690926934759, 34.96398319032454],
            [96.8721452795371, 34.96162889623612],
            [96.87922779424667, 34.958373676616745],
            [96.88954638674562, 34.956569300335175],
            [96.89999919202498, 34.95363651477193],
            [96.90983091804901, 34.95353073875417],
            [96.9189518998788, 34.94952699225023],
            [96.93092829508242, 34.94749973663785],
            [96.94508521693905, 34.94608857572006],
            [96.96801728805991, 34.9404820040067],
            [96.97206479224937, 34.93995263510118],
            [96.98861177134631, 34.93638898568406],
            [97.00635946612289, 34.933326082909744],
            [97.01584234449118, 34.93300999201706],
            [97.02174203394785, 34.935113155666045],
            [97.02497821646399, 34.940406952401325],
            [97.03143519165016, 34.95464286761184],
            [97.03399434398186, 34.96617424400191],
            [97.03365644870013, 34.977082893102505],
            [97.03219969161029, 34.98358378824494],
            [96.9996182805848, 34.99535736628495],
            [96.98428441764776, 35.00202587027822],
            [96.97070351478803, 35.00697062499243],
            [96.95890045832276, 35.00861642710255],
            [96.94337250448353, 35.01094090547707]
          ]
        ],
        "type": "Polygon"
      }
    }
  ]
}
