{
  "type": "FeatureCollection",
  "features": [
    {
      "type": "Feature",
      "properties": {
        "name": "禹河故道"
      },
      "geometry": {
        "coordinates": [
          [113.58185204940315, 34.95258655701785],
          [113.94389976633425, 35.09000084092709],
          [114.13142328108526, 35.167288997304325],
          [114.33809006941387, 35.256843370382406],
          [114.40797379960208, 35.29414082884273],
          [114.4225096763493, 35.33244644698992],
          [114.43881938761848, 35.37567283078093],
          [114.44587865551014, 35.44352522256279],
          [114.44977961709344, 35.50191792714551],
          [114.4473078946886, 35.557138368569525],
          [114.44777135032126, 35.59873227072608],
          [114.45433691893345, 35.63866398259417],
          [114.44391332719073, 35.71818578427231],
          [114.45158467717204, 35.8260396332291],
          [114.48459063253625, 35.93084033790545],
          [114.51095677302771, 36.043526625563416],
          [114.56002683316046, 36.14817728306956],
          [114.58188686678892, 36.27826562476271],
          [114.65740987532382, 36.41512004642523],
          [114.70461295788868, 36.50622283700089],
          [114.75087341040239, 36.62949540580537],
          [114.78957096810768, 36.748643909293335],
          [114.80845040547246, 36.88467046503024],
          [114.84621204106418, 37.04306226635437],
          [114.88397626853839, 37.208643352335415],
          [114.90285639140325, 37.32133188951032],
          [114.97035540084181, 37.45715784753112],
          [115.07276960001133, 37.553686176875104],
          [115.17660707633053, 37.59857470003789],
          [115.2898882444606, 37.68827137785908],
          [115.39372587574599, 37.770397487151115],
          [115.47868255825324, 37.88224039099829],
          [115.56364126461472, 37.96415120826535],
          [115.71467854630771, 38.060837290365185],
          [115.83739550262783, 38.13512415513878],
          [115.95067269307646, 38.209335479512276],
          [116.00731128830142, 38.290880630419565],
          [116.13946801049173, 38.39453299047119],
          [116.24331056972846, 38.47587199985222],
          [116.37547637792142, 38.56450238985357],
          [116.4604372589219, 38.65302142448249],
          [116.52651761660638, 38.73406768674221],
          [116.58315610631422, 38.84443618880266],
          [116.67755404080378, 38.917920253751106],
          [116.81915182141893, 39.02067061534788],
          [116.93866789697933, 39.10867140345346],
          [117.0173851459171, 39.13059327448505],
          [117.1306656523501, 39.14523812393526],
          [117.17796862907278, 39.13064278850027],
          [117.25666837503792, 39.0965466979645]
        ],
        "type": "LineString"
      }
    }
  ]
}
