{
  "type": "FeatureCollection",
  "features": [
    {
      "type": "Feature",
      "properties": {
        "use": 3
      },
      "geometry": {
        "coordinates": [
          [
            [121.48137972846916, 31.24571521568639],
            [121.48156312632847, 31.245111506633222],
            [121.48182076541303, 31.24424276751509],
            [121.48226421750627, 31.24295102346568],
            [121.4828331550413, 31.2414977454159],
            [121.4844993280829, 31.241409849855927],
            [121.48627736735938, 31.24111320107204],
            [121.48641765205264, 31.24208766876147],
            [121.48648215056616, 31.24235667720084],
            [121.4865474446021, 31.242514645470866],
            [121.48657061768051, 31.242623119459225],
            [121.48661316905125, 31.242749773693497],
            [121.48665217322501, 31.242937561976518],
            [121.48675769737034, 31.24324943831283],
            [121.48694083172427, 31.243732898426543],
            [121.48660563519368, 31.244102330316757],
            [121.48655977899016, 31.244296997712564],
            [121.48656416784888, 31.24433444212218],
            [121.48657133653163, 31.244397554375702],
            [121.48662049339885, 31.24453831567095],
            [121.48626698206743, 31.244666984530127],
            [121.48606727586747, 31.244740846073633],
            [121.48585964180666, 31.24481409062477],
            [121.48584504885565, 31.244764822214776],
            [121.48544275513498, 31.244882879072712],
            [121.4850598740017, 31.245241402171672],
            [121.4840403339013, 31.245568160969782],
            [121.48303708071364, 31.245862719942465],
            [121.48232506923483, 31.245862854462388],
            [121.4818635035175, 31.245799157482693],
            [121.48137972846916, 31.24571521568639]
          ]
        ],
        "type": "Polygon"
      }
    },
    {
      "type": "Feature",
      "properties": {
        "use": 3
      },
      "geometry": {
        "coordinates": [
          [
            [121.47223739446451, 31.245274966208797],
            [121.47214183138021, 31.244762973170367],
            [121.4720480937068, 31.243767571703785],
            [121.47207980454027, 31.24364481819967],
            [121.4728409671294, 31.243348884593345],
            [121.47342012830524, 31.2430865970761],
            [121.47396190323573, 31.242809113960966],
            [121.47433137448633, 31.242625645343153],
            [121.47471348817928, 31.24238572434664],
            [121.47522444881571, 31.242263257195432],
            [121.47533260051819, 31.242872975814855],
            [121.47530149795858, 31.243524449611556],
            [121.4753198854977, 31.244179173020363],
            [121.47537461736377, 31.244595122109775],
            [121.47527873340304, 31.244743709179815],
            [121.47510898327545, 31.24484850173168],
            [121.47452471109324, 31.245000782163345],
            [121.47358689660558, 31.245105405196128],
            [121.47288764498938, 31.24519614570535],
            [121.47223739446451, 31.245274966208797]
          ]
        ],
        "type": "Polygon"
      }
    },
    {
      "type": "Feature",
      "properties": {
        "use": 3
      },
      "geometry": {
        "coordinates": [
          [
            [121.45870778256364, 31.24386045924193],
            [121.4588054689869, 31.24369816434057],
            [121.45921735574836, 31.24368111782313],
            [121.45964644067152, 31.24362121669982],
            [121.45967727252662, 31.24383868934747],
            [121.45920924671606, 31.243897523724414],
            [121.45898088113654, 31.24390626599326],
            [121.45870778256364, 31.24386045924193]
          ]
        ],
        "type": "Polygon"
      }
    },
    {
      "type": "Feature",
      "properties": {
        "use": 3
      },
      "geometry": {
        "coordinates": [
          [
            [121.46439859041419, 31.243879761287786],
            [121.46434927699772, 31.243196432097463],
            [121.46406775157186, 31.24188880346486],
            [121.46397929340168, 31.241566887339502],
            [121.46421089897251, 31.241496690266764],
            [121.46450453895955, 31.241441021392603],
            [121.4647651603488, 31.24140299075895],
            [121.46513214991506, 31.241356539447096],
            [121.46508823851927, 31.241793353771534],
            [121.4650928876562, 31.242199721280684],
            [121.46504393709934, 31.242634206216472],
            [121.4649565043319, 31.243103796744848],
            [121.46469789737591, 31.243654354134975],
            [121.46459693426289, 31.243793767216744],
            [121.46439859041419, 31.243879761287786]
          ]
        ],
        "type": "Polygon"
      }
    },
    {
      "type": "Feature",
      "properties": {
        "use": 3
      },
      "geometry": {
        "coordinates": [
          [
            [121.45899855741567, 31.24304181744003],
            [121.45926447813545, 31.24208274969989],
            [121.45959600177025, 31.241283612784315],
            [121.46039478044122, 31.239447014293077],
            [121.46197200249901, 31.236415390482463],
            [121.46251458647538, 31.236292147746724],
            [121.4619443105546, 31.237680005306743],
            [121.46029284216615, 31.241938149030403],
            [121.45994174222972, 31.242707451440936],
            [121.45979438473591, 31.2429897977984],
            [121.45941765857978, 31.24305712136811],
            [121.45899855741567, 31.24304181744003]
          ]
        ],
        "type": "Polygon"
      }
    },
    {
      "type": "Feature",
      "properties": {
        "use": 3
      },
      "geometry": {
        "coordinates": [
          [
            [121.44440158754026, 31.2461993863935],
            [121.44503750127092, 31.245669837441483],
            [121.44643401730889, 31.244805241461435],
            [121.44711173928943, 31.24437430205407],
            [121.44775692334284, 31.243996538350814],
            [121.44833569867507, 31.24361143819432],
            [121.44898828827013, 31.243094328222483],
            [121.44962981493683, 31.24250416763013],
            [121.4498755247202, 31.242072560754252],
            [121.4504384362896, 31.24214702979313],
            [121.45072114598896, 31.242208207547378],
            [121.45080426067398, 31.242429440655144],
            [121.45086444723677, 31.24260768817878],
            [121.45066539144784, 31.242815617475912],
            [121.44926105944711, 31.243774887310124],
            [121.44795057082331, 31.244442972317884],
            [121.44692526832273, 31.245088476578445],
            [121.44600416846743, 31.245640604683643],
            [121.44527888020997, 31.24602589995156],
            [121.44502623390508, 31.246187000605346],
            [121.44479598232209, 31.246278616583382],
            [121.44462804210164, 31.24629480794123],
            [121.44452696285214, 31.24626207000835],
            [121.44440158754026, 31.2461993863935]
          ]
        ],
        "type": "Polygon"
      }
    },
    {
      "type": "Feature",
      "properties": {
        "use": 3
      },
      "geometry": {
        "coordinates": [
          [
            [121.44319765882807, 31.24591422107963],
            [121.44286129042388, 31.245886990948854],
            [121.44270520148982, 31.245780188311986],
            [121.44268756870326, 31.245651959403133],
            [121.4428327030893, 31.245444799777914],
            [121.4430880854398, 31.245181816275206],
            [121.44409902756286, 31.244518017726193],
            [121.44533842260728, 31.24367102088327],
            [121.44701276122186, 31.242686443368285],
            [121.44785298411722, 31.242090701481622],
            [121.44858228319902, 31.241412725368548],
            [121.44885688437165, 31.241449327033656],
            [121.44898821807641, 31.241482922801595],
            [121.44916384036341, 31.24158373647778],
            [121.4493380006398, 31.241694741181263],
            [121.44934530773656, 31.241864284725253],
            [121.44877552074439, 31.242477589455596],
            [121.4480135716197, 31.24318005750756],
            [121.44631443799904, 31.24414202776299],
            [121.44529896072794, 31.2448678100182],
            [121.44437872978074, 31.24542867380542],
            [121.44371762709216, 31.24591834127677],
            [121.44339650646774, 31.245973449905694],
            [121.44319765882807, 31.24591422107963]
          ]
        ],
        "type": "Polygon"
      }
    },
    {
      "type": "Feature",
      "properties": {
        "use": 3
      },
      "geometry": {
        "coordinates": [
          [
            [121.43567581962105, 31.254722635414154],
            [121.43541863705946, 31.254540304498647],
            [121.43524618811153, 31.25425369461189],
            [121.43526335770912, 31.253991069586007],
            [121.43534711156553, 31.25371147481451],
            [121.43526004415526, 31.253415094451157],
            [121.43517297674498, 31.253118714087805],
            [121.43509153648375, 31.252840120108274],
            [121.4349086139838, 31.25247676767019],
            [121.4346602263671, 31.2521281659036],
            [121.43426879081284, 31.251369347616162],
            [121.43397304788579, 31.25087996680041],
            [121.43377143207101, 31.25033614005676],
            [121.43456905371062, 31.25068311114117],
            [121.43509414523879, 31.250976692137144],
            [121.43589293555931, 31.251465020672512],
            [121.43661694504812, 31.251600740394224],
            [121.43786722146956, 31.2514783746591],
            [121.43773832437307, 31.251593866938094],
            [121.43738809172817, 31.251975740943223],
            [121.43724078482052, 31.252454111806756],
            [121.43703370334566, 31.25338494606038],
            [121.43689404378227, 31.253885389630113],
            [121.43656891159804, 31.253957919476434],
            [121.43669056391104, 31.25413351612285],
            [121.43655911227853, 31.25441493540339],
            [121.43608502395801, 31.254649385122633],
            [121.43567581962105, 31.254722635414154]
          ]
        ],
        "type": "Polygon"
      }
    },
    {
      "type": "Feature",
      "properties": {
        "use": 3
      },
      "geometry": {
        "coordinates": [
          [
            [121.43945014606044, 31.251267544978944],
            [121.43949687311397, 31.25048883651266],
            [121.44066492698369, 31.250694366614866],
            [121.44159706554171, 31.250749375592427],
            [121.44261332059187, 31.250650404947265],
            [121.44302560974413, 31.250322422632507],
            [121.44334160379105, 31.249915892891124],
            [121.44371086197589, 31.249588007453312],
            [121.44392416173176, 31.249321031830114],
            [121.44404421103644, 31.24903364074663],
            [121.44450909707894, 31.248299401969035],
            [121.44498748014618, 31.248834591995603],
            [121.44530075859753, 31.24921584938832],
            [121.44553980086346, 31.249557118263],
            [121.44574070436639, 31.250042961363498],
            [121.44582137589886, 31.25030306818518],
            [121.44590392719027, 31.250648745741756],
            [121.44591808111196, 31.251434695373078],
            [121.44587277964399, 31.252178431607604],
            [121.44579656774562, 31.252462666331454],
            [121.44563595711847, 31.252565785072917],
            [121.44544273210317, 31.25257537659256],
            [121.44509797902373, 31.252445722694247],
            [121.4444784949502, 31.252162744214317],
            [121.44419165018988, 31.252057608488464],
            [121.44405230747606, 31.25200944660358],
            [121.44405973808968, 31.25190388776225],
            [121.44390621982686, 31.251824799030565],
            [121.44369897275112, 31.25175757811239],
            [121.44263118068989, 31.251594662993142],
            [121.44125043277421, 31.25145184903309],
            [121.4400672701264, 31.25132414778382],
            [121.43971305972096, 31.251274745741384],
            [121.43945014606044, 31.251267544978944]
          ]
        ],
        "type": "Polygon"
      }
    },
    {
      "type": "Feature",
      "properties": {
        "use": 3
      },
      "geometry": {
        "coordinates": [
          [
            [121.44044568405423, 31.254739140716893],
            [121.43999760451374, 31.25557374768649],
            [121.43956111109725, 31.25591265636504],
            [121.4391732427473, 31.255981904788555],
            [121.43887770276615, 31.2559192199532],
            [121.4388668099391, 31.255588010581793],
            [121.43908292264246, 31.254982141347263],
            [121.43972385552104, 31.254170542301623],
            [121.43988623547568, 31.253738666117712],
            [121.43946611984529, 31.25355378995077],
            [121.43929903992974, 31.25334002944422],
            [121.43935672823253, 31.252911303882904],
            [121.43943632864664, 31.252707883463838],
            [121.43951675596742, 31.25257196212803],
            [121.43962146941465, 31.252462234333464],
            [121.44001644765535, 31.252302932099838],
            [121.4403884343057, 31.25226059227039],
            [121.44080752289938, 31.252309874754474],
            [121.441269956025, 31.252301715784863],
            [121.44225970147119, 31.25245730810544],
            [121.44326453115204, 31.252577677291686],
            [121.44390169255628, 31.252639635140028],
            [121.44432989539723, 31.25275484692331],
            [121.44427101078205, 31.253219157898897],
            [121.44407025480643, 31.25344627203218],
            [121.4439679292625, 31.25368297157243],
            [121.44391446465022, 31.253828378139943],
            [121.4437735054736, 31.254058955820508],
            [121.44362623393559, 31.25427143205824],
            [121.44342126262444, 31.2543581948257],
            [121.44298615351141, 31.254325145092153],
            [121.44223330554041, 31.25418977973495],
            [121.44159224232095, 31.254242737645882],
            [121.44134450085807, 31.25429939272452],
            [121.44098306293415, 31.25447400930298],
            [121.44044568405423, 31.254739140716893]
          ]
        ],
        "type": "Polygon"
      }
    },
    {
      "type": "Feature",
      "properties": {
        "use": 2
      },
      "geometry": {
        "coordinates": [
          [
            [121.44520765634144, 31.25370866875683],
            [121.44511343051937, 31.25360643201762],
            [121.4450192046973, 31.25350419527841],
            [121.44496182437626, 31.25337543762558],
            [121.44499807380447, 31.253106712692983],
            [121.44559988571973, 31.253251528571212],
            [121.44564446341357, 31.253353391750807],
            [121.44553895849066, 31.25349350367216],
            [121.4453781780199, 31.25360333756082],
            [121.44520765634144, 31.25370866875683]
          ]
        ],
        "type": "Polygon"
      }
    },
    {
      "type": "Feature",
      "properties": {
        "use": 3
      },
      "geometry": {
        "coordinates": [
          [
            [121.43553568302042, 31.25631873218225],
            [121.43450591234637, 31.256193681202603],
            [121.43407127643033, 31.256136609525157],
            [121.4338003774223, 31.255990210127408],
            [121.43368943997186, 31.25584636409451],
            [121.43372213263397, 31.255728694142398],
            [121.43385852489644, 31.255651584372472],
            [121.43416213342596, 31.255520404202755],
            [121.43449432947926, 31.25532704681666],
            [121.43463807834428, 31.255094502280045],
            [121.43467699783878, 31.25464130133858],
            [121.43504050630798, 31.254942335061273],
            [121.43546381763485, 31.25514200075925],
            [121.43597450390382, 31.255169251222753],
            [121.43622815609405, 31.255099713939558],
            [121.43650524746755, 31.25514080749157],
            [121.43670698103216, 31.255264765525737],
            [121.43677899175108, 31.2554250797736],
            [121.43677517724751, 31.255480312074695],
            [121.43672355296331, 31.255568494007896],
            [121.43655829747775, 31.25569998924304],
            [121.43634531347116, 31.255880896125497],
            [121.43604350782104, 31.25603180564177],
            [121.43553568302042, 31.25631873218225]
          ]
        ],
        "type": "Polygon"
      }
    },
    {
      "type": "Feature",
      "properties": {
        "use": 2
      },
      "geometry": {
        "coordinates": [
          [
            [121.43346029117043, 31.249735677879613],
            [121.4333824840001, 31.24901727390855],
            [121.43381128905668, 31.249063837380717],
            [121.43378877793077, 31.24974218767521],
            [121.43365085265327, 31.2500070110068],
            [121.43346029117043, 31.249735677879613]
          ]
        ],
        "type": "Polygon"
      }
    },
    {
      "type": "Feature",
      "properties": {
        "use": 2
      },
      "geometry": {
        "coordinates": [
          [
            [121.43097646181451, 31.254140937803953],
            [121.43037139788305, 31.253702449795412],
            [121.43005115905822, 31.253345987048945],
            [121.42973729274195, 31.25257558897188],
            [121.42941052487788, 31.25202751429528],
            [121.42923205457737, 31.251330156399774],
            [121.42934885660122, 31.25139788816969],
            [121.42949461041235, 31.251481569984193],
            [121.42970479448044, 31.251547058746766],
            [121.42996089883934, 31.25155418727843],
            [121.43016481016568, 31.251516569775127],
            [121.43038166401658, 31.251448992554955],
            [121.43084756183981, 31.251242832559427],
            [121.43108920136876, 31.251083675534197],
            [121.43131865493228, 31.25093428949431],
            [121.43161124683667, 31.252201082467707],
            [121.43155619318736, 31.253426273067774],
            [121.43145945797801, 31.254056500119063],
            [121.43121417297749, 31.25426074024719],
            [121.43097646181451, 31.254140937803953]
          ]
        ],
        "type": "Polygon"
      }
    },
    {
      "type": "Feature",
      "properties": {
        "use": 3
      },
      "geometry": {
        "coordinates": [
          [
            [121.42951116452303, 31.250947188867826],
            [121.42943601103909, 31.25083657376802],
            [121.42945561385437, 31.250641056002294],
            [121.42947782438597, 31.25031306473366],
            [121.42957145500304, 31.249009957179197],
            [121.42963379345966, 31.248313836328002],
            [121.42967171979838, 31.247977587649604],
            [121.42963611340355, 31.24759692196848],
            [121.4300111257414, 31.247647964289847],
            [121.43020194187848, 31.247713243518728],
            [121.43036214526637, 31.24782692658394],
            [121.43044607308005, 31.24792537997923],
            [121.43056425276, 31.248091795411966],
            [121.43065195038929, 31.248159393048105],
            [121.43080773115389, 31.248331443045117],
            [121.43101288642134, 31.248861010864374],
            [121.43104838720183, 31.249028867195257],
            [121.43106223750283, 31.24919942980931],
            [121.43107787885572, 31.249329625918666],
            [121.43110041926042, 31.24943678990487],
            [121.43121384006008, 31.249575897018772],
            [121.43123797853175, 31.249661003385896],
            [121.43131384262705, 31.249694634093416],
            [121.43145726765707, 31.24973450796658],
            [121.43163092777502, 31.249732638072928],
            [121.43235227212907, 31.249555969108243],
            [121.43259873913536, 31.249528288871026],
            [121.43271035265514, 31.249520001112703],
            [121.43281782359564, 31.249519174344073],
            [121.43291385088483, 31.249516615308117],
            [121.43298768461352, 31.24951418340109],
            [121.4330260394175, 31.249524466038668],
            [121.43304714881143, 31.249530552538566],
            [121.43297081795845, 31.249529479502158],
            [121.43288833968268, 31.24953042178547],
            [121.43276975384322, 31.249542574419536],
            [121.43260369061761, 31.249589470118217],
            [121.4324014235097, 31.249660135944225],
            [121.43162488271935, 31.250103368219655],
            [121.43058963520349, 31.250796326942137],
            [121.43003940944396, 31.25102285498008],
            [121.4298544010528, 31.2510584407753],
            [121.42970534956842, 31.251054486137527],
            [121.42951116452303, 31.250947188867826]
          ]
        ],
        "type": "Polygon"
      }
    },
    {
      "type": "Feature",
      "properties": {
        "use": 3
      },
      "geometry": {
        "coordinates": [
          [
            [121.42566407475607, 31.246364442443237],
            [121.42600601113116, 31.245823775384082],
            [121.42624593425865, 31.24564246052104],
            [121.42643305628181, 31.24555998218996],
            [121.42675597519928, 31.245627387983944],
            [121.42654470460172, 31.246039884978984],
            [121.42644703919802, 31.24635087237543],
            [121.42632451914932, 31.246491704991243],
            [121.42566407475607, 31.246364442443237]
          ]
        ],
        "type": "Polygon"
      }
    },
    {
      "type": "Feature",
      "properties": {
        "use": 3
      },
      "geometry": {
        "coordinates": [
          [
            [121.42635375870657, 31.24071687869801],
            [121.42608116422036, 31.240484042381652],
            [121.42568979937028, 31.240298537825538],
            [121.42563381785544, 31.240217720606424],
            [121.42595987676987, 31.24010856899524],
            [121.42644039532377, 31.23983979024939],
            [121.42658812580882, 31.239835118478624],
            [121.42664228049813, 31.240020105559324],
            [121.42668537726706, 31.240222453090723],
            [121.42664688956717, 31.240421823437856],
            [121.42662923622981, 31.240533985208984],
            [121.42657813758063, 31.240615658433228],
            [121.42649599357833, 31.240695185323453],
            [121.42635375870657, 31.24071687869801]
          ]
        ],
        "type": "Polygon"
      }
    },
    {
      "type": "Feature",
      "properties": {
        "use": 3
      },
      "geometry": {
        "coordinates": [
          [
            [121.42290333305658, 31.240616184908177],
            [121.42284990222427, 31.240467211062615],
            [121.42294195466457, 31.240267195129686],
            [121.42319311419993, 31.240059478530902],
            [121.4237212366466, 31.23948390347033],
            [121.42429191010996, 31.239936413767282],
            [121.42475054284324, 31.24020807420314],
            [121.42460019367343, 31.24070139583342],
            [121.42438754312485, 31.240875547456724],
            [121.4241407591098, 31.241089913436554],
            [121.42391083784867, 31.241118496871096],
            [121.42359830453185, 31.241085843878814],
            [121.4233174878421, 31.240933424091878],
            [121.42312689773365, 31.240869007262546],
            [121.42290333305658, 31.240616184908177]
          ]
        ],
        "type": "Polygon"
      }
    },
    {
      "type": "Feature",
      "properties": {
        "use": 3
      },
      "geometry": {
        "coordinates": [
          [
            [121.42179247706076, 31.23672009592339],
            [121.42166670921003, 31.234895032229446],
            [121.42118500363819, 31.233381347952147],
            [121.42258249697676, 31.234043467202284],
            [121.4239996934117, 31.23398800380133],
            [121.42455466849071, 31.234016015853896],
            [121.4248028251626, 31.23422796390568],
            [121.42475899805248, 31.234769847406398],
            [121.42356760357427, 31.23580325661075],
            [121.42271566652784, 31.236252596351278],
            [121.42179247706076, 31.23672009592339]
          ]
        ],
        "type": "Polygon"
      }
    },
    {
      "type": "Feature",
      "properties": {
        "use": 3
      },
      "geometry": {
        "coordinates": [
          [
            [121.42097205627977, 31.232869681656595],
            [121.42078303618564, 31.23237727774412],
            [121.42096128953543, 31.2319681666528],
            [121.42103913065102, 31.231742901105576],
            [121.42111456022565, 31.231388658561144],
            [121.42106541882873, 31.231031003937446],
            [121.4212624997723, 31.230724351251354],
            [121.42147209634831, 31.230642729549523],
            [121.42169325001015, 31.230737451606316],
            [121.42194971447847, 31.230958342933178],
            [121.42200138965434, 31.231029557567496],
            [121.42202088476921, 31.23115166315742],
            [121.42210576843681, 31.231522754790447],
            [121.42211933473423, 31.23171139261661],
            [121.42211535770082, 31.231964264937858],
            [121.42199114224553, 31.232499261288766],
            [121.42177271514475, 31.232853039575588],
            [121.42160671694637, 31.232971199031894],
            [121.42148164675763, 31.233032806547218],
            [121.421375630662, 31.233076594153708],
            [121.42121253986812, 31.233130609462034],
            [121.42106720721932, 31.23311960460157],
            [121.42103253259313, 31.23303315211801],
            [121.42097205627977, 31.232869681656595]
          ]
        ],
        "type": "Polygon"
      }
    },
    {
      "type": "Feature",
      "properties": {
        "use": 3
      },
      "geometry": {
        "coordinates": [
          [
            [121.41893965630607, 31.239060788747977],
            [121.41770539762925, 31.2397856436357],
            [121.41691514452206, 31.23965154168428],
            [121.41672203697652, 31.239453504732992],
            [121.41618879589544, 31.238647543137915],
            [121.41641349561803, 31.236878339560718],
            [121.41665786265926, 31.236289925684396],
            [121.41680330183323, 31.235417769516488],
            [121.41728985442364, 31.233150176770522],
            [121.41851970430889, 31.232354749704896],
            [121.41910490774922, 31.23187282276806],
            [121.4198442379685, 31.231395116971328],
            [121.42086787449387, 31.233942672676662],
            [121.4213384644562, 31.236085407945765],
            [121.42092558759501, 31.2365328714284],
            [121.4207688858591, 31.23682676316877],
            [121.41997846351666, 31.237823023358402],
            [121.41893965630607, 31.239060788747977]
          ]
        ],
        "type": "Polygon"
      }
    },
    {
      "type": "Feature",
      "properties": {
        "use": 2
      },
      "geometry": {
        "coordinates": [
          [
            [121.40486978166246, 31.236334506423546],
            [121.40469697777093, 31.235024120966138],
            [121.40454270767282, 31.2332731488774],
            [121.40557166616418, 31.23355371429342],
            [121.40590163464583, 31.23379432012794],
            [121.40614567717034, 31.234531461877296],
            [121.40646637032194, 31.235201178901235],
            [121.40628682558524, 31.235747822476295],
            [121.40605810792724, 31.23615342927166],
            [121.40591669102609, 31.236666332530444],
            [121.4056579784064, 31.236756957474995],
            [121.40530252330217, 31.236685185500328],
            [121.40501821977531, 31.236586883368236],
            [121.40486978166246, 31.236334506423546]
          ]
        ],
        "type": "Polygon"
      }
    },
    {
      "type": "Feature",
      "properties": {
        "use": 3
      },
      "geometry": {
        "coordinates": [
          [
            [121.40920394143541, 31.231971165235052],
            [121.40753068976034, 31.231186447127342],
            [121.40734601330041, 31.23065673518434],
            [121.40778841914346, 31.230039267316826],
            [121.40856237562528, 31.23034018690317],
            [121.4093059561261, 31.23055356876121],
            [121.41001763275963, 31.230901670298053],
            [121.41033573450552, 31.231018906890505],
            [121.41076012831263, 31.23120103358582],
            [121.4108436328415, 31.231332381495573],
            [121.41073166099278, 31.231554440571294],
            [121.41049995050236, 31.231770576607275],
            [121.41026893949248, 31.231997288863504],
            [121.41006663482591, 31.232134919851205],
            [121.40983495452696, 31.232196532235605],
            [121.40964623016697, 31.23217565162068],
            [121.40920394143541, 31.231971165235052]
          ]
        ],
        "type": "Polygon"
      }
    },
    {
      "type": "Feature",
      "properties": {
        "use": 2
      },
      "geometry": {
        "coordinates": [
          [
            [121.38207390435463, 31.225299974322013],
            [121.38188476126675, 31.222468978123075],
            [121.38497838179833, 31.22216258686271],
            [121.38756235445625, 31.221949629564968],
            [121.3883792094224, 31.222014838562544],
            [121.38825269611931, 31.225202795696646],
            [121.38477040748694, 31.2255312958264],
            [121.38206670040609, 31.225681286744873],
            [121.38207390435463, 31.225299974322013]
          ]
        ],
        "type": "Polygon"
      }
    },
    {
      "type": "Feature",
      "properties": {
        "use": 2
      },
      "geometry": {
        "coordinates": [
          [
            [121.40360824596979, 31.223701167363856],
            [121.40367818044177, 31.222060304924227],
            [121.40480060691681, 31.221917368365013],
            [121.40630655800396, 31.2221540248935],
            [121.40658658400082, 31.223037365323748],
            [121.40657923240042, 31.224137165903045],
            [121.40511148866386, 31.22401011348242],
            [121.40360824596979, 31.223701167363856]
          ]
        ],
        "type": "Polygon"
      }
    },
    {
      "type": "Feature",
      "properties": {
        "use": 2
      },
      "geometry": {
        "coordinates": [
          [
            [121.40301153377266, 31.223590740583063],
            [121.4012992629988, 31.22276224666497],
            [121.4017534956576, 31.222383896740325],
            [121.40227060105838, 31.222586224131234],
            [121.40320721373087, 31.22311123100313],
            [121.40301153377266, 31.223590740583063]
          ]
        ],
        "type": "Polygon"
      }
    },
    {
      "type": "Feature",
      "properties": {
        "use": 3
      },
      "geometry": {
        "coordinates": [
          [
            [121.41290173347397, 31.226376073371824],
            [121.41259521304397, 31.22560572688782],
            [121.41189260997021, 31.22534117793296],
            [121.41082742360032, 31.225397435217914],
            [121.41064531251294, 31.22430205895897],
            [121.41091663843343, 31.223705562883566],
            [121.41101522974225, 31.22313094569097],
            [121.41137474356282, 31.222590280137403],
            [121.41173027036498, 31.222603716332987],
            [121.41198672677456, 31.222773840879384],
            [121.41256253188357, 31.223761105306238],
            [121.41322394191542, 31.22341952378278],
            [121.41384420178497, 31.223147940503353],
            [121.41448915832524, 31.222935294476457],
            [121.41591473618578, 31.222567317844366],
            [121.41681413913352, 31.222174854498377],
            [121.41731826147767, 31.22201467251675],
            [121.41760263343434, 31.221927999242425],
            [121.41729354312149, 31.222749269071457],
            [121.41690678563432, 31.222995804978197],
            [121.4172585965041, 31.223901444897663],
            [121.417569966874, 31.224525858114028],
            [121.41722173282335, 31.224869963748432],
            [121.41596343535093, 31.22511244519572],
            [121.41452565304968, 31.225452876948182],
            [121.41343777886988, 31.225694742551056],
            [121.413397474688, 31.22609358418572],
            [121.41335717050612, 31.226492425820382],
            [121.41324605166035, 31.226693017648834],
            [121.4130968601348, 31.226698534150287],
            [121.41290173347397, 31.226376073371824]
          ]
        ],
        "type": "Polygon"
      }
    },
    {
      "type": "Feature",
      "properties": {
        "use": 3
      },
      "geometry": {
        "coordinates": [
          [
            [121.39203719579069, 31.225419701942002],
            [121.39168387646629, 31.225084933816348],
            [121.39146327198034, 31.22422781670744],
            [121.39168705065418, 31.22336992915433],
            [121.39174116923124, 31.223072928340017],
            [121.39152605840553, 31.22281078811588],
            [121.39043607744208, 31.222300056341098],
            [121.38756293268352, 31.221914664265526],
            [121.38181716693902, 31.222449712017394],
            [121.37953574399307, 31.222740937366012],
            [121.37801536615262, 31.222894248752354],
            [121.3766603348945, 31.222925929949987],
            [121.37531303379018, 31.22310524625243],
            [121.375023322591, 31.221970654337355],
            [121.3768041473869, 31.221944361800666],
            [121.37876728503238, 31.221928143606604],
            [121.38082873917398, 31.2214228864232],
            [121.3817250594224, 31.22112971894122],
            [121.38289019331557, 31.220917629239793],
            [121.38498436520695, 31.220689894536022],
            [121.3880310214322, 31.220700429341193],
            [121.3897582320705, 31.220880008719917],
            [121.3916470824571, 31.22090961740733],
            [121.39321545278364, 31.22050977833665],
            [121.39456780224174, 31.220347564807938],
            [121.39490825687898, 31.2205893671011],
            [121.39484197054816, 31.22235876861592],
            [121.39441768566081, 31.223321006050334],
            [121.39434862132015, 31.22386766665518],
            [121.39486578466142, 31.22430279178066],
            [121.3952655965335, 31.224426545955602],
            [121.39588742214427, 31.224622170695465],
            [121.39621032409224, 31.2247742025706],
            [121.39688688302735, 31.224906868866682],
            [121.39728114118923, 31.22493044566511],
            [121.39751384649014, 31.22492021675074],
            [121.39793278190268, 31.224679088625876],
            [121.3979495858, 31.224874655913457],
            [121.39792565679649, 31.225090852718033],
            [121.39776025054906, 31.22546100273721],
            [121.39758383044925, 31.22571950467553],
            [121.39726618199464, 31.225845399457295],
            [121.39677553744102, 31.226015100901144],
            [121.3963361838115, 31.226137493051034],
            [121.3955924242002, 31.22604301813125],
            [121.39522890133156, 31.22606657527932],
            [121.39464886088197, 31.22584558532636],
            [121.39365398432739, 31.225712085170755],
            [121.39203719579069, 31.225419701942002]
          ]
        ],
        "type": "Polygon"
      }
    },
    {
      "type": "Feature",
      "properties": {
        "use": 3
      },
      "geometry": {
        "coordinates": [
          [
            [121.38266223571077, 31.22530958947651],
            [121.38251137964437, 31.22479774655247],
            [121.38433455744962, 31.224568810283003],
            [121.38429212003035, 31.22510634598372],
            [121.38266223571077, 31.22530958947651]
          ]
        ],
        "type": "Polygon"
      }
    },
    {
      "type": "Feature",
      "properties": {
        "use": 3
      },
      "geometry": {
        "coordinates": [
          [
            [121.37756055195916, 31.22605462192729],
            [121.37758326608429, 31.225685999250956],
            [121.37880356163862, 31.225075160120227],
            [121.38048199489106, 31.22456241951025],
            [121.38079340291841, 31.22478630719644],
            [121.38076826027844, 31.225155097571943],
            [121.38002362095392, 31.2255508137022],
            [121.37889838121407, 31.22600049186927],
            [121.3781345930517, 31.22634127677884],
            [121.37781981484187, 31.226379160296034],
            [121.37756055195916, 31.22605462192729]
          ]
        ],
        "type": "Polygon"
      }
    },
    {
      "type": "Feature",
      "properties": {
        "use": 2
      },
      "geometry": {
        "coordinates": [
          [
            [121.37156515236109, 31.226178841211947],
            [121.37071126769291, 31.226248343377762],
            [121.37045857095623, 31.22626503251809],
            [121.37037366587913, 31.226167992551133],
            [121.37032890276026, 31.225776752426114],
            [121.37042310307044, 31.225200491429305],
            [121.37047519606747, 31.224824430411587],
            [121.37050313567214, 31.22464183035713],
            [121.37041499664366, 31.224423778810362],
            [121.37027703943303, 31.224258110003547],
            [121.37008180971088, 31.224166171974375],
            [121.36949959898567, 31.224100222824262],
            [121.36915783751573, 31.22417085791092],
            [121.36884570622053, 31.224357660369563],
            [121.3686728151021, 31.224477671954944],
            [121.36857684042161, 31.224476036017776],
            [121.36854170073119, 31.224426286796096],
            [121.36852855562705, 31.224332665756762],
            [121.36851272821255, 31.22419770934414],
            [121.36849653895558, 31.2240724114032],
            [121.36850387592796, 31.223943178585756],
            [121.36849507388354, 31.223764546179325],
            [121.36849054137755, 31.223634870731047],
            [121.36844717266962, 31.223589259469577],
            [121.3683369703702, 31.22357288521586],
            [121.36818168048123, 31.22356702202797],
            [121.36799863203731, 31.223650345174306],
            [121.3679220092673, 31.223661809788023],
            [121.3678508287189, 31.223653346102047],
            [121.36778170463441, 31.22357321830772],
            [121.36797550621509, 31.223268483552317],
            [121.36835368941013, 31.222693851400578],
            [121.36871416302648, 31.222123730555722],
            [121.36880815300225, 31.222798455036283],
            [121.36909799227067, 31.223099329218314],
            [121.36953991761533, 31.223320956822334],
            [121.37034136661049, 31.22302505909282],
            [121.37067411449158, 31.22255650203323],
            [121.37157669899358, 31.22281215057552],
            [121.37253796156301, 31.222748486757368],
            [121.37323424881458, 31.22242256533589],
            [121.37318578450555, 31.223195727404196],
            [121.37335632206907, 31.22378289767387],
            [121.37356296121234, 31.224017678332906],
            [121.37390557219459, 31.2243557351851],
            [121.37413408835326, 31.224513222969783],
            [121.37437097658523, 31.22470798527023],
            [121.37445642495237, 31.224799764415316],
            [121.3745129260555, 31.22482993117218],
            [121.37465580079842, 31.224942323141097],
            [121.37474967774519, 31.224988275669936],
            [121.37480400532374, 31.22502444228031],
            [121.3748413039254, 31.225029378864107],
            [121.374867456989, 31.225040575951496],
            [121.3747976124281, 31.225133475396447],
            [121.37467081606272, 31.225291429490994],
            [121.37421743028045, 31.22551943220998],
            [121.37324250668735, 31.225806014967276],
            [121.3722110515069, 31.22609383816655],
            [121.37156515236109, 31.226178841211947]
          ]
        ],
        "type": "Polygon"
      }
    },
    {
      "type": "Feature",
      "properties": {
        "use": 2
      },
      "geometry": {
        "coordinates": [
          [
            [121.37339226791647, 31.220679732624077],
            [121.37314225399399, 31.220378793292284],
            [121.37304479609111, 31.21983656816238],
            [121.37350358083236, 31.219722163323567],
            [121.37435933915503, 31.219495901169353],
            [121.37437747783855, 31.220195313855754],
            [121.37432230192422, 31.220507368687812],
            [121.37396089176258, 31.22072705850171],
            [121.37361014416712, 31.220762941606253],
            [121.37339226791647, 31.220679732624077]
          ]
        ],
        "type": "Polygon"
      }
    },
    {
      "type": "Feature",
      "properties": {
        "use": 2
      },
      "geometry": {
        "coordinates": [
          [
            [121.36497855098122, 31.222175143780504],
            [121.36466406524414, 31.222206725139714],
            [121.36454466162999, 31.222204137503333],
            [121.36448882278427, 31.222130043886096],
            [121.36449552795156, 31.22203763649568],
            [121.36461542060829, 31.221898910041],
            [121.36470679227412, 31.221805292290387],
            [121.36483041223681, 31.221677257881367],
            [121.36497014266135, 31.221540929748784],
            [121.36514365476938, 31.22138434705164],
            [121.36520227920258, 31.221337454325834],
            [121.36524203117267, 31.221353585052327],
            [121.3653350741883, 31.221434716252716],
            [121.36538622037449, 31.22153234973186],
            [121.36554416470352, 31.22158991082577],
            [121.36580718137611, 31.221597400281382],
            [121.36641709713058, 31.221565416491202],
            [121.36720425166516, 31.2215281950767],
            [121.36796880888113, 31.221565927886346],
            [121.36841192986012, 31.22153599407107],
            [121.3686490771795, 31.22158520195393],
            [121.36842204697328, 31.221766050669544],
            [121.36819776882083, 31.221999460447506],
            [121.3674681692658, 31.22208666530858],
            [121.36667937321471, 31.222115725462913],
            [121.36578217689089, 31.22213405948517],
            [121.36497855098122, 31.222175143780504]
          ]
        ],
        "type": "Polygon"
      }
    },
    {
      "type": "Feature",
      "properties": {
        "use": 2
      },
      "geometry": {
        "coordinates": [
          [
            [121.36570738498739, 31.228443621847873],
            [121.36373655338633, 31.22605916961807],
            [121.36334606038872, 31.22538454517185],
            [121.36390225052241, 31.225299284001885],
            [121.36436145618495, 31.22524334467596],
            [121.36539842405676, 31.225163984190743],
            [121.3659984133557, 31.225088632642986],
            [121.36649847671396, 31.224903539734385],
            [121.3671682903094, 31.22441616832829],
            [121.36769081790266, 31.223806689610612],
            [121.36838330505816, 31.225336046025888],
            [121.36886958513958, 31.22615673831895],
            [121.36927377301659, 31.226616148320986],
            [121.36975470146567, 31.226973725808776],
            [121.37027845381965, 31.227444072083003],
            [121.3702829515187, 31.228172006411235],
            [121.37004151643998, 31.228642263273713],
            [121.36959968664473, 31.22891401436594],
            [121.3690413894675, 31.228927361256908],
            [121.36872036734658, 31.228863378243773],
            [121.3683591632693, 31.22852835550914],
            [121.36767448363781, 31.22762958227267],
            [121.36696971508678, 31.226932423285874],
            [121.36675727454217, 31.226734692822745],
            [121.3665329890164, 31.226700800309786],
            [121.3662807104127, 31.226955651940784],
            [121.36616453157185, 31.22738497623383],
            [121.3661819696286, 31.22806917043839],
            [121.36620014554411, 31.228288425959683],
            [121.36619411388924, 31.22855600631206],
            [121.36607655960796, 31.22863258340734],
            [121.36593772786922, 31.228608025592436],
            [121.36570738498739, 31.228443621847873]
          ]
        ],
        "type": "Polygon"
      }
    },
    {
      "type": "Feature",
      "properties": {
        "use": 2
      },
      "geometry": {
        "coordinates": [
          [
            [121.36381410035614, 31.224797013323524],
            [121.36360968555607, 31.22392579278386],
            [121.36335318591509, 31.223746161320562],
            [121.36315685167159, 31.22356804794427],
            [121.36303015995583, 31.223247819825147],
            [121.36388977563519, 31.223315356395148],
            [121.36407276897356, 31.22357842972547],
            [121.36425990673666, 31.223910384634465],
            [121.36435181229126, 31.22443956172829],
            [121.36444842193583, 31.224714150086584],
            [121.36381410035614, 31.224797013323524]
          ]
        ],
        "type": "Polygon"
      }
    },
    {
      "type": "Feature",
      "properties": {
        "use": 2
      },
      "geometry": {
        "coordinates": [
          [
            [121.3575784491336, 31.227477638563755],
            [121.35763765439447, 31.226732234368967],
            [121.35773974160486, 31.226003363588205],
            [121.35780885545202, 31.225410562837247],
            [121.35791741720004, 31.22488452628002],
            [121.35854535099719, 31.224966251281543],
            [121.35835451459417, 31.226444539196706],
            [121.35884207951801, 31.226410087395777],
            [121.35923487888843, 31.226485878441665],
            [121.35958487578051, 31.22646475564096],
            [121.3601458231413, 31.226462340728673],
            [121.36055902860204, 31.226411099891052],
            [121.36091006452997, 31.226292437185272],
            [121.36125912385825, 31.226080328228463],
            [121.36156198634467, 31.225888179057563],
            [121.36201288635715, 31.22555077467534],
            [121.36191790785679, 31.225747219974643],
            [121.36171126673639, 31.22605923184949],
            [121.36160941414408, 31.226739587520072],
            [121.36153630521977, 31.22713810301545],
            [121.3613011869013, 31.22745548830912],
            [121.36090328998478, 31.227744248270398],
            [121.360235357894, 31.227820554458887],
            [121.359444043211, 31.22771523603491],
            [121.35872493726754, 31.227623002281845],
            [121.3575784491336, 31.227477638563755]
          ]
        ],
        "type": "Polygon"
      }
    },
    {
      "type": "Feature",
      "properties": {
        "use": 2
      },
      "geometry": {
        "coordinates": [
          [
            [121.36595031415624, 31.234439554076275],
            [121.36533525563294, 31.233167314459152],
            [121.36550476856792, 31.23220082162777],
            [121.36639584708911, 31.23237562974178],
            [121.3672045412984, 31.23266244112223],
            [121.36710375468397, 31.234352308791102],
            [121.3667629251425, 31.2351209012742],
            [121.36595031415624, 31.234439554076275]
          ]
        ],
        "type": "Polygon"
      }
    },
    {
      "type": "Feature",
      "properties": {
        "use": 2
      },
      "geometry": {
        "coordinates": [
          [
            [121.36083219579706, 31.236176778374855],
            [121.36027654245129, 31.235679480546167],
            [121.36064352666506, 31.23566019273479],
            [121.36115393787804, 31.23558663726486],
            [121.36153495161795, 31.23542640050794],
            [121.36202253808187, 31.23538813360136],
            [121.36295873758849, 31.235049358489718],
            [121.36352170041417, 31.234584986802105],
            [121.36401572446692, 31.233859260329325],
            [121.36437188126044, 31.234395145720796],
            [121.36445846790247, 31.23465759818336],
            [121.36470484055721, 31.2352925497039],
            [121.36487029802221, 31.23576031206502],
            [121.36498403502071, 31.236181162479596],
            [121.3641786170073, 31.236413164822423],
            [121.36331991918735, 31.23652454319496],
            [121.36235927631333, 31.23665965087814],
            [121.36171997648336, 31.236637979063786],
            [121.36083219579706, 31.236176778374855]
          ]
        ],
        "type": "Polygon"
      }
    },
    {
      "type": "Feature",
      "properties": {
        "use": 3
      },
      "geometry": {
        "coordinates": [
          [
            [121.35059127123594, 31.23796316640157],
            [121.35078067957483, 31.23762801213317],
            [121.35136408469447, 31.23651840983581],
            [121.35150969951343, 31.23669522959915],
            [121.35161150278225, 31.23690693263154],
            [121.35167127801606, 31.237017824765772],
            [121.35180636465839, 31.237293586651063],
            [121.35175937610668, 31.23742077711293],
            [121.35170227228764, 31.237553371887557],
            [121.35149690933343, 31.237709205799902],
            [121.351405031333, 31.237765323332255],
            [121.3511491255681, 31.237843128208937],
            [121.35089226822595, 31.237934441303096],
            [121.35059127123594, 31.23796316640157]
          ]
        ],
        "type": "Polygon"
      }
    },
    {
      "type": "Feature",
      "properties": {
        "use": 2
      },
      "geometry": {
        "coordinates": [
          [
            [121.3582853583033, 31.235244362941884],
            [121.35796348287252, 31.235102720374556],
            [121.35773210630315, 31.234718745883036],
            [121.35760211347497, 31.234231557800925],
            [121.35724594454075, 31.23208501801767],
            [121.35761430588263, 31.231549380345115],
            [121.35822206008874, 31.230864212839236],
            [121.35875161450628, 31.23112938872538],
            [121.3589511721047, 31.232205104076456],
            [121.3593959882948, 31.233729937561378],
            [121.35953814413, 31.234900327739936],
            [121.35940656703694, 31.235149619818394],
            [121.35914240963288, 31.235317445193118],
            [121.35885429257144, 31.235366739867374],
            [121.35856704796262, 31.23531583807791],
            [121.3582853583033, 31.235244362941884]
          ]
        ],
        "type": "Polygon"
      }
    },
    {
      "type": "Feature",
      "properties": {
        "use": 2
      },
      "geometry": {
        "coordinates": [
          [
            [121.3564022479606, 31.232137333319812],
            [121.35571407362045, 31.2319426848087],
            [121.35531225148677, 31.231734897459148],
            [121.35509240537287, 31.23154741627348],
            [121.35498774061648, 31.231356056430315],
            [121.35544197915283, 31.230459043836035],
            [121.35589219227631, 31.22956535230533],
            [121.35656618322713, 31.228745604999574],
            [121.35745900389861, 31.228147102721778],
            [121.35830367276301, 31.228092836996183],
            [121.35878449772991, 31.228247226977814],
            [121.36002443035042, 31.22845145063937],
            [121.36058758727643, 31.228397208801653],
            [121.35884950190285, 31.230149663139798],
            [121.35851820308791, 31.230503385197323],
            [121.35827187564863, 31.230799916985774],
            [121.35785892458415, 31.231306760182676],
            [121.35749879916386, 31.231660980238054],
            [121.35727955828088, 31.232065561332107],
            [121.35692638291147, 31.23225554757542],
            [121.3564022479606, 31.232137333319812]
          ]
        ],
        "type": "Polygon"
      }
    },
    {
      "type": "Feature",
      "properties": {
        "use": 3
      },
      "geometry": {
        "coordinates": [
          [
            [121.3502438576001, 31.237365538528934],
            [121.3501234604421, 31.23732665154426],
            [121.35001251482677, 31.2372092279198],
            [121.34988764363658, 31.236832727240127],
            [121.34983847483454, 31.236272238231308],
            [121.34998458473342, 31.23590623862887],
            [121.35021763865211, 31.235508609131273],
            [121.35045015487077, 31.23519850554429],
            [121.35096168124772, 31.234279959514737],
            [121.3515145079557, 31.233390113595334],
            [121.35173949457544, 31.23309449687472],
            [121.35190172300673, 31.23279261465656],
            [121.35245026243996, 31.2318126612917],
            [121.35277268805362, 31.23163246517113],
            [121.35290453073048, 31.23151623068253],
            [121.35304232132518, 31.231441519065385],
            [121.35332795770688, 31.231435604762417],
            [121.35372826502038, 31.231513538056447],
            [121.35408428646815, 31.231768638085228],
            [121.35329158356052, 31.23290818863724],
            [121.35220219538877, 31.234248360734895],
            [121.35062008373319, 31.236636140447004],
            [121.3502438576001, 31.237365538528934]
          ]
        ],
        "type": "Polygon"
      }
    },
    {
      "type": "Feature",
      "properties": {
        "use": 2
      },
      "geometry": {
        "coordinates": [
          [
            [121.34414708750484, 31.24152234849241],
            [121.34474395584374, 31.241425689302858],
            [121.34557604838528, 31.241279275653156],
            [121.3467729777459, 31.241065752054325],
            [121.34784877383339, 31.240902717435503],
            [121.34834259593902, 31.240699883486855],
            [121.34917663513659, 31.23998554369173],
            [121.3498379117541, 31.23942614762423],
            [121.35014803446012, 31.238880251116342],
            [121.35045742677738, 31.238213848064262],
            [121.35071723644496, 31.238685101916566],
            [121.3509051586311, 31.23905799143543],
            [121.35093148319059, 31.23954720467129],
            [121.35079172722754, 31.239995217510042],
            [121.35043991493006, 31.240737406903634],
            [121.34986263763847, 31.241426574702743],
            [121.34932276611374, 31.241859453831026],
            [121.34882605112705, 31.242132509162772],
            [121.34799783059418, 31.24239994270357],
            [121.34709458638952, 31.242592148401584],
            [121.34609771063845, 31.242638697608044],
            [121.34553937070041, 31.24259896854538],
            [121.34524836195789, 31.242522370772235],
            [121.34488318866863, 31.242402980003803],
            [121.34456546380068, 31.242168006545015],
            [121.34414708750484, 31.24152234849241]
          ]
        ],
        "type": "Polygon"
      }
    }
  ]
}
