{
  "type": "FeatureCollection",
  "features": [
    {
      "type": "Feature",
      "properties": {
        "use": 2
      },
      "geometry": {
        "coordinates": [
          [
            [121.42883682824873, 31.252291989303174],
            [121.4281961946219, 31.251577454743945],
            [121.42782785737438, 31.25060426429995],
            [121.42816798018401, 31.247192398086327],
            [121.42894602793342, 31.247344106146883],
            [121.42916390546901, 31.24748098544356],
            [121.42931457686518, 31.247962605721213],
            [121.42898697781379, 31.25072132091303],
            [121.42902584040291, 31.251088905775468],
            [121.42921597875812, 31.251370274818584],
            [121.42959722740443, 31.251522627370527],
            [121.4299252668351, 31.251555637612302],
            [121.43025330626577, 31.251517899098758],
            [121.43100041776314, 31.25120187607119],
            [121.43181299512224, 31.250598852646945],
            [121.43261426477099, 31.250044890567573],
            [121.43288649828224, 31.25000607825485],
            [121.43308275649964, 31.250072426588037],
            [121.43329276113892, 31.250457687257835],
            [121.43346107620356, 31.25071063002813],
            [121.4335715053299, 31.25095120104696],
            [121.43414344078137, 31.252411426798556],
            [121.43455455903674, 31.253585064021294],
            [121.43477629604321, 31.254283961629667],
            [121.4348301860062, 31.254453405397616],
            [121.4348840759692, 31.254622849165564],
            [121.43495032023941, 31.254623311873228],
            [121.43509016102394, 31.254796571308027],
            [121.43515496024702, 31.254852810987767],
            [121.43523355683539, 31.254915790621652],
            [121.4347595780338, 31.254954169431937],
            [121.4345170144989, 31.25502876087969],
            [121.43423990283969, 31.255215833949414],
            [121.4340521688378, 31.255415470296093],
            [121.43401773754894, 31.255428417947545],
            [121.43399180972702, 31.255426827003518],
            [121.43395994798007, 31.255413061919537],
            [121.43394721903522, 31.255401114160243],
            [121.43327360511728, 31.2542327359364],
            [121.43219827192948, 31.252362128813473],
            [121.43150011796016, 31.252314128746026],
            [121.43047620963382, 31.252479090296625],
            [121.42904157765548, 31.2523503354346],
            [121.42883682824873, 31.252291989303174]
          ]
        ],
        "type": "Polygon"
      }
    },
    {
      "type": "Feature",
      "properties": {
        "use": 2
      },
      "geometry": {
        "coordinates": [
          [
            [121.46728077578575, 31.24154020943206],
            [121.46712501154826, 31.241468823694447],
            [121.4664189726854, 31.241171360398056],
            [121.4660309389227, 31.241036034484708],
            [121.46591001451912, 31.241000735808775],
            [121.4658983675896, 31.240974478882436],
            [121.46582986206553, 31.240887374576964],
            [121.46577901296064, 31.240734853606213],
            [121.4664375999169, 31.24081001437395],
            [121.46659464129041, 31.240850346888116],
            [121.46674110742026, 31.240887665469515],
            [121.46691066189294, 31.24092312162489],
            [121.46705508257062, 31.240953659221308],
            [121.46721007848771, 31.241011322098693],
            [121.46747071920464, 31.241102536497834],
            [121.46747368801914, 31.241164739724468],
            [121.46741662114763, 31.241324273941835],
            [121.46736103624592, 31.241426213866436],
            [121.46728077578575, 31.24154020943206]
          ]
        ],
        "type": "Polygon"
      }
    },
    {
      "type": "Feature",
      "properties": {
        "use": 2
      },
      "geometry": {
        "coordinates": [
          [
            [121.46328234442814, 31.24150005865772],
            [121.46321666626955, 31.24147817335283],
            [121.46316192545311, 31.24139550453674],
            [121.4631099189721, 31.241323355945696],
            [121.4631125992014, 31.241241856031422],
            [121.46318139066435, 31.241152590150833],
            [121.46335408687503, 31.241077351250667],
            [121.46371593930496, 31.240956015254355],
            [121.46408196095382, 31.240835651246158],
            [121.46429651135153, 31.240768455633138],
            [121.46454934244639, 31.24071528708454],
            [121.46471233304831, 31.24070379463128],
            [121.46491360434749, 31.24069230217802],
            [121.46496149582677, 31.240701225228484],
            [121.46498204395095, 31.240798986411065],
            [121.46495478181151, 31.240912684229528],
            [121.46494335717551, 31.240951478452004],
            [121.46468337887848, 31.240981870367577],
            [121.46449303142293, 31.24103304813889],
            [121.4642283696146, 31.241110080961306],
            [121.46394118339691, 31.241201557355552],
            [121.46380603694246, 31.241225630076357],
            [121.46357516174646, 31.241345993587643],
            [121.46337244206393, 31.24145672788248],
            [121.46328234442814, 31.24150005865772]
          ]
        ],
        "type": "Polygon"
      }
    },
    {
      "type": "Feature",
      "properties": {
        "use": 2
      },
      "geometry": {
        "coordinates": [
          [
            [121.46007871036181, 31.242908245008365],
            [121.4599904226936, 31.242864944495228],
            [121.4599584460615, 31.24282164398209],
            [121.45988323059015, 31.242600237890144],
            [121.45992425716861, 31.242277787707906],
            [121.4614672427989, 31.242025321572086],
            [121.46144780011736, 31.24211483421761],
            [121.46142775088094, 31.24223519739995],
            [121.46141402737845, 31.242426504471695],
            [121.46137595459604, 31.242551303520486],
            [121.46107450305625, 31.24265339716046],
            [121.46072237158381, 31.242745861805645],
            [121.46007871036181, 31.242908245008365]
          ]
        ],
        "type": "Polygon"
      }
    },
    {
      "type": "Feature",
      "properties": {
        "use": 2
      },
      "geometry": {
        "coordinates": [
          [
            [121.45598122948707, 31.241637791827642],
            [121.45563151055734, 31.241258183386293],
            [121.45521217902564, 31.240715713683244],
            [121.45473873809215, 31.24028306882485],
            [121.45439467935148, 31.24012538957369],
            [121.45456763720696, 31.239885181184988],
            [121.45478737247464, 31.239818283763938],
            [121.45513760259823, 31.239935770152897],
            [121.45528513060299, 31.24010658298404],
            [121.45581825185911, 31.240680400311362],
            [121.4561568355781, 31.241165972205096],
            [121.45629605515592, 31.241332101435695],
            [121.45637290485331, 31.241504896358933],
            [121.45645267622746, 31.24176374898562],
            [121.45645747885439, 31.241935249443486],
            [121.4563930486441, 31.24199880620771],
            [121.45632676482637, 31.242022493417412],
            [121.45626048100866, 31.242000870067187],
            [121.45598122948707, 31.241637791827642]
          ]
        ],
        "type": "Polygon"
      }
    },
    {
      "type": "Feature",
      "properties": {
        "use": 2
      },
      "geometry": {
        "coordinates": [
          [
            [121.45468309398024, 31.244418028037956],
            [121.45459192134501, 31.24380832097785],
            [121.45473580768635, 31.24322541027115],
            [121.4551735786618, 31.243212450606656],
            [121.45537629066308, 31.243400459917126],
            [121.45550409636715, 31.243781351512787],
            [121.45555354907657, 31.244068458256777],
            [121.45561327800255, 31.24443994812591],
            [121.45529691257087, 31.244623869274633],
            [121.4549116502834, 31.244641528495627],
            [121.45468309398024, 31.244418028037956]
          ]
        ],
        "type": "Polygon"
      }
    },
    {
      "type": "Feature",
      "properties": {
        "use": 2
      },
      "geometry": {
        "coordinates": [
          [
            [121.44842999559165, 31.24361557019995],
            [121.44917664743781, 31.242963017379694],
            [121.44948885574036, 31.242628994910298],
            [121.44974672020493, 31.242310460050817],
            [121.4500680626042, 31.241947997552295],
            [121.4503622330846, 31.241593278258136],
            [121.45065784912515, 31.241263353354995],
            [121.45130045713267, 31.240764164903226],
            [121.45169867145086, 31.240480438274034],
            [121.45186748520314, 31.241002208329633],
            [121.45213592932407, 31.2414233065918],
            [121.45250925524653, 31.241766245736308],
            [121.45270950416784, 31.242080977039418],
            [121.45297315423232, 31.242256318879868],
            [121.45315338560407, 31.2423936235044],
            [121.45338796081384, 31.242747754855294],
            [121.45386616853841, 31.243099802128697],
            [121.4541106390196, 31.243259686479497],
            [121.45413773414833, 31.243388595817464],
            [121.45388885019923, 31.24381417233701],
            [121.45309242156424, 31.244594390976445],
            [121.45252865515874, 31.24481607361613],
            [121.45216365539329, 31.244856016075037],
            [121.45194357252683, 31.244803035072565],
            [121.45169867145086, 31.244452533521113],
            [121.45148297202843, 31.244097888951842],
            [121.45085246602582, 31.243757428911934],
            [121.4501555909685, 31.24367231371022],
            [121.44948124399366, 31.243611599910622],
            [121.4489760179294, 31.2436735496113],
            [121.44842999559165, 31.24361557019995]
          ]
        ],
        "type": "Polygon"
      }
    },
    {
      "type": "Feature",
      "properties": {
        "use": 2
      },
      "geometry": {
        "coordinates": [
          [
            [121.44340942803353, 31.246354304606882],
            [121.4430558398362, 31.24621502618129],
            [121.44279561593356, 31.246103780146925],
            [121.44242333243687, 31.246006314645626],
            [121.44199156486258, 31.245863754514247],
            [121.44155979728828, 31.245721194382867],
            [121.44074643871221, 31.245452924869554],
            [121.44027624939076, 31.245289438780077],
            [121.4399289523312, 31.245121052011015],
            [121.43971250367787, 31.244934020295148],
            [121.44076407282088, 31.244196404977053],
            [121.44179383389621, 31.243440143789954],
            [121.44232600084152, 31.24297855973873],
            [121.44301082425744, 31.242479684952983],
            [121.44390016336877, 31.241839373635514],
            [121.44553841962386, 31.241999451871465],
            [121.44647456605708, 31.24195943233829],
            [121.44858089552974, 31.240998958443],
            [121.44975107856908, 31.24031861685812],
            [121.45059361035845, 31.239718311390746],
            [121.45110849089616, 31.24039865729948],
            [121.44988174430011, 31.241087550768682],
            [121.44926497327424, 31.24204633615004],
            [121.44833460660493, 31.24292561032415],
            [121.44739888119454, 31.243575791004076],
            [121.44679774056016, 31.243894855635588],
            [121.44635249157096, 31.2437442013533],
            [121.44596483873038, 31.243508432105788],
            [121.44552413033264, 31.243184879469375],
            [121.44501372021854, 31.24288922668698],
            [121.44466722562686, 31.24262160270733],
            [121.44435616074327, 31.242442617038293],
            [121.4441270920326, 31.24242647493611],
            [121.44394704750118, 31.242557034345808],
            [121.44375960956953, 31.243250698167685],
            [121.4436579639476, 31.24389197060782],
            [121.44366317407795, 31.244498722495734],
            [121.44354582376025, 31.24521025885383],
            [121.44373500283618, 31.24593945632624],
            [121.44355995939004, 31.246125923974027],
            [121.44340942803353, 31.246354304606882]
          ]
        ],
        "type": "Polygon"
      }
    },
    {
      "type": "Feature",
      "properties": {
        "use": 2
      },
      "geometry": {
        "coordinates": [
          [
            [121.44638042915022, 31.250476503649722],
            [121.44613539125191, 31.249778050573752],
            [121.44564269742636, 31.248752434852832],
            [121.44472040186866, 31.247779852059068],
            [121.44521152487647, 31.24766262895335],
            [121.44676668314594, 31.247438607838504],
            [121.44730442650456, 31.247495485160925],
            [121.44761085469969, 31.24774152377951],
            [121.4478353527073, 31.247908918338375],
            [121.44794922172599, 31.24820528594246],
            [121.44804003090269, 31.248530215750307],
            [121.44810066853631, 31.249104490955347],
            [121.44801074300386, 31.249713872996892],
            [121.44760138661582, 31.25005827865614],
            [121.44727248767327, 31.250213528258627],
            [121.4467560581441, 31.25043959362082],
            [121.44638042915022, 31.250476503649722]
          ]
        ],
        "type": "Polygon"
      }
    },
    {
      "type": "Feature",
      "properties": {
        "use": 2
      },
      "geometry": {
        "coordinates": [
          [
            [121.44331852999466, 31.25271120297552],
            [121.44317013330237, 31.25264100356054],
            [121.44303365389169, 31.252601368062102],
            [121.44300160145076, 31.25252682091297],
            [121.44297584818838, 31.252469005546757],
            [121.44298033836179, 31.252425002067685],
            [121.44298482853526, 31.252356564263515],
            [121.44301095797618, 31.252175706799164],
            [121.44336898200376, 31.252280197707762],
            [121.44354705965276, 31.252373700431377],
            [121.44400898933588, 31.25260512938099],
            [121.44425602081836, 31.25270710869246],
            [121.44440343912498, 31.252781617747786],
            [121.44470941796726, 31.25298026730465],
            [121.44518140508046, 31.253172781486057],
            [121.44569510268076, 31.253258322886296],
            [121.44592292082429, 31.253221471767123],
            [121.44607327663985, 31.253159150957153],
            [121.44621767381464, 31.253117205934426],
            [121.44636802963032, 31.252947912183757],
            [121.44645512797157, 31.252693395009516],
            [121.44644688806085, 31.2522554949699],
            [121.44664368511144, 31.252498194145716],
            [121.44663788837653, 31.25268995353592],
            [121.44659566695839, 31.25318552568028],
            [121.44641043816586, 31.25354865529836],
            [121.44606416416676, 31.25379014682315],
            [121.44591486173012, 31.253977113284186],
            [121.44571789016766, 31.25403163834794],
            [121.4455054984654, 31.254116135143605],
            [121.44531694132621, 31.25399687619897],
            [121.44506179206309, 31.253720036663168],
            [121.44493421743073, 31.253533075158757],
            [121.44442391890584, 31.253283792577093],
            [121.44379376212305, 31.25293637043258],
            [121.44331852999466, 31.25271120297552]
          ]
        ],
        "type": "Polygon"
      }
    },
    {
      "type": "Feature",
      "properties": {
        "use": 2
      },
      "geometry": {
        "coordinates": [
          [
            [121.43569165101854, 31.254716864772007],
            [121.43537782833766, 31.254515207100752],
            [121.43529150427065, 31.254281519702914],
            [121.4352298074952, 31.254025667055352],
            [121.43537705432834, 31.253922297122894],
            [121.43536344096191, 31.253740346822],
            [121.43526401481762, 31.253255815626673],
            [121.43500933460535, 31.252958329988516],
            [121.43502611025193, 31.25281528318861],
            [121.4350773559412, 31.252750817629373],
            [121.43499253468607, 31.25250204469497],
            [121.43486691435656, 31.252498366831166],
            [121.43480697669543, 31.25232217502176],
            [121.43470107897713, 31.252263855666627],
            [121.43441387664262, 31.251698621199566],
            [121.43427382393537, 31.251295683959313],
            [121.43476251384675, 31.25122337275357],
            [121.43574091795, 31.251092160354318],
            [121.43631705631554, 31.2510525328519],
            [121.43716094266176, 31.250946795043703],
            [121.43750441423995, 31.250897165957504],
            [121.437797564184, 31.250884674778263],
            [121.43824300130711, 31.25086129885632],
            [121.43804298061923, 31.251346966793335],
            [121.43779222879286, 31.25157679790815],
            [121.43759825078752, 31.251749268404907],
            [121.43728658326398, 31.252257142470057],
            [121.43716295045567, 31.252908815875614],
            [121.43707228044127, 31.25349513579063],
            [121.43697236786636, 31.25365323477999],
            [121.43690692533414, 31.253781866054695],
            [121.43666219166329, 31.25423455127951],
            [121.43640326921653, 31.254512354855002],
            [121.43615583678405, 31.254657554772635],
            [121.4359036363764, 31.254714221541313],
            [121.43569165101854, 31.254716864772007]
          ]
        ],
        "type": "Polygon"
      }
    },
    {
      "type": "Feature",
      "properties": {
        "use": 2
      },
      "geometry": {
        "coordinates": [
          [
            [121.42968617252035, 31.25106525037461],
            [121.42951723493039, 31.25097541535147],
            [121.42944983218615, 31.25088558032833],
            [121.42946640450418, 31.250064926125177],
            [121.42960611763726, 31.248527093549725],
            [121.42966670046661, 31.24809285257129],
            [121.42962574844677, 31.24768272409935],
            [121.43006018532134, 31.247765633197858],
            [121.43117789038871, 31.248303135260343],
            [121.43212095403919, 31.24879584279624],
            [121.4327671272818, 31.24927361734538],
            [121.43293539267127, 31.249513316748775],
            [121.43277659427892, 31.249516421028375],
            [121.43260995000696, 31.249587155579974],
            [121.43235162079449, 31.249666928969397],
            [121.43212149570672, 31.249814216331373],
            [121.431843423607, 31.24998561564682],
            [121.4316048372819, 31.250123258044],
            [121.43091082910502, 31.250593233424993],
            [121.43053735797162, 31.250806383655096],
            [121.43013004188862, 31.250990599677237],
            [121.42968617252035, 31.25106525037461]
          ]
        ],
        "type": "Polygon"
      }
    },
    {
      "type": "Feature",
      "properties": {
        "use": 2
      },
      "geometry": {
        "coordinates": [
          [
            [121.43940021383452, 31.251277099092178],
            [121.43951236734345, 31.25037891181847],
            [121.43971216191446, 31.24949434703388],
            [121.44000817525813, 31.24778651939002],
            [121.44076890237818, 31.247831213905968],
            [121.44152962949823, 31.247712431034756],
            [121.44226214377812, 31.24767865280947],
            [121.44309026648926, 31.247644874584182],
            [121.44334437857584, 31.24789494413059],
            [121.44359849066242, 31.248145013676996],
            [121.44397923692725, 31.248590660487807],
            [121.44425515141225, 31.248637781740427],
            [121.4446904132779, 31.24872577198674],
            [121.44503803408469, 31.2488739470255],
            [121.44546085432478, 31.24946888177344],
            [121.44569791310835, 31.249903605021828],
            [121.44586424671502, 31.25041325147602],
            [121.44593497189186, 31.251647510849565],
            [121.44585595229688, 31.2523230445386],
            [121.44581294938874, 31.25243799657062],
            [121.44565840331086, 31.252525703702844],
            [121.4454592712959, 31.252580193424052],
            [121.44515656347573, 31.252484836407547],
            [121.44472638945444, 31.25228012728327],
            [121.44416047320806, 31.252052095857444],
            [121.44405825652223, 31.251879377820885],
            [121.44365600092112, 31.251766790211292],
            [121.44148592061077, 31.251479687235772],
            [121.44043502203209, 31.25136479276796],
            [121.43940021383452, 31.251277099092178]
          ]
        ],
        "type": "Polygon"
      }
    },
    {
      "type": "Feature",
      "properties": {
        "use": 2
      },
      "geometry": {
        "coordinates": [
          [
            [121.4236428973797, 31.243873051885288],
            [121.42306905700252, 31.243788200536287],
            [121.4226423927758, 31.24373131160246],
            [121.42238888077094, 31.243541069124525],
            [121.42231821649602, 31.24330309556896],
            [121.4225109261206, 31.24311352289037],
            [121.42289880414774, 31.243125215688245],
            [121.4234964552171, 31.24316691959679],
            [121.4238667572981, 31.243109737380365],
            [121.4240378587437, 31.242976861182782],
            [121.4245220388386, 31.24206764077389],
            [121.42494080731103, 31.24097666113596],
            [121.42520022574757, 31.240486323226165],
            [121.42594636367073, 31.240941569528744],
            [121.42604786527335, 31.2411420087099],
            [121.42601685407647, 31.24147462788963],
            [121.42557477406916, 31.24259085320442],
            [121.42520732122802, 31.243519396985164],
            [121.42470267231968, 31.243819653254114],
            [121.42422255276858, 31.24388921906676],
            [121.4236428973797, 31.243873051885288]
          ]
        ],
        "type": "Polygon"
      }
    },
    {
      "type": "Feature",
      "properties": {
        "use": 3
      },
      "geometry": {
        "coordinates": [
          [
            [121.42133140120978, 31.246797848952994],
            [121.4214467586184, 31.246008855550997],
            [121.4241230505209, 31.246659775583353],
            [121.42382312125574, 31.24731069112903],
            [121.42204661714862, 31.24695564684191],
            [121.42133140120978, 31.246797848952994]
          ]
        ],
        "type": "Polygon"
      }
    },
    {
      "type": "Feature",
      "properties": {
        "use": 2
      },
      "geometry": {
        "coordinates": [
          [
            [121.42606574814238, 31.248626115183384],
            [121.42535979839982, 31.248314590755015],
            [121.42512608564107, 31.248147653677883],
            [121.42493262571435, 31.247929096749445],
            [121.42489287407398, 31.247682070807727],
            [121.42492021049037, 31.247297390915108],
            [121.42500171854573, 31.24668862748858],
            [121.4255406426272, 31.24679495400413],
            [121.42602589626324, 31.246861131118123],
            [121.42657703509025, 31.24692490860474],
            [121.42670124823398, 31.24702325390773],
            [121.4266644500415, 31.247201897874056],
            [121.42663110649062, 31.2476050704948],
            [121.42659515673071, 31.248141745620124],
            [121.4264396513385, 31.24839000879047],
            [121.42628414594225, 31.248569445512786],
            [121.42606574814238, 31.248626115183384]
          ]
        ],
        "type": "Polygon"
      }
    },
    {
      "type": "Feature",
      "properties": {
        "use": 2
      },
      "geometry": {
        "coordinates": [
          [
            [121.42364104040968, 31.240646156441457],
            [121.42349225911215, 31.240389612886087],
            [121.42348712872257, 31.240097977480367],
            [121.42370260508511, 31.239549798519278],
            [121.424744611851, 31.240255721243983],
            [121.42400813210546, 31.240643943631888],
            [121.42364104040968, 31.240646156441457]
          ]
        ],
        "type": "Polygon"
      }
    },
    {
      "type": "Feature",
      "properties": {
        "use": 2
      },
      "geometry": {
        "coordinates": [
          [
            [121.42999232257677, 31.24518558652332],
            [121.42907763054433, 31.245425683520374],
            [121.42834770820156, 31.245507810815653],
            [121.42724842698004, 31.245396390331358],
            [121.426555639073, 31.245190188120347],
            [121.42573788372314, 31.24488113389961],
            [121.42572220633372, 31.24436108139855],
            [121.42579880534771, 31.243405588945038],
            [121.42666883102663, 31.241143042896496],
            [121.42622341463283, 31.24055715265291],
            [121.42498053486807, 31.239857528050223],
            [121.42431696971916, 31.239434450928194],
            [121.42392572982232, 31.23913210603368],
            [121.42329402212295, 31.238768244864538],
            [121.42201680271131, 31.23828365087813],
            [121.42159793670095, 31.2375104648048],
            [121.421772778086, 31.23583758791554],
            [121.4214457953749, 31.233719357913785],
            [121.4200572771644, 31.230900347445754],
            [121.42135809710425, 31.23112381949636],
            [121.4231054998786, 31.23112381949636],
            [121.42444174905881, 31.23121171204039],
            [121.42478973504221, 31.231283364464826],
            [121.42486828439095, 31.231585407034366],
            [121.42509274224966, 31.232823060858166],
            [121.42564094702675, 31.234785939597714],
            [121.42663456820856, 31.236547879451365],
            [121.42773097779212, 31.238012660415052],
            [121.42845049658115, 31.239682483008963],
            [121.42834770818325, 31.24187957302813],
            [121.42880469320141, 31.242575880788245],
            [121.42988989515885, 31.243082619404532],
            [121.43038401461354, 31.243614197309654],
            [121.4307118413488, 31.244603893674494],
            [121.42999232257677, 31.24518558652332]
          ]
        ],
        "type": "Polygon"
      }
    },
    {
      "type": "Feature",
      "properties": {
        "use": 2
      },
      "geometry": {
        "coordinates": [
          [
            [121.4210861833999, 31.23813320415256],
            [121.42057071306974, 31.238047082518808],
            [121.41991304402683, 31.237798850278118],
            [121.41864510551568, 31.237302385344634],
            [121.4175075158235, 31.236917369832796],
            [121.41743641646889, 31.235782577167072],
            [121.4174127166799, 31.23420195037457],
            [121.41919020057719, 31.23069610645814],
            [121.41975899542416, 31.23132433080667],
            [121.42030409048573, 31.23217546681049],
            [121.42054108833833, 31.233269773263117],
            [121.42096768447448, 31.23448565445692],
            [121.42127578168163, 31.23551914116902],
            [121.4210861833999, 31.23813320415256]
          ]
        ],
        "type": "Polygon"
      }
    },
    {
      "type": "Feature",
      "properties": {
        "use": 2
      },
      "geometry": {
        "coordinates": [
          [
            [121.40902818471164, 31.224852463795827],
            [121.40920463898999, 31.223169411290357],
            [121.40995117631519, 31.223343521560338],
            [121.40982901566099, 31.224631927587836],
            [121.40976114863287, 31.22511942799106],
            [121.40902818471164, 31.224852463795827]
          ]
        ],
        "type": "Polygon"
      }
    },
    {
      "type": "Feature",
      "properties": {
        "use": 2
      },
      "geometry": {
        "coordinates": [
          [
            [121.41247884345665, 31.22973228836281],
            [121.41385345754583, 31.228450624390938],
            [121.41456720407888, 31.227808132208143],
            [121.4149955376472, 31.227468553773015],
            [121.415481039457, 31.227269520892477],
            [121.41588056344, 31.227355073725917],
            [121.41633725566449, 31.22767282699617],
            [121.41677332239036, 31.228074665533782],
            [121.41695290798756, 31.22825892910437],
            [121.41728072555051, 31.22868335877797],
            [121.41793948914652, 31.22954461235428],
            [121.41875618196019, 31.230321842669127],
            [121.41788927463494, 31.231241795529],
            [121.41737389664672, 31.230991391843503],
            [121.41714097258873, 31.23074991547639],
            [121.41676645666485, 31.23054879725715],
            [121.41616845614072, 31.230307992233406],
            [121.41559060994697, 31.230107106234293],
            [121.41512603724595, 31.230099938674783],
            [121.41437700539961, 31.230295651591376],
            [121.41420862635275, 31.230348615549495],
            [121.41404024730588, 31.230288577280803],
            [121.4139662628371, 31.23016800185701],
            [121.41404330968902, 31.229982853636912],
            [121.41451382297373, 31.229232692158774],
            [121.4146958326221, 31.228765781736797],
            [121.41474281166381, 31.228567884408456],
            [121.41443109131478, 31.228595995557484],
            [121.4132397554352, 31.229487369597706],
            [121.41263430397731, 31.2298433424302],
            [121.41253074462702, 31.229838011579034],
            [121.41247884345665, 31.22973228836281]
          ]
        ],
        "type": "Polygon"
      }
    },
    {
      "type": "Feature",
      "properties": {
        "use": 3
      },
      "geometry": {
        "coordinates": [
          [
            [121.41021799571064, 31.225320473168352],
            [121.41053915088628, 31.224418109498686],
            [121.41136497847998, 31.223358802023725],
            [121.41157143537794, 31.222789909777063],
            [121.41253490090315, 31.223025313880214],
            [121.41330740039837, 31.22333035379826],
            [121.41394352539265, 31.223479791573162],
            [121.41464150395598, 31.22360807191268],
            [121.41651559030134, 31.223923481926548],
            [121.41733407027817, 31.2241115923527],
            [121.41695807758731, 31.224665258858693],
            [121.41680394658397, 31.225045995200233],
            [121.41629258574022, 31.225191748358867],
            [121.41545038599753, 31.22530336611137],
            [121.41412729993033, 31.225273992743965],
            [121.41236930007494, 31.225309343846817],
            [121.41095947862712, 31.225652115583266],
            [121.41021799571064, 31.225320473168352]
          ]
        ],
        "type": "Polygon"
      }
    },
    {
      "type": "Feature",
      "properties": {
        "use": 2
      },
      "geometry": {
        "coordinates": [
          [
            [121.4040715672769, 31.22383264868492],
            [121.40472450492916, 31.222227353530656],
            [121.4048877393418, 31.221878372715935],
            [121.4057039114083, 31.22194816898184],
            [121.4061528060443, 31.2216864327185],
            [121.40680574369662, 31.221738780028872],
            [121.4074790856506, 31.22194816898184],
            [121.40760151145975, 31.222227353530656],
            [121.40807081039753, 31.222419292429706],
            [121.40780555447753, 31.224303762739993],
            [121.40584674151927, 31.22409437900525],
            [121.4040715672769, 31.22383264868492]
          ]
        ],
        "type": "Polygon"
      }
    },
    {
      "type": "Feature",
      "properties": {
        "use": 2
      },
      "geometry": {
        "coordinates": [
          [
            [121.40800959749379, 31.222872964642207],
            [121.40805040609575, 31.222558884111763],
            [121.40909102548028, 31.222698475587023],
            [121.4089685996696, 31.22304745337459],
            [121.40800959749379, 31.222872964642207]
          ]
        ],
        "type": "Polygon"
      }
    },
    {
      "type": "Feature",
      "properties": {
        "use": 2
      },
      "geometry": {
        "coordinates": [
          [
            [121.40696476834671, 31.23321864498007],
            [121.40674307315146, 31.23297699639798],
            [121.4065889486223, 31.232582685207348],
            [121.40642405813662, 31.232288949686208],
            [121.40641031726273, 31.2318424699437],
            [121.40643779901069, 31.23163097880351],
            [121.40665765299224, 31.231278492516765],
            [121.40691872959565, 31.230749760622018],
            [121.40715232445115, 31.230550016692263],
            [121.40730373404796, 31.23062541989055],
            [121.40731301254874, 31.230891805738636],
            [121.40735813069216, 31.23126423876826],
            [121.40745400994132, 31.231567223801036],
            [121.40767591823175, 31.232415385331606],
            [121.40767447766024, 31.23302916145211],
            [121.40753706892048, 31.23335814259748],
            [121.40722102882103, 31.23333464398293],
            [121.40696476834671, 31.23321864498007]
          ]
        ],
        "type": "Polygon"
      }
    },
    {
      "type": "Feature",
      "properties": {
        "use": 2
      },
      "geometry": {
        "coordinates": [
          [
            [121.40876562286593, 31.230899579853343],
            [121.40846583004728, 31.23086589206267],
            [121.40807298484583, 31.230742690664123],
            [121.4078823780191, 31.230671143999736],
            [121.40774212442264, 31.230622367782058],
            [121.40763110249459, 31.230553566962122],
            [121.40759109223154, 31.230469585792562],
            [121.40774477001392, 31.22988556233662],
            [121.40801032504532, 31.229553325383804],
            [121.40814793305051, 31.229275792440816],
            [121.40842511962984, 31.22881922902819],
            [121.40890423403903, 31.227456991809348],
            [121.40935939272941, 31.227641355883037],
            [121.40935714169741, 31.22794803521465],
            [121.40934741486726, 31.22811250532944],
            [121.40919101005994, 31.228621428605422],
            [121.40921399838223, 31.22874797705571],
            [121.4093095078819, 31.228868124451427],
            [121.40944216673955, 31.228868449217956],
            [121.40967786284219, 31.228726519953064],
            [121.40982653296311, 31.22853860744533],
            [121.41008425850231, 31.22835514801396],
            [121.41022101946267, 31.228163954248895],
            [121.4104201103714, 31.228076024693117],
            [121.41061953850486, 31.228063214635615],
            [121.41079345634876, 31.228152028806647],
            [121.41079673595681, 31.228358323896458],
            [121.40968279495434, 31.230335078940087],
            [121.4092271167971, 31.23069192424581],
            [121.40876562286593, 31.230899579853343]
          ]
        ],
        "type": "Polygon"
      }
    },
    {
      "type": "Feature",
      "properties": {
        "use": 2
      },
      "geometry": {
        "coordinates": [
          [
            [121.40196339433487, 31.225563028374083],
            [121.40195841784164, 31.22528511109899],
            [121.40188547122429, 31.225106834609004],
            [121.40185609820242, 31.2245842143516],
            [121.40183170167374, 31.224306297526624],
            [121.40183643519836, 31.22393704205557],
            [121.40185561226525, 31.223439332521437],
            [121.40365157652636, 31.224291697559607],
            [121.40476867538503, 31.22458320280719],
            [121.406625293211, 31.224663909858478],
            [121.40799970056571, 31.224905995312227],
            [121.40790030373489, 31.22559088422477],
            [121.40782032693949, 31.225960245241772],
            [121.40770238373946, 31.226443612935494],
            [121.40768154071685, 31.22691037405967],
            [121.40762562353007, 31.227150799962395],
            [121.40768622655338, 31.227358012987224],
            [121.4076288331679, 31.22768791272543],
            [121.40710244005813, 31.2277794252595],
            [121.40647338032298, 31.227695354540003],
            [121.4060222711211, 31.227629661760986],
            [121.4056665049471, 31.22761654880984],
            [121.40555348921663, 31.227561919933336],
            [121.40555496434544, 31.226843826110525],
            [121.4055951908807, 31.226545889574133],
            [121.40537324693992, 31.22623134611912],
            [121.40454863984013, 31.226154699169847],
            [121.40348128229687, 31.226028232674082],
            [121.40259125307628, 31.225779023959504],
            [121.40196339433487, 31.225563028374083]
          ]
        ],
        "type": "Polygon"
      }
    },
    {
      "type": "Feature",
      "properties": {
        "use": 3
      },
      "geometry": {
        "coordinates": [
          [
            [121.3951050626921, 31.229907968374945],
            [121.39469843684202, 31.229917522666756],
            [121.39407577284777, 31.22962145343873],
            [121.39300392106355, 31.229135682109117],
            [121.39143101435911, 31.22825412972628],
            [121.38964159129779, 31.227277943284236],
            [121.38859910939999, 31.226526988959606],
            [121.38787160423283, 31.225574024175515],
            [121.38606617193352, 31.22406135655943],
            [121.38663042463581, 31.224005590039948],
            [121.38716327711413, 31.223952508717055],
            [121.38824712312648, 31.224122805638505],
            [121.38958196248205, 31.224020720664114],
            [121.38986696507231, 31.223991552750817],
            [121.3903564283716, 31.22402066617251],
            [121.39102604261791, 31.224065443460283],
            [121.39187993457847, 31.224128194383017],
            [121.39205270071938, 31.22413528321981],
            [121.39333950462805, 31.223879333347192],
            [121.39392634258292, 31.22385772109402],
            [121.39477727161139, 31.223813123194276],
            [121.39557716164211, 31.2237685252844],
            [121.39574714114171, 31.224007875779286],
            [121.3960391407534, 31.224310281646382],
            [121.39631745979602, 31.224430907700622],
            [121.396712615296, 31.224502243764874],
            [121.396977848331, 31.224483800221797],
            [121.39731452105924, 31.224459092991122],
            [121.3977438319192, 31.22433863073173],
            [121.39827882911402, 31.223785557662822],
            [121.39815958974134, 31.224970821303003],
            [121.39805977040419, 31.226371973460527],
            [121.39789795104713, 31.227216026016997],
            [121.39752717299069, 31.227918881978535],
            [121.39707287304742, 31.228650816331026],
            [121.39677455727738, 31.229002258598257],
            [121.39636183763173, 31.22939038577135],
            [121.39590821092918, 31.2297264199752],
            [121.39552093729486, 31.229878335435696],
            [121.3951050626921, 31.229907968374945]
          ]
        ],
        "type": "Polygon"
      }
    },
    {
      "type": "Feature",
      "properties": {
        "use": 2
      },
      "geometry": {
        "coordinates": [
          [
            [121.39546417672369, 31.22207828088051],
            [121.39545136259122, 31.221645490944326],
            [121.39534656562739, 31.22080406431624],
            [121.39680099512104, 31.221066997237795],
            [121.39866803802263, 31.22124438911532],
            [121.4004193212133, 31.221316169550338],
            [121.40133559897589, 31.221338694180638],
            [121.40207682862717, 31.221291717038994],
            [121.4021336280607, 31.221767724469963],
            [121.40218417577782, 31.222286502033626],
            [121.40229642061222, 31.22272048467596],
            [121.40238991029355, 31.223154467318295],
            [121.40189541276494, 31.22300149935706],
            [121.40141967038758, 31.222789723196243],
            [121.40060906751813, 31.222517398562246],
            [121.39911122439528, 31.22221537303774],
            [121.3970312460205, 31.222275399013697],
            [121.39595388061241, 31.222433459302145],
            [121.39567777007639, 31.22240021844925],
            [121.39546417672369, 31.22207828088051]
          ]
        ],
        "type": "Polygon"
      }
    },
    {
      "type": "Feature",
      "properties": {
        "use": 2
      },
      "geometry": {
        "coordinates": [
          [
            [121.37953821015697, 31.22043217068419],
            [121.3793758990758, 31.220345328496734],
            [121.37950360680128, 31.22017210214203],
            [121.37959054284016, 31.220025026187756],
            [121.37974700166605, 31.219749183559063],
            [121.37989326757028, 31.21952564196159],
            [121.38003443701369, 31.219310817386383],
            [121.38018380873109, 31.219041886674205],
            [121.38024147821739, 31.219132958009567],
            [121.38029305591533, 31.219173669491695],
            [121.3800854815795, 31.219493904429935],
            [121.37991664833419, 31.21981247109067],
            [121.37971723632387, 31.220087453652372],
            [121.37953821015697, 31.22043217068419]
          ]
        ],
        "type": "Polygon"
      }
    },
    {
      "type": "Feature",
      "properties": {
        "use": 2
      },
      "geometry": {
        "coordinates": [
          [
            [121.37966935033398, 31.22087067630696],
            [121.37997607794398, 31.22081238606826],
            [121.38032540661123, 31.22071766435336],
            [121.38066104091541, 31.220654300138477],
            [121.38070622904917, 31.220898104535735],
            [121.37973818123737, 31.221160410095976],
            [121.37966935033398, 31.22087067630696]
          ]
        ],
        "type": "Polygon"
      }
    },
    {
      "type": "Feature",
      "properties": {
        "use": 2
      },
      "geometry": {
        "coordinates": [
          [
            [121.37394624984563, 31.22163604116747],
            [121.37338932513998, 31.22181538621919],
            [121.3732359113718, 31.22153502761239],
            [121.37320861960109, 31.2213625246209],
            [121.37301796420502, 31.22047580531104],
            [121.37305366749905, 31.21922395591625],
            [121.37430328278367, 31.219193422796835],
            [121.37468187108618, 31.2191360587072],
            [121.3753337237132, 31.21911464745085],
            [121.37546243416227, 31.219155586621355],
            [121.3755701242784, 31.219412242507044],
            [121.37568040284452, 31.21985364877633],
            [121.37583789897991, 31.220403900692062],
            [121.375999607001, 31.220536028719426],
            [121.3762664166865, 31.22059625216493],
            [121.37686309705472, 31.22047402106614],
            [121.3773756960913, 31.220504587223736],
            [121.37797237645952, 31.22048122491556],
            [121.37941317136995, 31.22030776378557],
            [121.37954039697455, 31.22042512858572],
            [121.3795850260918, 31.22050717593006],
            [121.3796084078788, 31.220721468661175],
            [121.3796731302918, 31.2208627543037],
            [121.37973018086001, 31.22116521965596],
            [121.37863352141, 31.22147193154754],
            [121.37721877721293, 31.221496565138878],
            [121.37600110892032, 31.221422483300415],
            [121.37505036128479, 31.221478258629872],
            [121.37394624984563, 31.22163604116747]
          ]
        ],
        "type": "Polygon"
      }
    },
    {
      "type": "Feature",
      "properties": {
        "use": 2
      },
      "geometry": {
        "coordinates": [
          [
            [121.38069921744898, 31.220894626562668],
            [121.38037714593395, 31.21980583723233],
            [121.3803140926075, 31.219363451162273],
            [121.38030812657733, 31.219189620018984],
            [121.38019438081452, 31.219124563761326],
            [121.38015731695486, 31.218906492656515],
            [121.38055102468743, 31.218870934204798],
            [121.38095325263168, 31.218857235058273],
            [121.3816043447136, 31.218756972456276],
            [121.38192605477829, 31.218720593834107],
            [121.38224776484299, 31.218684215211937],
            [121.38285710412669, 31.218596885072884],
            [121.38380495780501, 31.21844561691026],
            [121.38453980619693, 31.218374499700857],
            [121.38531690881922, 31.218350489029135],
            [121.38588100615738, 31.218362910717644],
            [121.38603940102689, 31.2189416883313],
            [121.38481603822225, 31.219019069535392],
            [121.3839885372347, 31.21907889386347],
            [121.38416337498123, 31.219677776675503],
            [121.38427857125004, 31.22021108291659],
            [121.38362027940013, 31.220333202986197],
            [121.38354768418861, 31.219785217983166],
            [121.38342815147269, 31.2193763078444],
            [121.38271195869774, 31.219577342591236],
            [121.38222805620092, 31.219769935204496],
            [121.38196916030785, 31.219858393528433],
            [121.38161251101457, 31.220080297610153],
            [121.38163902310194, 31.22015577488466],
            [121.3817483400473, 31.22064105744289],
            [121.38069921744898, 31.220894626562668]
          ]
        ],
        "type": "Polygon"
      }
    },
    {
      "type": "Feature",
      "properties": {
        "use": 2
      },
      "geometry": {
        "coordinates": [
          [
            [121.39312467120197, 31.22005100559005],
            [121.39137061211477, 31.220334346313848],
            [121.38937851346566, 31.22031776705829],
            [121.38629957622533, 31.22024780045892],
            [121.38622537212507, 31.219517656040992],
            [121.38585507076272, 31.218350943412986],
            [121.38694648530583, 31.218234271358085],
            [121.39051307211673, 31.218184269005093],
            [121.39291028620244, 31.218184269005093],
            [121.39306620256531, 31.219267647404394],
            [121.39312467120197, 31.22005100559005]
          ]
        ],
        "type": "Polygon"
      }
    },
    {
      "type": "Feature",
      "properties": {
        "use": 2
      },
      "geometry": {
        "coordinates": [
          [
            [121.36999914698981, 31.22525551873747],
            [121.3701078237078, 31.224496483867632],
            [121.37017858894967, 31.223527170377324],
            [121.37020528237201, 31.222360507039184],
            [121.3713788381007, 31.22276073487474],
            [121.37199986187505, 31.222759945710834],
            [121.3726208856494, 31.222641059289614],
            [121.37280318952781, 31.22266351250922],
            [121.37292886641507, 31.222748549894646],
            [121.37302864959133, 31.22285942104641],
            [121.37333715430782, 31.223173736554806],
            [121.37355549924115, 31.222999672116636],
            [121.37316835473973, 31.222616022468625],
            [121.37313641809887, 31.222541601493248],
            [121.37319079382556, 31.222400750669813],
            [121.3738265200583, 31.2221854785464],
            [121.37391664872072, 31.22224208003279],
            [121.37407582727909, 31.222180583615213],
            [121.37415993818495, 31.22216296080114],
            [121.37420952414294, 31.222078907872692],
            [121.37438637719173, 31.222036281153063],
            [121.37492997050077, 31.221973171125747],
            [121.37502260707754, 31.221957265751215],
            [121.37505482499539, 31.222015171754713],
            [121.37507610464846, 31.22215312711581],
            [121.37518771384815, 31.222421656568184],
            [121.3756402951623, 31.222495251085135],
            [121.37587368376201, 31.22254801762843],
            [121.3764044087392, 31.222501505349364],
            [121.37633844244715, 31.221955139246184],
            [121.37888139545277, 31.221908660790728],
            [121.3795803984726, 31.221772653361086],
            [121.38044039784245, 31.221498967036425],
            [121.3814018725694, 31.22120617682797],
            [121.38222602688012, 31.221002473393668],
            [121.38297615091105, 31.220863771982582],
            [121.3838446546067, 31.220757465883587],
            [121.38523259931142, 31.220732302153312],
            [121.38841961750592, 31.220744123975003],
            [121.39105500170528, 31.22075044513418],
            [121.39138225958808, 31.2209952925419],
            [121.39194789382603, 31.22101368650345],
            [121.39223128201114, 31.220990597793495],
            [121.39246213486496, 31.220709179532363],
            [121.39299432135172, 31.220638776823158],
            [121.39348710633998, 31.220456056486626],
            [121.39395369556746, 31.220349887722108],
            [121.39434148179816, 31.220344805065338],
            [121.39460154555962, 31.220418481257994],
            [121.39480907399002, 31.22063255466321],
            [121.39491816150536, 31.221020449720413],
            [121.39497471368952, 31.221925002901514],
            [121.39517462808669, 31.222946893559453],
            [121.3952500754641, 31.223382152609616],
            [121.39558937078971, 31.223769030412413],
            [121.39332987882005, 31.223879066011037],
            [121.39204543385688, 31.224139737024316],
            [121.38985562771525, 31.22398839260462],
            [121.38835409005074, 31.224131333369264],
            [121.38708197521215, 31.22395546532128],
            [121.38586721608044, 31.224073882228694],
            [121.38438221101472, 31.224049014797448],
            [121.38329869589444, 31.224220337591255],
            [121.381074309947, 31.224268697918106],
            [121.37782846125688, 31.224603360818385],
            [121.3757870824005, 31.224790881793723],
            [121.37359718382487, 31.224951394473507],
            [121.37169406378098, 31.225160954333546],
            [121.37078924967861, 31.225171451117866],
            [121.36999914698981, 31.22525551873747]
          ]
        ],
        "type": "Polygon"
      }
    },
    {
      "type": "Feature",
      "properties": {
        "use": 2
      },
      "geometry": {
        "coordinates": [
          [
            [121.36710378214866, 31.227209798081134],
            [121.36700346267895, 31.22667364031618],
            [121.36700346267895, 31.226116033014648],
            [121.36758029962579, 31.225837228129734],
            [121.36798157750275, 31.226137479510285],
            [121.368257456082, 31.226630747971342],
            [121.36792126033953, 31.22716708492115],
            [121.36759522206495, 31.227274316157434],
            [121.36710378214866, 31.227209798081134]
          ]
        ],
        "type": "Polygon"
      }
    },
    {
      "type": "Feature",
      "properties": {
        "use": 2
      },
      "geometry": {
        "coordinates": [
          [
            [121.35287574291277, 31.2266478294911],
            [121.35257322967904, 31.22660378898676],
            [121.35233489168385, 31.22654145589177],
            [121.35212149540912, 31.22644817349796],
            [121.35194375204259, 31.226364037413802],
            [121.35177623047986, 31.226294684005378],
            [121.35165684034826, 31.22623447690416],
            [121.35161774501475, 31.226169887982667],
            [121.35160895465606, 31.226080908832614],
            [121.35164185899572, 31.226034161147552],
            [121.35175404411564, 31.226003552243924],
            [121.35224477937516, 31.22580285369048],
            [121.35258616042421, 31.225583909327767],
            [121.35306962042557, 31.225274264802437],
            [121.3535889672591, 31.224744617905642],
            [121.35390559268149, 31.22440359786502],
            [121.35432235961767, 31.224375623279506],
            [121.3545491014624, 31.22448917990623],
            [121.35470131547795, 31.2246190141736],
            [121.35477129264592, 31.22473635007359],
            [121.354767711714, 31.22489562098294],
            [121.35477177751113, 31.225364964457867],
            [121.35464458811904, 31.22567399626766],
            [121.3544131914187, 31.226024962668163],
            [121.35405898309375, 31.226347574742853],
            [121.3537047747688, 31.22651958568288],
            [121.3533472372578, 31.226579278088906],
            [121.35287574291277, 31.2266478294911]
          ]
        ],
        "type": "Polygon"
      }
    },
    {
      "type": "Feature",
      "properties": {
        "use": 2
      },
      "geometry": {
        "coordinates": [
          [
            [121.36377224222935, 31.224797989439423],
            [121.36374476084325, 31.222634302518514],
            [121.36369920329378, 31.221509396304228],
            [121.36414385369915, 31.221565867712968],
            [121.36491891242221, 31.221580527162033],
            [121.36585825689599, 31.22156006349779],
            [121.36710546305505, 31.221569803358705],
            [121.36850860441967, 31.221625572462926],
            [121.36800919209412, 31.222245695124712],
            [121.36744838134251, 31.22325090265656],
            [121.36686260675881, 31.22389412298395],
            [121.36640802984948, 31.224270883793594],
            [121.36606620754267, 31.224522146155635],
            [121.36532259236066, 31.224668227946523],
            [121.36377224222935, 31.224797989439423]
          ]
        ],
        "type": "Polygon"
      }
    },
    {
      "type": "Feature",
      "properties": {
        "use": 2
      },
      "geometry": {
        "coordinates": [
          [
            [121.35685712963988, 31.22759865809003],
            [121.35658174540907, 31.227634008272645],
            [121.35640859554456, 31.22762564740502],
            [121.35661052548272, 31.226653825753402],
            [121.3570169241496, 31.225769427970462],
            [121.35740361552666, 31.225043369860444],
            [121.35780738636737, 31.22448674159432],
            [121.3581453546808, 31.224274133197305],
            [121.35829448750229, 31.22405345113563],
            [121.35864217848302, 31.223259991878976],
            [121.35834812897642, 31.224458783338847],
            [121.35834490272896, 31.224758480199153],
            [121.35858448309754, 31.224970752692876],
            [121.35879850487456, 31.225062816250986],
            [121.359165878201, 31.225111167577708],
            [121.35974603133965, 31.225266095447388],
            [121.36026953382992, 31.225340283263193],
            [121.36069769137681, 31.22533606548079],
            [121.3612674755419, 31.225404513623417],
            [121.36160121534134, 31.225432591790224],
            [121.36210490708322, 31.225412226037676],
            [121.36159021560832, 31.226427898752235],
            [121.36159322187984, 31.226959726383875],
            [121.36137898012487, 31.227415058887246],
            [121.36093007065529, 31.227762713839056],
            [121.36020001667839, 31.227826247151185],
            [121.35817158603305, 31.227524766596005],
            [121.35782060816574, 31.22739571437776],
            [121.35722682368439, 31.227496145726185],
            [121.35685712963988, 31.22759865809003]
          ]
        ],
        "type": "Polygon"
      }
    },
    {
      "type": "Feature",
      "properties": {
        "use": 1
      },
      "geometry": {
        "coordinates": [
          [
            [121.36382150834027, 31.234342279843048],
            [121.36376745083248, 31.23410545924692],
            [121.36375147337623, 31.23383607812032],
            [121.36414437600536, 31.2336763038819],
            [121.36456583867431, 31.23345140842717],
            [121.36461107670519, 31.233635887332873],
            [121.36462775469624, 31.233795945581107],
            [121.36463471058863, 31.233981149291765],
            [121.36450838629537, 31.234101231772144],
            [121.36424621769692, 31.234235575093194],
            [121.36382150834027, 31.234342279843048]
          ]
        ],
        "type": "Polygon"
      }
    },
    {
      "type": "Feature",
      "properties": {
        "use": 2
      },
      "geometry": {
        "coordinates": [
          [
            [121.36160036879033, 31.23556147858355],
            [121.36133541312849, 31.235484623576376],
            [121.36117269986633, 31.235368914440286],
            [121.36083023294219, 31.23515206657264],
            [121.3604655289833, 31.234771326331284],
            [121.36135337961178, 31.234690159171763],
            [121.36182653289322, 31.234537092866205],
            [121.36220880404153, 31.234408310836983],
            [121.36238594502768, 31.234293554388216],
            [121.36254604561213, 31.234547916256446],
            [121.36258891819014, 31.234845134655004],
            [121.36256491341335, 31.23500345740449],
            [121.36252386823674, 31.235166636901894],
            [121.36229041015733, 31.23541526083671],
            [121.36206831234455, 31.235537608850933],
            [121.36181162003413, 31.235602968020352],
            [121.36160036879033, 31.23556147858355]
          ]
        ],
        "type": "Polygon"
      }
    },
    {
      "type": "Feature",
      "properties": {
        "use": 2
      },
      "geometry": {
        "coordinates": [
          [
            [121.3619022218428, 31.23416069689867],
            [121.36145374015473, 31.23354838948078],
            [121.36128373215459, 31.233260783895837],
            [121.36104864474076, 31.23291753200075],
            [121.3602601470507, 31.23122918319975],
            [121.35887838990811, 31.22818637186016],
            [121.3604177409639, 31.228438431541704],
            [121.36107278396565, 31.22846643813172],
            [121.3617278269686, 31.228102351816716],
            [121.3622191092199, 31.227290154212696],
            [121.3623173656697, 31.22628189920043],
            [121.36280864792218, 31.225637730644294],
            [121.36385671672548, 31.225413670987038],
            [121.3645608879527, 31.22695405785023],
            [121.36526505917993, 31.22849444471342],
            [121.36395497317642, 31.228578464408244],
            [121.36359469952532, 31.22883052310165],
            [121.36336543447294, 31.22961470122449],
            [121.36388946887581, 31.230902979673118],
            [121.36481886275283, 31.232601865675605],
            [121.36448017900636, 31.23315387717318],
            [121.36357747367657, 31.233613143478124],
            [121.36275069432952, 31.233961115991164],
            [121.3619022218428, 31.23416069689867]
          ]
        ],
        "type": "Polygon"
      }
    },
    {
      "type": "Feature",
      "properties": {
        "use": 2
      },
      "geometry": {
        "coordinates": [
          [
            [121.35700736996733, 31.231192458469806],
            [121.35660169074644, 31.230932540837742],
            [121.35609485334075, 31.230604144770822],
            [121.35580297707808, 31.23038927845731],
            [121.35548581126915, 31.230351014904258],
            [121.35591423269904, 31.229499516116896],
            [121.35634265413, 31.2288855518119],
            [121.35734746687473, 31.228182552338055],
            [121.35926574575439, 31.231630547294074],
            [121.36116187258631, 31.234709926057363],
            [121.36056810362365, 31.23476217088041],
            [121.36013126874951, 31.23474732246308],
            [121.35972397951463, 31.234214356156386],
            [121.35768159512395, 31.23095320974832],
            [121.35733896654511, 31.23103103073877],
            [121.35700736996733, 31.231192458469806]
          ]
        ],
        "type": "Polygon"
      }
    },
    {
      "type": "Feature",
      "properties": {
        "use": 2
      },
      "geometry": {
        "coordinates": [
          [
            [121.3540921471137, 31.231047545339237],
            [121.35353973982811, 31.231363904399075],
            [121.35299455246474, 31.231619001800354],
            [121.35107265214197, 31.232584950208278],
            [121.35058347069639, 31.232745904317717],
            [121.35032424075243, 31.232793001316136],
            [121.34994789705394, 31.232790028208072],
            [121.34985980753385, 31.23249757182022],
            [121.34947874297217, 31.232217061591726],
            [121.3483145051124, 31.23213333919547],
            [121.34699411557739, 31.232221152616802],
            [121.34653465742349, 31.232196035895385],
            [121.34613375614839, 31.23212084874328],
            [121.34606802264906, 31.23192855844377],
            [121.34609012446799, 31.2316861974318],
            [121.34640293622147, 31.2311070041498],
            [121.34660813949799, 31.230725610533984],
            [121.34677430485681, 31.230511120530792],
            [121.34737556144341, 31.22998815740364],
            [121.34769229520975, 31.22986196918662],
            [121.34825301596959, 31.229911031617227],
            [121.34887672402238, 31.229934049010396],
            [121.34939990477105, 31.229979920799487],
            [121.34976693384436, 31.230025792615024],
            [121.35055904046536, 31.229994484296952],
            [121.3512633117681, 31.229946485422175],
            [121.35179153113171, 31.22988779685248],
            [121.35243685406994, 31.230074629352103],
            [121.35278532393343, 31.23022498285838],
            [121.35302480476821, 31.230355076364077],
            [121.35315593365146, 31.23064049856292],
            [121.35330186689498, 31.23079392278752],
            [121.35350940263237, 31.230906827416376],
            [121.3536892831529, 31.2310565884341],
            [121.35382437398616, 31.231062196733674],
            [121.3540921471137, 31.231047545339237]
          ]
        ],
        "type": "Polygon"
      }
    },
    {
      "type": "Feature",
      "properties": {
        "use": 1
      },
      "geometry": {
        "coordinates": [
          [
            [121.34643609069724, 31.237185994291508],
            [121.3465436913045, 31.236970690740865],
            [121.34679565914257, 31.23664676156168],
            [121.347467060805, 31.2359248405658],
            [121.34848618001013, 31.234269190838447],
            [121.34933544601569, 31.232816842628196],
            [121.35035456522212, 31.232816842628196],
            [121.35103397802544, 31.232613512097004],
            [121.35171339083013, 31.232235897093048],
            [121.35223432744345, 31.23201941180271],
            [121.35264764390439, 31.231746573490113],
            [121.35295128676421, 31.231626694225618],
            [121.35327871713116, 31.2314697976946],
            [121.35354747153939, 31.23136454321908],
            [121.35380829677487, 31.23121244231801],
            [121.35413132732545, 31.23102133393909],
            [121.35429032814034, 31.230895359187816],
            [121.35442556803179, 31.230861279939802],
            [121.35455226123406, 31.230936682569617],
            [121.35442657805379, 31.23121555674546],
            [121.35413194717046, 31.231699315271626],
            [121.35353829515088, 31.23246827573564],
            [121.34994691753946, 31.23778378111929],
            [121.34978390310441, 31.23763052845151],
            [121.3494543804537, 31.237599305935163],
            [121.3485693597201, 31.237577537603897],
            [121.34751968925758, 31.237555737440758],
            [121.34702796982037, 31.23749113131796],
            [121.34663963523272, 31.237424969331567],
            [121.3464512426281, 31.237342513234744],
            [121.34643609069724, 31.237185994291508]
          ]
        ],
        "type": "Polygon"
      }
    },
    {
      "type": "Feature",
      "properties": {
        "use": 1
      },
      "geometry": {
        "coordinates": [
          [
            [121.34405608521183, 31.236758538040945],
            [121.343784393097, 31.236739252758852],
            [121.34423040868359, 31.235690513642453],
            [121.34526181973109, 31.233330808063883],
            [121.34556845544768, 31.23283025687992],
            [121.34570783531979, 31.232544226441135],
            [121.34701800610935, 31.23278258519997],
            [121.34816092105245, 31.232854092710937],
            [121.34933093762419, 31.232826511384772],
            [121.34896544481191, 31.23345044214387],
            [121.3487711964075, 31.233302540359443],
            [121.34855776097282, 31.23324487223276],
            [121.34830651481917, 31.233306992563158],
            [121.34813690725633, 31.23346977875488],
            [121.3478105914138, 31.23387614184388],
            [121.34763278761574, 31.234218992128618],
            [121.34755273373247, 31.234333891781205],
            [121.3475568318508, 31.234581073592395],
            [121.34773943240683, 31.234800221716355],
            [121.3481663864423, 31.23479641899212],
            [121.34757932464345, 31.23578513649238],
            [121.34739475597259, 31.236030412796598],
            [121.34699268304936, 31.23587372575026],
            [121.34676547347073, 31.235959430775154],
            [121.34628264396542, 31.236100426111236],
            [121.34569698449184, 31.236416041097385],
            [121.34525584227038, 31.2366067289787],
            [121.34489725890518, 31.236742527552053],
            [121.3444532242037, 31.236844093212845],
            [121.34405608521183, 31.236758538040945]
          ]
        ],
        "type": "Polygon"
      }
    },
    {
      "type": "Feature",
      "properties": {
        "use": 2
      },
      "geometry": {
        "coordinates": [
          [
            [121.34773142346478, 31.234799685941326],
            [121.347553012073, 31.23458127548536],
            [121.34753945591456, 31.23434207997505],
            [121.3478406098017, 31.23383051642503],
            [121.34813162396166, 31.233480430647703],
            [121.34836656084872, 31.23322144892029],
            [121.34856492549125, 31.233211684388955],
            [121.34875768240659, 31.233278639290674],
            [121.34896489441019, 31.233453327325904],
            [121.34857275190683, 31.23412838023164],
            [121.34815257076713, 31.23481302304333],
            [121.34773142346478, 31.234799685941326]
          ]
        ],
        "type": "Polygon"
      }
    },
    {
      "type": "Feature",
      "properties": {
        "use": 3
      },
      "geometry": {
        "coordinates": [
          [
            [121.35052425456996, 31.23820623822418],
            [121.35210705165048, 31.235368422930208],
            [121.35277533035418, 31.234631938752173],
            [121.35402278393394, 31.232943082667447],
            [121.35498807539705, 31.23141927683531],
            [121.35549299708316, 31.230339899501757],
            [121.35573060728831, 31.23037799538251],
            [121.35699913267842, 31.231184219869675],
            [121.35658331481773, 31.231654063790856],
            [121.3560486918534, 31.232403269534714],
            [121.35527645868615, 31.23360960528173],
            [121.35460817998245, 31.234473078253515],
            [121.35356863533178, 31.235603200073356],
            [121.35290035662803, 31.236441259209286],
            [121.35217267537246, 31.237584055140957],
            [121.35166775368629, 31.238320516304142],
            [121.35052425456996, 31.23820623822418]
          ]
        ],
        "type": "Polygon"
      }
    },
    {
      "type": "Feature",
      "properties": {
        "use": 2
      },
      "geometry": {
        "coordinates": [
          [
            [121.34595180026281, 31.237090112020724],
            [121.34566622224057, 31.23696852265681],
            [121.34550768738171, 31.236777807834272],
            [121.34546659302575, 31.236634699741934],
            [121.34556409121137, 31.236481716550756],
            [121.34619648514962, 31.236144378394016],
            [121.34647389811752, 31.236269757818278],
            [121.34654342227623, 31.236375386966074],
            [121.34661509557634, 31.236464297090627],
            [121.34658282447015, 31.236612457908436],
            [121.34646631005302, 31.23682484093068],
            [121.34623215391579, 31.236972289137398],
            [121.34595180026281, 31.237090112020724]
          ]
        ],
        "type": "Polygon"
      }
    },
    {
      "type": "Feature",
      "properties": {
        "use": 1
      },
      "geometry": {
        "coordinates": [
          [
            [121.3449678894724, 31.240779031589014],
            [121.34455417431508, 31.240026533837593],
            [121.34407448216967, 31.23983397202109],
            [121.34381787967976, 31.23732236913952],
            [121.34559855121648, 31.23779414619149],
            [121.34752806434699, 31.23807662630678],
            [121.34844969524167, 31.238087194387084],
            [121.34922020592474, 31.23807393500626],
            [121.3499788231673, 31.237765770535617],
            [121.34947959133115, 31.238565354322702],
            [121.34923035779943, 31.238962437882506],
            [121.34888911852005, 31.239325807433573],
            [121.34810505577866, 31.23990747449477],
            [121.34709234660664, 31.240374977091392],
            [121.3461618419027, 31.240584768474946],
            [121.3449678894724, 31.240779031589014]
          ]
        ],
        "type": "Polygon"
      }
    }
  ]
}
