{
  "type": "FeatureCollection",
  "features": [
    {
      "type": "Feature",
      "properties": {
        "adcode": 310101,
        "name": "黄浦区",
        "center": [121.490317, 31.222771],
        "centroid": [121.483572, 31.215946],
        "childrenNum": 0,
        "level": "district",
        "parent": { "adcode": 310000 },
        "subFeatureIndex": 0,
        "acroutes": [100000, 310000]
      },
      "geometry": {
        "type": "MultiPolygon",
        "coordinates": [
          [
            [
              [121.457689, 31.220196],
              [121.460707, 31.213488],
              [121.461555, 31.210194],
              [121.462264, 31.203173],
              [121.466449, 31.204395],
              [121.46745, 31.203065],
              [121.469605, 31.196404],
              [121.470383, 31.191276],
              [121.474944, 31.189886],
              [121.475987, 31.187885],
              [121.490752, 31.191467],
              [121.494631, 31.192857],
              [121.498066, 31.195601],
              [121.501319, 31.199747],
              [121.508368, 31.210158],
              [121.509911, 31.214506],
              [121.509397, 31.218459],
              [121.506741, 31.223119],
              [121.502014, 31.228018],
              [121.495744, 31.232977],
              [121.493491, 31.23615],
              [121.493491, 31.240163],
              [121.494826, 31.24221],
              [121.487805, 31.244186],
              [121.485969, 31.244091],
              [121.482994, 31.241923],
              [121.47892, 31.240294],
              [121.474847, 31.24142],
              [121.469563, 31.239216],
              [121.462973, 31.241396],
              [121.466129, 31.234917],
              [121.467658, 31.225634],
              [121.467464, 31.223862],
              [121.456758, 31.223898],
              [121.457689, 31.220196]
            ]
          ]
        ]
      }
    },
    {
      "type": "Feature",
      "properties": {
        "adcode": 310105,
        "name": "长宁区",
        "center": [121.4222, 31.218123],
        "centroid": [121.380949, 31.20737],
        "childrenNum": 0,
        "level": "district",
        "parent": { "adcode": 310000 },
        "subFeatureIndex": 2,
        "acroutes": [100000, 310000]
      },
      "geometry": {
        "type": "MultiPolygon",
        "coordinates": [
          [
            [
              [121.439462, 31.214482],
              [121.436167, 31.220675],
              [121.435416, 31.225071],
              [121.434304, 31.225886],
              [121.429034, 31.223095],
              [121.427713, 31.224221],
              [121.427519, 31.229288],
              [121.423334, 31.228114],
              [121.419941, 31.225191],
              [121.415617, 31.228581],
              [121.414853, 31.228054],
              [121.415965, 31.224473],
              [121.414157, 31.223359],
              [121.408707, 31.222364],
              [121.403799, 31.22058],
              [121.400462, 31.220807],
              [121.399712, 31.218711],
              [121.388658, 31.218639],
              [121.37691, 31.220687],
              [121.373197, 31.220089],
              [121.371404, 31.222508],
              [121.366691, 31.224065],
              [121.366065, 31.226006],
              [121.362102, 31.22597],
              [121.359071, 31.229827],
              [121.354177, 31.237121],
              [121.352856, 31.238342],
              [121.348741, 31.239372],
              [121.350131, 31.241839],
              [121.348922, 31.243863],
              [121.347281, 31.243192],
              [121.346822, 31.241037],
              [121.344612, 31.243552],
              [121.345585, 31.239887],
              [121.340872, 31.239947],
              [121.338355, 31.237528],
              [121.343513, 31.234306],
              [121.345376, 31.23039],
              [121.345362, 31.227886],
              [121.341581, 31.226293],
              [121.340997, 31.224269],
              [121.345627, 31.223526],
              [121.343096, 31.223071],
              [121.342457, 31.217789],
              [121.33937, 31.216615],
              [121.339996, 31.212278],
              [121.338508, 31.212182],
              [121.338438, 31.20666],
              [121.338925, 31.196644],
              [121.33734, 31.195817],
              [121.338049, 31.192618],
              [121.331806, 31.189622],
              [121.338341, 31.180108],
              [121.341414, 31.179436],
              [121.351424, 31.183499],
              [121.353301, 31.181629],
              [121.356958, 31.182768],
              [121.358321, 31.186015],
              [121.360253, 31.185296],
              [121.365954, 31.185572],
              [121.38001, 31.190065],
              [121.391425, 31.191911],
              [121.412572, 31.19112],
              [121.419719, 31.190796],
              [121.422027, 31.192294],
              [121.421638, 31.19535],
              [121.423793, 31.197314],
              [121.433025, 31.20128],
              [121.437933, 31.203976],
              [121.435235, 31.21114],
              [121.43746, 31.211535],
              [121.439462, 31.214482]
            ]
          ]
        ]
      }
    },
    {
      "type": "Feature",
      "properties": {
        "adcode": 310106,
        "name": "静安区",
        "center": [121.448224, 31.229003],
        "centroid": [121.450659, 31.270821],
        "childrenNum": 0,
        "level": "district",
        "parent": { "adcode": 310000 },
        "subFeatureIndex": 3,
        "acroutes": [100000, 310000]
      },
      "geometry": {
        "type": "MultiPolygon",
        "coordinates": [
          [
            [
              [121.457689, 31.220196],
              [121.456758, 31.223898],
              [121.467464, 31.223862],
              [121.467658, 31.225634],
              [121.466129, 31.234917],
              [121.462973, 31.241396],
              [121.469563, 31.239216],
              [121.474847, 31.24142],
              [121.47892, 31.240294],
              [121.482994, 31.241923],
              [121.481228, 31.247959],
              [121.479588, 31.249815],
              [121.481673, 31.250689],
              [121.479629, 31.253383],
              [121.480589, 31.255239],
              [121.480491, 31.258568],
              [121.474124, 31.263453],
              [121.469605, 31.267799],
              [121.464627, 31.274396],
              [121.462834, 31.275389],
              [121.461457, 31.278921],
              [121.461805, 31.284691],
              [121.460081, 31.289778],
              [121.462445, 31.292747],
              [121.46453, 31.297989],
              [121.463529, 31.306008],
              [121.467672, 31.306307],
              [121.468312, 31.316036],
              [121.468145, 31.32032],
              [121.465378, 31.321397],
              [121.457133, 31.321002],
              [121.4547, 31.319243],
              [121.447887, 31.317101],
              [121.44672, 31.319817],
              [121.436765, 31.319662],
              [121.436459, 31.32087],
              [121.433595, 31.32087],
              [121.432468, 31.318669],
              [121.434623, 31.312303],
              [121.432163, 31.31168],
              [121.431676, 31.309478],
              [121.432441, 31.305912],
              [121.431287, 31.303638],
              [121.426434, 31.303207],
              [121.426935, 31.298528],
              [121.42364, 31.297259],
              [121.420039, 31.296912],
              [121.418648, 31.292256],
              [121.419691, 31.291071],
              [121.423806, 31.291011],
              [121.422833, 31.28426],
              [121.424432, 31.280238],
              [121.424571, 31.27193],
              [121.425252, 31.270661],
              [121.429841, 31.274923],
              [121.432413, 31.271942],
              [121.437098, 31.269439],
              [121.442952, 31.267117],
              [121.451044, 31.256269],
              [121.44932, 31.252928],
              [121.451461, 31.251994],
              [121.450404, 31.247743],
              [121.448318, 31.245216],
              [121.449987, 31.2433],
              [121.445774, 31.241348],
              [121.435166, 31.235252],
              [121.431009, 31.235108],
              [121.427908, 31.231144],
              [121.427519, 31.229288],
              [121.427713, 31.224221],
              [121.429034, 31.223095],
              [121.434304, 31.225886],
              [121.435416, 31.225071],
              [121.436167, 31.220675],
              [121.439462, 31.214482],
              [121.44697, 31.215812],
              [121.452184, 31.217429],
              [121.457689, 31.220196]
            ]
          ]
        ]
      }
    },
    {
      "type": "Feature",
      "properties": {
        "adcode": 310107,
        "name": "普陀区",
        "center": [121.392499, 31.241701],
        "centroid": [121.392042, 31.257895],
        "childrenNum": 0,
        "level": "district",
        "parent": { "adcode": 310000 },
        "subFeatureIndex": 4,
        "acroutes": [100000, 310000]
      },
      "geometry": {
        "type": "MultiPolygon",
        "coordinates": [
          [
            [
              [121.354177, 31.237121],
              [121.359071, 31.229827],
              [121.362102, 31.22597],
              [121.366065, 31.226006],
              [121.366691, 31.224065],
              [121.371404, 31.222508],
              [121.373197, 31.220089],
              [121.37691, 31.220687],
              [121.388658, 31.218639],
              [121.399712, 31.218711],
              [121.400462, 31.220807],
              [121.403799, 31.22058],
              [121.408707, 31.222364],
              [121.414157, 31.223359],
              [121.415965, 31.224473],
              [121.414853, 31.228054],
              [121.415617, 31.228581],
              [121.419941, 31.225191],
              [121.423334, 31.228114],
              [121.427519, 31.229288],
              [121.427908, 31.231144],
              [121.431009, 31.235108],
              [121.435166, 31.235252],
              [121.445774, 31.241348],
              [121.449987, 31.2433],
              [121.448318, 31.245216],
              [121.450404, 31.247743],
              [121.451461, 31.251994],
              [121.44932, 31.252928],
              [121.451044, 31.256269],
              [121.442952, 31.267117],
              [121.437098, 31.269439],
              [121.432413, 31.271942],
              [121.429841, 31.274923],
              [121.425252, 31.270661],
              [121.419496, 31.265237],
              [121.41577, 31.265896],
              [121.41527, 31.26914],
              [121.410598, 31.270373],
              [121.41096, 31.273175],
              [121.40544, 31.273067],
              [121.406496, 31.276862],
              [121.404564, 31.276227],
              [121.400087, 31.278071],
              [121.404453, 31.286223],
              [121.400379, 31.286115],
              [121.398446, 31.287145],
              [121.399559, 31.288904],
              [121.39789, 31.29052],
              [121.393483, 31.291274],
              [121.394762, 31.294674],
              [121.388394, 31.29526],
              [121.384765, 31.294446],
              [121.381623, 31.292711],
              [121.38154, 31.289431],
              [121.376242, 31.290592],
              [121.374838, 31.289096],
              [121.370153, 31.290329],
              [121.369666, 31.28912],
              [121.363785, 31.291334],
              [121.363785, 31.292028],
              [121.358585, 31.293465],
              [121.360295, 31.294674],
              [121.363534, 31.302741],
              [121.360309, 31.302717],
              [121.354803, 31.299808],
              [121.352954, 31.301663],
              [121.348894, 31.299246],
              [121.349659, 31.297582],
              [121.346892, 31.296349],
              [121.34685, 31.297654],
              [121.340927, 31.297439],
              [121.341011, 31.293716],
              [121.338675, 31.293225],
              [121.336506, 31.294901],
              [121.332224, 31.292998],
              [121.332821, 31.290915],
              [121.326384, 31.288928],
              [121.327316, 31.285182],
              [121.328998, 31.284595],
              [121.332738, 31.286067],
              [121.335004, 31.279711],
              [121.336061, 31.280046],
              [121.336228, 31.275461],
              [121.338883, 31.275006],
              [121.338272, 31.272839],
              [121.343541, 31.271439],
              [121.344723, 31.273917],
              [121.35732, 31.271415],
              [121.358918, 31.268793],
              [121.361268, 31.27084],
              [121.367441, 31.269631],
              [121.366996, 31.266662],
              [121.362227, 31.26756],
              [121.35985, 31.266997],
              [121.358918, 31.263609],
              [121.361783, 31.259945],
              [121.366023, 31.259358],
              [121.365884, 31.257682],
              [121.374574, 31.257059],
              [121.375158, 31.25949],
              [121.377508, 31.259478],
              [121.380886, 31.257766],
              [121.377216, 31.247719],
              [121.375686, 31.244486],
              [121.3731, 31.245683],
              [121.372349, 31.243755],
              [121.368387, 31.247384],
              [121.366718, 31.246342],
              [121.363117, 31.240091],
              [121.36067, 31.238642],
              [121.360086, 31.240498],
              [121.356068, 31.240151],
              [121.356054, 31.237803],
              [121.354177, 31.237121]
            ]
          ]
        ]
      }
    },
    {
      "type": "Feature",
      "properties": {
        "adcode": 310109,
        "name": "虹口区",
        "center": [121.491832, 31.26097],
        "centroid": [121.485443, 31.276649],
        "childrenNum": 0,
        "level": "district",
        "parent": { "adcode": 310000 },
        "subFeatureIndex": 5,
        "acroutes": [100000, 310000]
      },
      "geometry": {
        "type": "MultiPolygon",
        "coordinates": [
          [
            [
              [121.485413, 31.311573],
              [121.485372, 31.314636],
              [121.479171, 31.314696],
              [121.472956, 31.315797],
              [121.468312, 31.316036],
              [121.467672, 31.306307],
              [121.463529, 31.306008],
              [121.46453, 31.297989],
              [121.462445, 31.292747],
              [121.460081, 31.289778],
              [121.461805, 31.284691],
              [121.461457, 31.278921],
              [121.462834, 31.275389],
              [121.464627, 31.274396],
              [121.469605, 31.267799],
              [121.474124, 31.263453],
              [121.480491, 31.258568],
              [121.480589, 31.255239],
              [121.479629, 31.253383],
              [121.481673, 31.250689],
              [121.479588, 31.249815],
              [121.481228, 31.247959],
              [121.482994, 31.241923],
              [121.485969, 31.244091],
              [121.487805, 31.244186],
              [121.494826, 31.24221],
              [121.500012, 31.244989],
              [121.50688, 31.246474],
              [121.516488, 31.246953],
              [121.516001, 31.251599],
              [121.517642, 31.251862],
              [121.514569, 31.256317],
              [121.508479, 31.262639],
              [121.50631, 31.266746],
              [121.506505, 31.270589],
              [121.499915, 31.275904],
              [121.496564, 31.276407],
              [121.496049, 31.282991],
              [121.498149, 31.286259],
              [121.502709, 31.289658],
              [121.500652, 31.295488],
              [121.493644, 31.293884],
              [121.490168, 31.292603],
              [121.485664, 31.303483],
              [121.485413, 31.311573]
            ]
          ]
        ]
      }
    },
    {
      "type": "Feature",
      "properties": {
        "adcode": 310112,
        "name": "闵行区",
        "center": [121.375972, 31.111658],
        "centroid": [121.418901, 31.087213],
        "childrenNum": 0,
        "level": "district",
        "parent": { "adcode": 310000 },
        "subFeatureIndex": 7,
        "acroutes": [100000, 310000]
      },
      "geometry": {
        "type": "MultiPolygon",
        "coordinates": [
          [
            [
              [121.35871, 30.97786],
              [121.375227, 30.982832],
              [121.394261, 30.988247],
              [121.409333, 30.990229],
              [121.413184, 30.991069],
              [121.423973, 30.994515],
              [121.431426, 30.999174],
              [121.433636, 31.001779],
              [121.436834, 31.00406],
              [121.440811, 31.005789],
              [121.448305, 31.007458],
              [121.459942, 31.007398],
              [121.465587, 31.008755],
              [121.47144, 31.011948],
              [121.476362, 31.01334],
              [121.485872, 31.014073],
              [121.489153, 31.014949],
              [121.492879, 31.012752],
              [121.491948, 31.010039],
              [121.495924, 30.998297],
              [121.498872, 30.998213],
              [121.49883, 30.999426],
              [121.503057, 31.002716],
              [121.507881, 31.004745],
              [121.510412, 31.004553],
              [121.517002, 31.007626],
              [121.520853, 31.004445],
              [121.522105, 31.002199],
              [121.520089, 31.00256],
              [121.520325, 30.999354],
              [121.522897, 30.99981],
              [121.528612, 30.99592],
              [121.531962, 30.994815],
              [121.534507, 30.995848],
              [121.537774, 30.994683],
              [121.538233, 30.993146],
              [121.543294, 30.994203],
              [121.54613, 30.99305],
              [121.549537, 30.988307],
              [121.55279, 30.98886],
              [121.553304, 30.993026],
              [121.556224, 30.993374],
              [121.555918, 30.995152],
              [121.561494, 30.995644],
              [121.570475, 30.998345],
              [121.567959, 31.000879],
              [121.570712, 31.002295],
              [121.570253, 31.004565],
              [121.571463, 31.005633],
              [121.569725, 31.010603],
              [121.568181, 31.010063],
              [121.565859, 31.011912],
              [121.569822, 31.012452],
              [121.571018, 31.016426],
              [121.574674, 31.018634],
              [121.574758, 31.020951],
              [121.572325, 31.026677],
              [121.56839, 31.025284],
              [121.569057, 31.024396],
              [121.564302, 31.021191],
              [121.56027, 31.024132],
              [121.558699, 31.020255],
              [121.556474, 31.020255],
              [121.556516, 31.01873],
              [121.554139, 31.01861],
              [121.552262, 31.020915],
              [121.552804, 31.023268],
              [121.555765, 31.022908],
              [121.558407, 31.024528],
              [121.558254, 31.029533],
              [121.559505, 31.030278],
              [121.559464, 31.041391],
              [121.562119, 31.043635],
              [121.559811, 31.044812],
              [121.557031, 31.04798],
              [121.556127, 31.047632],
              [121.554737, 31.050824],
              [121.552693, 31.0493],
              [121.550538, 31.049396],
              [121.54955, 31.047908],
              [121.547799, 31.048544],
              [121.54588, 31.047044],
              [121.541472, 31.046396],
              [121.542307, 31.049072],
              [121.540791, 31.052528],
              [121.54328, 31.054016],
              [121.543308, 31.055696],
              [121.548383, 31.056896],
              [121.547201, 31.061647],
              [121.548549, 31.063639],
              [121.551094, 31.063795],
              [121.551789, 31.065643],
              [121.556753, 31.06737],
              [121.55279, 31.069506],
              [121.555599, 31.071689],
              [121.559033, 31.072169],
              [121.557531, 31.073357],
              [121.562675, 31.074305],
              [121.56262, 31.075121],
              [121.567639, 31.0762],
              [121.575272, 31.080063],
              [121.572658, 31.081323],
              [121.571643, 31.080063],
              [121.569766, 31.081611],
              [121.563579, 31.082486],
              [121.561563, 31.08365],
              [121.557031, 31.082702],
              [121.556405, 31.081059],
              [121.553555, 31.080303],
              [121.550565, 31.082834],
              [121.548549, 31.086889],
              [121.551539, 31.088148],
              [121.551608, 31.090128],
              [121.559088, 31.091951],
              [121.561563, 31.09357],
              [121.561855, 31.091867],
              [121.564358, 31.091891],
              [121.567264, 31.09363],
              [121.566819, 31.096569],
              [121.563315, 31.098955],
              [121.562064, 31.101258],
              [121.563649, 31.101858],
              [121.561132, 31.105264],
              [121.561396, 31.106224],
              [121.557851, 31.109797],
              [121.559867, 31.111896],
              [121.556697, 31.113083],
              [121.555279, 31.114882],
              [121.553332, 31.112688],
              [121.552317, 31.113899],
              [121.549217, 31.113419],
              [121.550426, 31.11162],
              [121.547687, 31.109653],
              [121.544225, 31.111464],
              [121.542251, 31.116153],
              [121.539526, 31.115626],
              [121.537885, 31.113983],
              [121.535341, 31.117976],
              [121.532254, 31.117208],
              [121.53142, 31.11842],
              [121.525289, 31.116741],
              [121.522869, 31.115242],
              [121.521424, 31.116309],
              [121.514513, 31.115278],
              [121.513749, 31.118012],
              [121.511343, 31.12119],
              [121.50549, 31.120002],
              [121.503863, 31.118324],
              [121.505295, 31.115494],
              [121.501583, 31.114666],
              [121.498538, 31.121501],
              [121.49281, 31.118719],
              [121.490266, 31.124283],
              [121.485969, 31.124523],
              [121.485705, 31.121933],
              [121.48191, 31.120086],
              [121.481256, 31.118024],
              [121.477446, 31.117328],
              [121.481353, 31.110697],
              [121.477321, 31.110853],
              [121.474137, 31.114354],
              [121.473984, 31.112915],
              [121.470286, 31.110937],
              [121.465211, 31.1121],
              [121.463237, 31.108586],
              [121.462862, 31.101954],
              [121.455423, 31.100755],
              [121.452629, 31.101234],
              [121.451878, 31.103849],
              [121.446275, 31.105744],
              [121.447623, 31.107423],
              [121.452364, 31.108586],
              [121.450154, 31.112819],
              [121.450807, 31.115398],
              [121.446706, 31.114282],
              [121.445788, 31.114954],
              [121.441547, 31.112568],
              [121.438002, 31.1121],
              [121.435736, 31.113539],
              [121.438836, 31.119103],
              [121.43853, 31.121729],
              [121.436445, 31.129043],
              [121.421526, 31.127137],
              [121.418398, 31.131669],
              [121.41381, 31.13728],
              [121.411293, 31.14174],
              [121.404953, 31.156689],
              [121.400977, 31.155214],
              [121.401449, 31.153776],
              [121.396931, 31.152685],
              [121.395874, 31.15585],
              [121.401867, 31.157528],
              [121.404578, 31.157588],
              [121.402645, 31.162226],
              [121.394567, 31.159601],
              [121.391508, 31.168686],
              [121.394053, 31.169489],
              [121.39269, 31.173085],
              [121.395415, 31.174595],
              [121.394442, 31.177879],
              [121.398071, 31.178226],
              [121.398349, 31.179904],
              [121.400101, 31.178813],
              [121.41146, 31.182037],
              [121.415158, 31.183391],
              [121.415256, 31.187357],
              [121.41356, 31.18683],
              [121.412572, 31.19112],
              [121.391425, 31.191911],
              [121.38001, 31.190065],
              [121.365954, 31.185572],
              [121.360253, 31.185296],
              [121.358321, 31.186015],
              [121.356958, 31.182768],
              [121.353301, 31.181629],
              [121.351424, 31.183499],
              [121.341414, 31.179436],
              [121.338341, 31.180108],
              [121.331806, 31.189622],
              [121.338049, 31.192618],
              [121.33734, 31.195817],
              [121.338925, 31.196644],
              [121.338438, 31.20666],
              [121.338508, 31.212182],
              [121.339996, 31.212278],
              [121.33937, 31.216615],
              [121.342457, 31.217789],
              [121.343096, 31.223071],
              [121.345627, 31.223526],
              [121.340997, 31.224269],
              [121.341581, 31.226293],
              [121.345362, 31.227886],
              [121.345376, 31.23039],
              [121.343513, 31.234306],
              [121.338355, 31.237528],
              [121.334935, 31.235887],
              [121.333878, 31.232006],
              [121.32612, 31.229575],
              [121.322853, 31.229623],
              [121.315386, 31.227204],
              [121.302998, 31.230605],
              [121.296922, 31.231048],
              [121.29264, 31.232761],
              [121.288538, 31.238198],
              [121.287301, 31.243276],
              [121.283742, 31.245192],
              [121.28142, 31.248174],
              [121.284228, 31.251838],
              [121.280363, 31.251886],
              [121.275302, 31.253527],
              [121.271284, 31.252258],
              [121.264444, 31.256496],
              [121.263985, 31.259155],
              [121.260217, 31.258328],
              [121.254405, 31.259634],
              [121.254183, 31.258688],
              [121.247314, 31.253287],
              [121.24591, 31.248821],
              [121.241683, 31.247348],
              [121.239932, 31.241061],
              [121.241391, 31.240222],
              [121.247912, 31.240917],
              [121.249692, 31.236534],
              [121.251082, 31.238198],
              [121.252792, 31.236965],
              [121.254155, 31.23312],
              [121.257158, 31.230701],
              [121.258006, 31.226868],
              [121.256588, 31.226329],
              [121.258215, 31.222772],
              [121.25745, 31.220208],
              [121.259675, 31.218148],
              [121.261218, 31.215081],
              [121.259397, 31.212769],
              [121.263846, 31.208912],
              [121.26468, 31.206731],
              [121.263053, 31.205701],
              [121.264777, 31.203317],
              [121.266724, 31.203257],
              [121.271701, 31.198309],
              [121.277388, 31.193576],
              [121.284034, 31.194391],
              [121.287329, 31.196332],
              [121.292126, 31.200621],
              [121.292431, 31.202514],
              [121.294837, 31.203077],
              [121.297506, 31.201412],
              [121.300565, 31.197027],
              [121.30856, 31.188388],
              [121.310784, 31.18423],
              [121.316304, 31.176836],
              [121.318042, 31.173624],
              [121.318584, 31.170256],
              [121.323854, 31.162933],
              [121.327218, 31.156856],
              [121.328775, 31.156665],
              [121.331528, 31.15205],
              [121.331292, 31.149772],
              [121.333711, 31.148765],
              [121.335477, 31.143862],
              [121.336728, 31.14355],
              [121.338814, 31.14017],
              [121.33677, 31.138971],
              [121.342095, 31.134655],
              [121.344681, 31.130338],
              [121.344014, 31.129451],
              [121.346002, 31.126202],
              [121.34489, 31.12577],
              [121.347545, 31.121969],
              [121.346753, 31.121657],
              [121.349589, 31.117748],
              [121.353065, 31.117604],
              [121.35066, 31.115554],
              [121.353774, 31.111512],
              [121.356026, 31.112532],
              [121.357014, 31.110529],
              [121.352217, 31.106487],
              [121.351675, 31.107735],
              [121.348532, 31.106655],
              [121.351341, 31.099255],
              [121.35839, 31.100791],
              [121.359085, 31.098931],
              [121.362756, 31.099771],
              [121.368289, 31.088976],
              [121.372016, 31.079871],
              [121.370625, 31.078372],
              [121.368804, 31.079127],
              [121.365481, 31.077892],
              [121.364341, 31.073705],
              [121.362116, 31.072601],
              [121.364424, 31.069878],
              [121.363743, 31.068354],
              [121.357278, 31.066758],
              [121.358195, 31.064047],
              [121.35344, 31.061287],
              [121.343444, 31.059139],
              [121.341456, 31.062763],
              [121.335338, 31.060435],
              [121.335102, 31.04564],
              [121.33367, 31.040695],
              [121.334017, 31.031922],
              [121.333308, 31.030686],
              [121.333892, 31.026917],
              [121.333725, 31.015657],
              [121.333072, 31.01334],
              [121.339898, 31.013857],
              [121.34279, 31.014817],
              [121.34425, 31.013941],
              [121.339829, 31.010267],
              [121.33823, 31.006197],
              [121.330347, 30.996905],
              [121.327482, 30.995896],
              [121.326773, 30.994479],
              [121.326898, 30.989964],
              [121.3258, 30.9833],
              [121.327371, 30.980658],
              [121.329554, 30.981318],
              [121.334406, 30.980694],
              [121.34375, 30.976599],
              [121.351258, 30.975986],
              [121.35871, 30.97786]
            ]
          ]
        ]
      }
    },
    {
      "type": "Feature",
      "properties": {
        "adcode": 310114,
        "name": "嘉定区",
        "center": [121.250333, 31.383524],
        "centroid": [121.24439, 31.358138],
        "childrenNum": 0,
        "level": "district",
        "parent": { "adcode": 310000 },
        "subFeatureIndex": 9,
        "acroutes": [100000, 310000]
      },
      "geometry": {
        "type": "MultiPolygon",
        "coordinates": [
          [
            [
              [121.153743, 31.276646],
              [121.153924, 31.272061],
              [121.151783, 31.267632],
              [121.155537, 31.266147],
              [121.157845, 31.270541],
              [121.161057, 31.26762],
              [121.162614, 31.269176],
              [121.167661, 31.263944],
              [121.168036, 31.259622],
              [121.170386, 31.259119],
              [121.16894, 31.256197],
              [121.171415, 31.254928],
              [121.174251, 31.256856],
              [121.176768, 31.254605],
              [121.178798, 31.255862],
              [121.17934, 31.253419],
              [121.181537, 31.254413],
              [121.183928, 31.252246],
              [121.186444, 31.252329],
              [121.188377, 31.25476],
              [121.193021, 31.253623],
              [121.193368, 31.251455],
              [121.19626, 31.251228],
              [121.19608, 31.253395],
              [121.199848, 31.255239],
              [121.203143, 31.255814],
              [121.202865, 31.257131],
              [121.206368, 31.260065],
              [121.208482, 31.25749],
              [121.209816, 31.258017],
              [121.209761, 31.260831],
              [121.212625, 31.259837],
              [121.214182, 31.254353],
              [121.221273, 31.256293],
              [121.220216, 31.257406],
              [121.223859, 31.259035],
              [121.223539, 31.260532],
              [121.229198, 31.261717],
              [121.229087, 31.262711],
              [121.235177, 31.262699],
              [121.237693, 31.262088],
              [121.242253, 31.25937],
              [121.246577, 31.259801],
              [121.246758, 31.258448],
              [121.254183, 31.258688],
              [121.254405, 31.259634],
              [121.260217, 31.258328],
              [121.263985, 31.259155],
              [121.264444, 31.256496],
              [121.271284, 31.252258],
              [121.275302, 31.253527],
              [121.280363, 31.251886],
              [121.284228, 31.251838],
              [121.28142, 31.248174],
              [121.283742, 31.245192],
              [121.287301, 31.243276],
              [121.288538, 31.238198],
              [121.29264, 31.232761],
              [121.296922, 31.231048],
              [121.302998, 31.230605],
              [121.315386, 31.227204],
              [121.322853, 31.229623],
              [121.32612, 31.229575],
              [121.333878, 31.232006],
              [121.334935, 31.235887],
              [121.338355, 31.237528],
              [121.340872, 31.239947],
              [121.345585, 31.239887],
              [121.344612, 31.243552],
              [121.346822, 31.241037],
              [121.347281, 31.243192],
              [121.348922, 31.243863],
              [121.350131, 31.241839],
              [121.348741, 31.239372],
              [121.352856, 31.238342],
              [121.354177, 31.237121],
              [121.356054, 31.237803],
              [121.356068, 31.240151],
              [121.360086, 31.240498],
              [121.36067, 31.238642],
              [121.363117, 31.240091],
              [121.366718, 31.246342],
              [121.368387, 31.247384],
              [121.372349, 31.243755],
              [121.3731, 31.245683],
              [121.375686, 31.244486],
              [121.377216, 31.247719],
              [121.380886, 31.257766],
              [121.377508, 31.259478],
              [121.375158, 31.25949],
              [121.374574, 31.257059],
              [121.365884, 31.257682],
              [121.366023, 31.259358],
              [121.361783, 31.259945],
              [121.358918, 31.263609],
              [121.35985, 31.266997],
              [121.362227, 31.26756],
              [121.366996, 31.266662],
              [121.367441, 31.269631],
              [121.361268, 31.27084],
              [121.358918, 31.268793],
              [121.35732, 31.271415],
              [121.344723, 31.273917],
              [121.343541, 31.271439],
              [121.338272, 31.272839],
              [121.338883, 31.275006],
              [121.336228, 31.275461],
              [121.336061, 31.280046],
              [121.335004, 31.279711],
              [121.332738, 31.286067],
              [121.328998, 31.284595],
              [121.327316, 31.285182],
              [121.326384, 31.288928],
              [121.332821, 31.290915],
              [121.332224, 31.292998],
              [121.336506, 31.294901],
              [121.33588, 31.297044],
              [121.334198, 31.296122],
              [121.331306, 31.301436],
              [121.335686, 31.303339],
              [121.338981, 31.310101],
              [121.340357, 31.311525],
              [121.343458, 31.317185],
              [121.347698, 31.316706],
              [121.347782, 31.319542],
              [121.3492, 31.321313],
              [121.345585, 31.320835],
              [121.344848, 31.323335],
              [121.347517, 31.324077],
              [121.345932, 31.32513],
              [121.342318, 31.331005],
              [121.341692, 31.33329],
              [121.342846, 31.336066],
              [121.34628, 31.336329],
              [121.344347, 31.341928],
              [121.342401, 31.341306],
              [121.338925, 31.344775],
              [121.337521, 31.344536],
              [121.336464, 31.346821],
              [121.332502, 31.347084],
              [121.332251, 31.351307],
              [121.334643, 31.3509],
              [121.337743, 31.3534],
              [121.337118, 31.356019],
              [121.341428, 31.357802],
              [121.340329, 31.360517],
              [121.338911, 31.360995],
              [121.337576, 31.364189],
              [121.335018, 31.366963],
              [121.335991, 31.370097],
              [121.333336, 31.371281],
              [121.334003, 31.37262],
              [121.331389, 31.37433],
              [121.328734, 31.377344],
              [121.331306, 31.378456],
              [121.330527, 31.381135],
              [121.326607, 31.381063],
              [121.323061, 31.388489],
              [121.320419, 31.389123],
              [121.323339, 31.393331],
              [121.323145, 31.395866],
              [121.321476, 31.397576],
              [121.317444, 31.39742],
              [121.314747, 31.398365],
              [121.315637, 31.402729],
              [121.317375, 31.403661],
              [121.314316, 31.4072],
              [121.32847, 31.411958],
              [121.330444, 31.410308],
              [121.333141, 31.410739],
              [121.332488, 31.413117],
              [121.334101, 31.413655],
              [121.33239, 31.416943],
              [121.336561, 31.419058],
              [121.336422, 31.424999],
              [121.335143, 31.429158],
              [121.336645, 31.429493],
              [121.336603, 31.432254],
              [121.333656, 31.440118],
              [121.331236, 31.439652],
              [121.328261, 31.441098],
              [121.326106, 31.448041],
              [121.327399, 31.448829],
              [121.324132, 31.455007],
              [121.319794, 31.454876],
              [121.318654, 31.456895],
              [121.320531, 31.457289],
              [121.317778, 31.460109],
              [121.317277, 31.466262],
              [121.320058, 31.466728],
              [121.320572, 31.469058],
              [121.317958, 31.468472],
              [121.31426, 31.472474],
              [121.318807, 31.475055],
              [121.315956, 31.481219],
              [121.313342, 31.480598],
              [121.310214, 31.487311],
              [121.308629, 31.488649],
              [121.31027, 31.489735],
              [121.309171, 31.492495],
              [121.306544, 31.493307],
              [121.304667, 31.495779],
              [121.300857, 31.496747],
              [121.300496, 31.494537],
              [121.298563, 31.493713],
              [121.298605, 31.491515],
              [121.293488, 31.489807],
              [121.29061, 31.491694],
              [121.289387, 31.489031],
              [121.285355, 31.490679],
              [121.283686, 31.489795],
              [121.279696, 31.490404],
              [121.280321, 31.488672],
              [121.276442, 31.486654],
              [121.27622, 31.485376],
              [121.272049, 31.484337],
              [121.268879, 31.487466],
              [121.267322, 31.486224],
              [121.267433, 31.483357],
              [121.265153, 31.48313],
              [121.261732, 31.480777],
              [121.261454, 31.478854],
              [121.254794, 31.477635],
              [121.255643, 31.483632],
              [121.253627, 31.483082],
              [121.253362, 31.479809],
              [121.251221, 31.479606],
              [121.249692, 31.477623],
              [121.247064, 31.477062],
              [121.245813, 31.479881],
              [121.248176, 31.481876],
              [121.244409, 31.481183],
              [121.243797, 31.487311],
              [121.241141, 31.490906],
              [121.240877, 31.493701],
              [121.237234, 31.491957],
              [121.234746, 31.492686],
              [121.235413, 31.488099],
              [121.232994, 31.487896],
              [121.22867, 31.482127],
              [121.230839, 31.481111],
              [121.230352, 31.477432],
              [121.226209, 31.477683],
              [121.225361, 31.476022],
              [121.220731, 31.47607],
              [121.219062, 31.475222],
              [121.21364, 31.475939],
              [121.21503, 31.477528],
              [121.214377, 31.479128],
              [121.206368, 31.474995],
              [121.203421, 31.472331],
              [121.202906, 31.469356],
              [121.195051, 31.467827],
              [121.186055, 31.460814],
              [121.185457, 31.457468],
              [121.186055, 31.454362],
              [121.180814, 31.451458],
              [121.174974, 31.449295],
              [121.16983, 31.450024],
              [121.16773, 31.448315],
              [121.166048, 31.450168],
              [121.163045, 31.448865],
              [121.160917, 31.449678],
              [121.147348, 31.44393],
              [121.146569, 31.439006],
              [121.14782, 31.436186],
              [121.152492, 31.433604],
              [121.158484, 31.432254],
              [121.162711, 31.432218],
              [121.16253, 31.429565],
              [121.16431, 31.427222],
              [121.162002, 31.427951],
              [121.161362, 31.425776],
              [121.155273, 31.42574],
              [121.151157, 31.421796],
              [121.146249, 31.421078],
              [121.146208, 31.419704],
              [121.149266, 31.41913],
              [121.148905, 31.415867],
              [121.153493, 31.413679],
              [121.155523, 31.413835],
              [121.154508, 31.411575],
              [121.15886, 31.410117],
              [121.157887, 31.407893],
              [121.153104, 31.405837],
              [121.153896, 31.403685],
              [121.15049, 31.402215],
              [121.149586, 31.399381],
              [121.152742, 31.398174],
              [121.147653, 31.397325],
              [121.149475, 31.394503],
              [121.14383, 31.392327],
              [121.147097, 31.3899],
              [121.148988, 31.38691],
              [121.148432, 31.385404],
              [121.141425, 31.38355],
              [121.141049, 31.384531],
              [121.137518, 31.382785],
              [121.138408, 31.381147],
              [121.131762, 31.378815],
              [121.131247, 31.379664],
              [121.124268, 31.376722],
              [121.12328, 31.37848],
              [121.118206, 31.375837],
              [121.113757, 31.37445],
              [121.11523, 31.371137],
              [121.119082, 31.370563],
              [121.120208, 31.368674],
              [121.113173, 31.36688],
              [121.112853, 31.365133],
              [121.10928, 31.364703],
              [121.10889, 31.366509],
              [121.106958, 31.366593],
              [121.106749, 31.364535],
              [121.108251, 31.360457],
              [121.107361, 31.354763],
              [121.108418, 31.354034],
              [121.10832, 31.350649],
              [121.111157, 31.351534],
              [121.111838, 31.350517],
              [121.117246, 31.351689],
              [121.120194, 31.347562],
              [121.11733, 31.34712],
              [121.117969, 31.343447],
              [121.123948, 31.342753],
              [121.130441, 31.344213],
              [121.130816, 31.341509],
              [121.130121, 31.334702],
              [121.13115, 31.332106],
              [121.132582, 31.331962],
              [121.133305, 31.325585],
              [121.131539, 31.325441],
              [121.131637, 31.32324],
              [121.127257, 31.319315],
              [121.127076, 31.316934],
              [121.128633, 31.314265],
              [121.127966, 31.311884],
              [121.129773, 31.308306],
              [121.129134, 31.307528],
              [121.129954, 31.302597],
              [121.133778, 31.30207],
              [121.139645, 31.302992],
              [121.13895, 31.305625],
              [121.143774, 31.309706],
              [121.146903, 31.305936],
              [121.150782, 31.299018],
              [121.148933, 31.298875],
              [121.152714, 31.294075],
              [121.151282, 31.291933],
              [121.154689, 31.290053],
              [121.156399, 31.287408],
              [121.159305, 31.28766],
              [121.161293, 31.283985],
              [121.159402, 31.281579],
              [121.155537, 31.280765],
              [121.155481, 31.278442],
              [121.153743, 31.276646]
            ]
          ]
        ]
      }
    },
    {
      "type": "Feature",
      "properties": {
        "adcode": 310118,
        "name": "青浦区",
        "center": [121.113021, 31.151209],
        "centroid": [121.085188, 31.124681],
        "childrenNum": 0,
        "level": "district",
        "parent": { "adcode": 310000 },
        "subFeatureIndex": 13,
        "acroutes": [100000, 310000]
      },
      "geometry": {
        "type": "MultiPolygon",
        "coordinates": [
          [
            [
              [121.153743, 31.276646],
              [121.150392, 31.275437],
              [121.142996, 31.275473],
              [121.142885, 31.277664],
              [121.141161, 31.276742],
              [121.137601, 31.277592],
              [121.138032, 31.278753],
              [121.131678, 31.281363],
              [121.131053, 31.280106],
              [121.127215, 31.281207],
              [121.124323, 31.283111],
              [121.125018, 31.284404],
              [121.120361, 31.286151],
              [121.11929, 31.285122],
              [121.114994, 31.285265],
              [121.111115, 31.281746],
              [121.106666, 31.276706],
              [121.103829, 31.27533],
              [121.105442, 31.273654],
              [121.09881, 31.276251],
              [121.095404, 31.287001],
              [121.093096, 31.28821],
              [121.090134, 31.291909],
              [121.086909, 31.291717],
              [121.087326, 31.290664],
              [121.084698, 31.2876],
              [121.081361, 31.277257],
              [121.084545, 31.275713],
              [121.082154, 31.271535],
              [121.080416, 31.270158],
              [121.072741, 31.26914],
              [121.068695, 31.268098],
              [121.063245, 31.267907],
              [121.061952, 31.257945],
              [121.060979, 31.246486],
              [121.057669, 31.246749],
              [121.061646, 31.24524],
              [121.064343, 31.246138],
              [121.063565, 31.242222],
              [121.063898, 31.238438],
              [121.061243, 31.237827],
              [121.062605, 31.234689],
              [121.06458, 31.232965],
              [121.067388, 31.232929],
              [121.06718, 31.230917],
              [121.064649, 31.230785],
              [121.064719, 31.227275],
              [121.0628, 31.226964],
              [121.062633, 31.224664],
              [121.065608, 31.211871],
              [121.067805, 31.201005],
              [121.069209, 31.196524],
              [121.066609, 31.197183],
              [121.06679, 31.194966],
              [121.069599, 31.195314],
              [121.070113, 31.193612],
              [121.072185, 31.193169],
              [121.07256, 31.191527],
              [121.070614, 31.1913],
              [121.07035, 31.188735],
              [121.071684, 31.185955],
              [121.068751, 31.184889],
              [121.069474, 31.182888],
              [121.074993, 31.184386],
              [121.075591, 31.182852],
              [121.071225, 31.181462],
              [121.071406, 31.179472],
              [121.074229, 31.176225],
              [121.075424, 31.173444],
              [121.072532, 31.172701],
              [121.072379, 31.169609],
              [121.075466, 31.170316],
              [121.077371, 31.16454],
              [121.07313, 31.163257],
              [121.0737, 31.161711],
              [121.076787, 31.162622],
              [121.07605, 31.160536],
              [121.077023, 31.158451],
              [121.073839, 31.157072],
              [121.072046, 31.153512],
              [121.067777, 31.152289],
              [121.069126, 31.148705],
              [121.06572, 31.148597],
              [121.066067, 31.150947],
              [121.064135, 31.150839],
              [121.062564, 31.153129],
              [121.057378, 31.152781],
              [121.055834, 31.150659],
              [121.050273, 31.150719],
              [121.049133, 31.154615],
              [121.04542, 31.154028],
              [121.045254, 31.151582],
              [121.041472, 31.14982],
              [121.041541, 31.146931],
              [121.044781, 31.145528],
              [121.041819, 31.138899],
              [121.038649, 31.136909],
              [121.036258, 31.137376],
              [121.036119, 31.140325],
              [121.033088, 31.142208],
              [121.028778, 31.141249],
              [121.028375, 31.143874],
              [121.02672, 31.143766],
              [121.025677, 31.140769],
              [121.022271, 31.140457],
              [121.022813, 31.138311],
              [121.018489, 31.134103],
              [121.007269, 31.13342],
              [120.991252, 31.13318],
              [120.983911, 31.131705],
              [120.952642, 31.138251],
              [120.93034, 31.141404],
              [120.916923, 31.136189],
              [120.905397, 31.134211],
              [120.89921, 31.136057],
              [120.881289, 31.134727],
              [120.876422, 31.131489],
              [120.872349, 31.127161],
              [120.871014, 31.123804],
              [120.870597, 31.119715],
              [120.865967, 31.11475],
              [120.862241, 31.112508],
              [120.860225, 31.10933],
              [120.857917, 31.108526],
              [120.856804, 31.102829],
              [120.859766, 31.100287],
              [120.863993, 31.100299],
              [120.865744, 31.097624],
              [120.869582, 31.097216],
              [120.869818, 31.098943],
              [120.872543, 31.098884],
              [120.873169, 31.100323],
              [120.876631, 31.099939],
              [120.876005, 31.097864],
              [120.878967, 31.09838],
              [120.878077, 31.095753],
              [120.887476, 31.094074],
              [120.891021, 31.094302],
              [120.891216, 31.09718],
              [120.892842, 31.096533],
              [120.892175, 31.094194],
              [120.895415, 31.090703],
              [120.896694, 31.086649],
              [120.899294, 31.086937],
              [120.902116, 31.085653],
              [120.901671, 31.084094],
              [120.90473, 31.080495],
              [120.904619, 31.078528],
              [120.899614, 31.07836],
              [120.898863, 31.070514],
              [120.895915, 31.063075],
              [120.894622, 31.058659],
              [120.894567, 31.053896],
              [120.895442, 31.050332],
              [120.897208, 31.04822],
              [120.897027, 31.04558],
              [120.899739, 31.039603],
              [120.901977, 31.037647],
              [120.901338, 31.0255],
              [120.900559, 31.020423],
              [120.901365, 31.017494],
              [120.910055, 31.016942],
              [120.909944, 31.012644],
              [120.911014, 31.010555],
              [120.918105, 31.012788],
              [120.926155, 31.010423],
              [120.92699, 31.012068],
              [120.931383, 31.01178],
              [120.933789, 31.010027],
              [120.938085, 31.009007],
              [120.940087, 31.010027],
              [120.935749, 31.015381],
              [120.936305, 31.01711],
              [120.949972, 31.017638],
              [120.951168, 31.024012],
              [120.948735, 31.025068],
              [120.949124, 31.029953],
              [120.951085, 31.029077],
              [120.952197, 31.030254],
              [120.958301, 31.028573],
              [120.960483, 31.021659],
              [120.964293, 31.020771],
              [120.964849, 31.019751],
              [120.963209, 31.016594],
              [120.970202, 31.016149],
              [120.982993, 31.016089],
              [120.983855, 31.014445],
              [120.989514, 31.014397],
              [120.989987, 31.010495],
              [120.991933, 31.008154],
              [120.991057, 31.00747],
              [120.992086, 31.003424],
              [120.992045, 30.997109],
              [120.989834, 30.996664],
              [120.990515, 30.994551],
              [120.994839, 30.99526],
              [120.994603, 30.991922],
              [120.997133, 30.989232],
              [120.999344, 30.980106],
              [121.000832, 30.980466],
              [121.002361, 30.97762],
              [121.000567, 30.977007],
              [121.000512, 30.973933],
              [120.99737, 30.972444],
              [120.993143, 30.972119],
              [120.991433, 30.968372],
              [120.993699, 30.964024],
              [120.992601, 30.962835],
              [120.994756, 30.958703],
              [120.991683, 30.958211],
              [120.992531, 30.955028],
              [120.994797, 30.954824],
              [120.995368, 30.950367],
              [120.99673, 30.950307],
              [121.002055, 30.95104],
              [121.002653, 30.947015],
              [121.00763, 30.947628],
              [121.010175, 30.950727],
              [121.015361, 30.948169],
              [121.013345, 30.946811],
              [121.011079, 30.947184],
              [121.011607, 30.943604],
              [121.013831, 30.944168],
              [121.015291, 30.940288],
              [121.017697, 30.939219],
              [121.016932, 30.941333],
              [121.019462, 30.941165],
              [121.028041, 30.94394],
              [121.027902, 30.945826],
              [121.033213, 30.947111],
              [121.034659, 30.952974],
              [121.036258, 30.957094],
              [121.040401, 30.956493],
              [121.043516, 30.957514],
              [121.042626, 30.960433],
              [121.045949, 30.963448],
              [121.043112, 30.969429],
              [121.0467, 30.970246],
              [121.047409, 30.969033],
              [121.051024, 30.969369],
              [121.053262, 30.964445],
              [121.05735, 30.965346],
              [121.056891, 30.96191],
              [121.059505, 30.959184],
              [121.060339, 30.956517],
              [121.065344, 30.95516],
              [121.07231, 30.955088],
              [121.076495, 30.955809],
              [121.076634, 30.957574],
              [121.079109, 30.958283],
              [121.078539, 30.960025],
              [121.080736, 30.960181],
              [121.081236, 30.962283],
              [121.088174, 30.962151],
              [121.088035, 30.964168],
              [121.093555, 30.964673],
              [121.097489, 30.965634],
              [121.095779, 30.968408],
              [121.095557, 30.974245],
              [121.099172, 30.973068],
              [121.099686, 30.980994],
              [121.099227, 30.981979],
              [121.100145, 30.994935],
              [121.104107, 30.99508],
              [121.104205, 31.007998],
              [121.10205, 31.011756],
              [121.093026, 31.020207],
              [121.085532, 31.0255],
              [121.089509, 31.027901],
              [121.091177, 31.025933],
              [121.096405, 31.026437],
              [121.096975, 31.031454],
              [121.099936, 31.031202],
              [121.100284, 31.03341],
              [121.097767, 31.038871],
              [121.095863, 31.040479],
              [121.09311, 31.040719],
              [121.09621, 31.044812],
              [121.090259, 31.048136],
              [121.089926, 31.05194],
              [121.087159, 31.052948],
              [121.085866, 31.050224],
              [121.082404, 31.054208],
              [121.080972, 31.056896],
              [121.08442, 31.058779],
              [121.086519, 31.061167],
              [121.085935, 31.062847],
              [121.088202, 31.064671],
              [121.092929, 31.064539],
              [121.094542, 31.061899],
              [121.093012, 31.058443],
              [121.094639, 31.056332],
              [121.098337, 31.05662],
              [121.101146, 31.053644],
              [121.101813, 31.05728],
              [121.10839, 31.057939],
              [121.10864, 31.05662],
              [121.118206, 31.056068],
              [121.117997, 31.058407],
              [121.120708, 31.057268],
              [121.12588, 31.057376],
              [121.127757, 31.059751],
              [121.126395, 31.059811],
              [121.126228, 31.06665],
              [121.122238, 31.067178],
              [121.121543, 31.07019],
              [121.118386, 31.075948],
              [121.117121, 31.075624],
              [121.112603, 31.077628],
              [121.107264, 31.082115],
              [121.102912, 31.080219],
              [121.100687, 31.080939],
              [121.099408, 31.085941],
              [121.10084, 31.088688],
              [121.097601, 31.093534],
              [121.099519, 31.094158],
              [121.099853, 31.096593],
              [121.097976, 31.099339],
              [121.100618, 31.098428],
              [121.103843, 31.100539],
              [121.103551, 31.102638],
              [121.108751, 31.107159],
              [121.112589, 31.111932],
              [121.114368, 31.109797],
              [121.11612, 31.110973],
              [121.117733, 31.108874],
              [121.120959, 31.107747],
              [121.125505, 31.103369],
              [121.127688, 31.103309],
              [121.130691, 31.100527],
              [121.131942, 31.10205],
              [121.133319, 31.099075],
              [121.135766, 31.09808],
              [121.141605, 31.09868],
              [121.141897, 31.096893],
              [121.144483, 31.097456],
              [121.14586, 31.093954],
              [121.149461, 31.095297],
              [121.151157, 31.091651],
              [121.152867, 31.092035],
              [121.153465, 31.09014],
              [121.155161, 31.090475],
              [121.155384, 31.093162],
              [121.156733, 31.09315],
              [121.156788, 31.098943],
              [121.154341, 31.098884],
              [121.154397, 31.101846],
              [121.159569, 31.100539],
              [121.165492, 31.101438],
              [121.1652, 31.104269],
              [121.166799, 31.104293],
              [121.166451, 31.10831],
              [121.170567, 31.107819],
              [121.170497, 31.109054],
              [121.174487, 31.108538],
              [121.172986, 31.114091],
              [121.17521, 31.115242],
              [121.174321, 31.117868],
              [121.17642, 31.119007],
              [121.178839, 31.117149],
              [121.183817, 31.118695],
              [121.183858, 31.124295],
              [121.181815, 31.124295],
              [121.181842, 31.126957],
              [121.180341, 31.127425],
              [121.179868, 31.131873],
              [121.181662, 31.131777],
              [121.181968, 31.143478],
              [121.194717, 31.138179],
              [121.199653, 31.139582],
              [121.201627, 31.140937],
              [121.200348, 31.137832],
              [121.206174, 31.138299],
              [121.208287, 31.135686],
              [121.22055, 31.138383],
              [121.227988, 31.139091],
              [121.226765, 31.134139],
              [121.223581, 31.126442],
              [121.221732, 31.119931],
              [121.221301, 31.115074],
              [121.224095, 31.115146],
              [121.233884, 31.117316],
              [121.235816, 31.118959],
              [121.236831, 31.125698],
              [121.239848, 31.126238],
              [121.244534, 31.125398],
              [121.245326, 31.129295],
              [121.239348, 31.129955],
              [121.245479, 31.130758],
              [121.246995, 31.134163],
              [121.25378, 31.13264],
              [121.258048, 31.132353],
              [121.257965, 31.127077],
              [121.261607, 31.127173],
              [121.26062, 31.132269],
              [121.263623, 31.135422],
              [121.26557, 31.134787],
              [121.265737, 31.136393],
              [121.280989, 31.133252],
              [121.287482, 31.139954],
              [121.284173, 31.142627],
              [121.281781, 31.142016],
              [121.279293, 31.145708],
              [121.277012, 31.144174],
              [121.276415, 31.145852],
              [121.278723, 31.14825],
              [121.277763, 31.152265],
              [121.28028, 31.150539],
              [121.283825, 31.150839],
              [121.28313, 31.152158],
              [121.285438, 31.153452],
              [121.287134, 31.152313],
              [121.295435, 31.15392],
              [121.301441, 31.15549],
              [121.316221, 31.160189],
              [121.318056, 31.157564],
              [121.320934, 31.158487],
              [121.322491, 31.162394],
              [121.323854, 31.162933],
              [121.318584, 31.170256],
              [121.318042, 31.173624],
              [121.316304, 31.176836],
              [121.310784, 31.18423],
              [121.30856, 31.188388],
              [121.300565, 31.197027],
              [121.297506, 31.201412],
              [121.294837, 31.203077],
              [121.292431, 31.202514],
              [121.292126, 31.200621],
              [121.287329, 31.196332],
              [121.284034, 31.194391],
              [121.277388, 31.193576],
              [121.271701, 31.198309],
              [121.266724, 31.203257],
              [121.264777, 31.203317],
              [121.263053, 31.205701],
              [121.26468, 31.206731],
              [121.263846, 31.208912],
              [121.259397, 31.212769],
              [121.261218, 31.215081],
              [121.259675, 31.218148],
              [121.25745, 31.220208],
              [121.258215, 31.222772],
              [121.256588, 31.226329],
              [121.258006, 31.226868],
              [121.257158, 31.230701],
              [121.254155, 31.23312],
              [121.252792, 31.236965],
              [121.251082, 31.238198],
              [121.249692, 31.236534],
              [121.247912, 31.240917],
              [121.241391, 31.240222],
              [121.239932, 31.241061],
              [121.241683, 31.247348],
              [121.24591, 31.248821],
              [121.247314, 31.253287],
              [121.254183, 31.258688],
              [121.246758, 31.258448],
              [121.246577, 31.259801],
              [121.242253, 31.25937],
              [121.237693, 31.262088],
              [121.235177, 31.262699],
              [121.229087, 31.262711],
              [121.229198, 31.261717],
              [121.223539, 31.260532],
              [121.223859, 31.259035],
              [121.220216, 31.257406],
              [121.221273, 31.256293],
              [121.214182, 31.254353],
              [121.212625, 31.259837],
              [121.209761, 31.260831],
              [121.209816, 31.258017],
              [121.208482, 31.25749],
              [121.206368, 31.260065],
              [121.202865, 31.257131],
              [121.203143, 31.255814],
              [121.199848, 31.255239],
              [121.19608, 31.253395],
              [121.19626, 31.251228],
              [121.193368, 31.251455],
              [121.193021, 31.253623],
              [121.188377, 31.25476],
              [121.186444, 31.252329],
              [121.183928, 31.252246],
              [121.181537, 31.254413],
              [121.17934, 31.253419],
              [121.178798, 31.255862],
              [121.176768, 31.254605],
              [121.174251, 31.256856],
              [121.171415, 31.254928],
              [121.16894, 31.256197],
              [121.170386, 31.259119],
              [121.168036, 31.259622],
              [121.167661, 31.263944],
              [121.162614, 31.269176],
              [121.161057, 31.26762],
              [121.157845, 31.270541],
              [121.155537, 31.266147],
              [121.151783, 31.267632],
              [121.153924, 31.272061],
              [121.153743, 31.276646]
            ]
          ]
        ]
      }
    }
  ]
}
