{
  "type": "FeatureCollection",
  "features": [
    {
      "type": "Feature",
      "properties": {
        "use": 1
      },
      "geometry": {
        "coordinates": [
          [
            [121.38556727204082, 31.22245356368188],
            [121.38596315357393, 31.222677701064143],
            [121.38621343594707, 31.22278978263487],
            [121.38621458388877, 31.22322397363483],
            [121.38620692249981, 31.223595000152983],
            [121.38616416382484, 31.223762154827114],
            [121.38585874471949, 31.223751707668526],
            [121.38556222327651, 31.223748612534663],
            [121.38554569015095, 31.223465430868718],
            [121.38556474765866, 31.223101088108272],
            [121.38556727204082, 31.22245356368188]
          ]
        ],
        "type": "Polygon"
      },
      "id": 0
    },
    {
      "type": "Feature",
      "properties": {
        "use": 2
      },
      "geometry": {
        "coordinates": [
          [
            [121.38512786449365, 31.223326311705122],
            [121.38508634416681, 31.223036843518273],
            [121.38508296737308, 31.222698447366582],
            [121.38505336690045, 31.2223743218548],
            [121.38504095063483, 31.22223468462181],
            [121.3850476061358, 31.22205835106763],
            [121.38504318994052, 31.221357767451806],
            [121.38504436089963, 31.22104617121081],
            [121.38507413950867, 31.220710110449033],
            [121.38562404832709, 31.220722706948735],
            [121.38558650903073, 31.222060639402045],
            [121.3855679960347, 31.222400977062442],
            [121.38556773938255, 31.2227296056287],
            [121.38556748273047, 31.223060185737815],
            [121.38554896973437, 31.223398571855355],
            [121.38546960778095, 31.223450433875076],
            [121.38533396828478, 31.223480906621397],
            [121.38523536521842, 31.223415022449625],
            [121.38512786449365, 31.223326311705122]
          ]
        ],
        "type": "Polygon"
      }
    },
    {
      "type": "Feature",
      "properties": {
        "use": 1
      },
      "geometry": {
        "coordinates": [
          [
            [121.38462285623183, 31.223806754640563],
            [121.3844200091778, 31.2236981701582],
            [121.3844418590724, 31.22360817412828],
            [121.3844408457363, 31.22351817806002],
            [121.38443052992523, 31.22343531307901],
            [121.38438238689628, 31.223282323704417],
            [121.38434498926853, 31.22314187509484],
            [121.38428355974597, 31.222981048212127],
            [121.38423464439461, 31.222803466418526],
            [121.38419127323355, 31.222724946270976],
            [121.3841479020725, 31.222646426123426],
            [121.3840815174002, 31.222493182542607],
            [121.38398165136539, 31.22227183846607],
            [121.38393477623777, 31.22206308699252],
            [121.38387075491408, 31.221689236891464],
            [121.3838802065128, 31.220756447495518],
            [121.38507112786715, 31.220719023137676],
            [121.3850390342628, 31.221030915542432],
            [121.38504927993468, 31.221401339378282],
            [121.3850418038925, 31.22193393133051],
            [121.38504345215202, 31.222219524240124],
            [121.385070808159, 31.222551899881054],
            [121.38509106359345, 31.223016995222537],
            [121.38512821856426, 31.22332631482671],
            [121.38523029982774, 31.223411833422723],
            [121.3853331092649, 31.223481161873217],
            [121.38547150815835, 31.223449468494458],
            [121.38554926059425, 31.223399338765738],
            [121.38554650421196, 31.223475185468708],
            [121.38555102954507, 31.223569713087947],
            [121.38556444923898, 31.22374755976974],
            [121.38506749933748, 31.22374875514376],
            [121.38462285623183, 31.223806754640563]
          ]
        ],
        "type": "Polygon"
      },
      "id": 2
    },
    {
      "type": "Feature",
      "properties": {
        "use": 1
      },
      "geometry": {
        "coordinates": [
          [
            [121.38239381128835, 31.2240129867601],
            [121.38242904356287, 31.22359061674446],
            [121.3824114959372, 31.223541975635584],
            [121.38239394831024, 31.223489105664683],
            [121.38233468452654, 31.223407329901875],
            [121.38226333069412, 31.22323631543827],
            [121.38190117470944, 31.223038028633056],
            [121.38165120840142, 31.222431997761888],
            [121.38152301808401, 31.221946766027315],
            [121.38136398619929, 31.221261787756305],
            [121.38237931076026, 31.220957700727624],
            [121.38307406061966, 31.220835827312413],
            [121.38306665656552, 31.22167192339768],
            [121.38310706680281, 31.221990057000085],
            [121.38314223301012, 31.222267830015056],
            [121.38344815669734, 31.223105693876306],
            [121.38364681040255, 31.223320708022115],
            [121.38385824522572, 31.223497467688347],
            [121.38406940686134, 31.22358038259869],
            [121.38430613072907, 31.223646902906793],
            [121.3844406056571, 31.223713423298882],
            [121.38463259561195, 31.223807268175904],
            [121.38400100574441, 31.2238272748027],
            [121.38347805537575, 31.223874605799324],
            [121.38239381128835, 31.2240129867601]
          ]
        ],
        "type": "Polygon"
      },
      "id": 3
    },
    {
      "type": "Feature",
      "properties": {
        "use": 1
      },
      "geometry": {
        "coordinates": [
          [
            [121.37795725037921, 31.225381928710036],
            [121.37782995237484, 31.224027331077323],
            [121.37886425573262, 31.22396200736818],
            [121.37990516417335, 31.223907980295365],
            [121.38084451051216, 31.22370588461073],
            [121.38142184428908, 31.22363850889985],
            [121.38190683059614, 31.223502631531765],
            [121.38214465930416, 31.22347458095719],
            [121.38233117911409, 31.22340664229843],
            [121.38238749811414, 31.223477781152575],
            [121.38242982377787, 31.223596785691132],
            [121.38242585064376, 31.223782940351803],
            [121.38239071096683, 31.22401588650598],
            [121.3816207558612, 31.224422437765966],
            [121.38069939779518, 31.224704102067406],
            [121.37994959186113, 31.225033856176026],
            [121.37941401619372, 31.225217052406748],
            [121.37913551684659, 31.225272011206243],
            [121.37795725037921, 31.225381928710036]
          ]
        ],
        "type": "Polygon"
      }
    },
    {
      "type": "Feature",
      "properties": {
        "use": 2
      },
      "geometry": {
        "coordinates": [
          [
            [121.37782871221822, 31.224026270733276],
            [121.37720744444428, 31.223018668364112],
            [121.37684325299233, 31.22190114568879],
            [121.37738954017146, 31.221882825441824],
            [121.378150057619, 31.221974426652082],
            [121.37907124776774, 31.221882825438954],
            [121.38022809120827, 31.22166298216503],
            [121.38136351162194, 31.221259934835103],
            [121.38157774189023, 31.2221576288553],
            [121.38196335636991, 31.22325683424532],
            [121.38144920373006, 31.22364155323607],
            [121.38078508990253, 31.223714832836478],
            [121.38005670699522, 31.223898031623165],
            [121.37870705631332, 31.22397131108157],
            [121.37782871221822, 31.224026270733276]
          ]
        ],
        "type": "Polygon"
      }
    },
    {
      "type": "Feature",
      "properties": {
        "use": 1
      },
      "geometry": {
        "coordinates": [
          [
            [121.38405759448256, 31.220159680666825],
            [121.3840220204138, 31.219049260162933],
            [121.3839686593106, 31.218714610330068],
            [121.38398644634503, 31.217923615106656],
            [121.38407538151694, 31.216965285104465],
            [121.38407538151694, 31.216721898160372],
            [121.38444890923654, 31.21675232156285],
            [121.38489358509366, 31.21690443842732],
            [121.38555170536097, 31.216919650100436],
            [121.38644105707533, 31.21682838002569],
            [121.38738376989147, 31.21667626303885],
            [121.38907353814818, 31.216584992729153],
            [121.39038977868398, 31.21637202833034],
            [121.39079888047235, 31.216326393039935],
            [121.39085224157554, 31.217026131742983],
            [121.39015854723817, 31.217147824901474],
            [121.39003403799876, 31.219186162025608],
            [121.38802410312564, 31.219383908811125],
            [121.38713475141128, 31.219429542626244],
            [121.38699533157381, 31.22025890173593],
            [121.38405759448256, 31.220159680666825]
          ]
        ],
        "type": "Polygon"
      }
    },
    {
      "type": "Feature",
      "properties": {
        "use": 1
      },
      "geometry": {
        "coordinates": [
          [
            [121.37273593054908, 31.22179522703813],
            [121.37249835265101, 31.21778255782509],
            [121.37460685650308, 31.21757938017059],
            [121.37502261782646, 31.219763517078363],
            [121.37858628630681, 31.21930637632032],
            [121.37879416696734, 31.220068276356216],
            [121.37534928743713, 31.220423827605586],
            [121.37570565428541, 31.22146507714085],
            [121.37338926977054, 31.22171903870317],
            [121.37273593054908, 31.22179522703813]
          ]
        ],
        "type": "Polygon"
      }
    },
    {
      "type": "Feature",
      "properties": {
        "use": 1
      },
      "geometry": {
        "coordinates": [
          [
            [121.37907924739784, 31.2212873005694],
            [121.3787698951993, 31.220051015725872],
            [121.37860981188965, 31.219320876845416],
            [121.37868096002728, 31.21778452453485],
            [121.38045966345459, 31.217586774404424],
            [121.3822383668819, 31.21737381226218],
            [121.38319886673253, 31.217312965847967],
            [121.38230951501953, 31.21865157791808],
            [121.38172254288861, 31.21929045427008],
            [121.38079761710543, 31.220537771846168],
            [121.3803173671808, 31.220994103432986],
            [121.37907924739784, 31.2212873005694]
          ]
        ],
        "type": "Polygon"
      }
    },
    {
      "type": "Feature",
      "properties": {
        "use": 1
      },
      "geometry": {
        "coordinates": [
          [
            [121.38319856330133, 31.217313391604733],
            [121.38401894251513, 31.21756929383801],
            [121.3839771640663, 31.218244041677412],
            [121.38397249767816, 31.21871281487482],
            [121.38399585241751, 31.218880539080963],
            [121.38402766722895, 31.219164552865053],
            [121.38403041094833, 31.219519007085015],
            [121.38406496947914, 31.220157475089067],
            [121.38248745513363, 31.21839944146842],
            [121.38319856330133, 31.217313391604733]
          ]
        ],
        "type": "Polygon"
      },
      "id": 9
    },
    {
      "type": "Feature",
      "properties": {
        "use": 1
      },
      "geometry": {
        "coordinates": [
          [
            [121.3618732685265, 31.225088711424036],
            [121.36107837120056, 31.22401964499774],
            [121.36010583334576, 31.223306788442116],
            [121.35923123062935, 31.222550675685383],
            [121.35889871659347, 31.22251912713304],
            [121.35849419918634, 31.22218996902903],
            [121.35977239179545, 31.221786009821614],
            [121.36080050324233, 31.221429573793458],
            [121.36249549778984, 31.220764222944354],
            [121.36332028150161, 31.220774244889917],
            [121.36406605331729, 31.220694174649125],
            [121.3649238818399, 31.220514767227854],
            [121.36551833736439, 31.220020036217804],
            [121.36605516824179, 31.2195748441287],
            [121.36644714396908, 31.219185960622852],
            [121.36665049050578, 31.218740621046003],
            [121.36673129909138, 31.21823839193499],
            [121.36693274952263, 31.218336481514395],
            [121.36725145898188, 31.218419647316757],
            [121.36749162877551, 31.218534113231872],
            [121.36770790638622, 31.218634957450362],
            [121.36792481846499, 31.21879706011434],
            [121.36812028922407, 31.218723797206493],
            [121.36821775056478, 31.218635882319923],
            [121.36824736452866, 31.218435458092586],
            [121.36733040026587, 31.217865139588994],
            [121.36717757288875, 31.217814282174643],
            [121.36717606265506, 31.217695315834774],
            [121.36721137643725, 31.21762648625996],
            [121.36735818706191, 31.217639387527115],
            [121.36769162861219, 31.21755621562899],
            [121.36830293812073, 31.21750868877605],
            [121.36899760801731, 31.217366108074742],
            [121.36964512319827, 31.217763198323347],
            [121.36989075130327, 31.217957998986112],
            [121.37011753005714, 31.21811652944571],
            [121.37044747735527, 31.218358539778727],
            [121.37069260256271, 31.218673089787984],
            [121.37086001238686, 31.21884717853728],
            [121.37089547673531, 31.218997087500938],
            [121.37088617386698, 31.21924573033769],
            [121.37073308377079, 31.21933982713955],
            [121.37046218521294, 31.21941377419334],
            [121.36966449111787, 31.219599847689892],
            [121.36818501083599, 31.219954401125108],
            [121.36769397918067, 31.22033527486714],
            [121.36715930635484, 31.220617207271644],
            [121.36692653222462, 31.220945357790917],
            [121.36671530067002, 31.221171040701524],
            [121.36666544513076, 31.22138551894472],
            [121.36646413122031, 31.221906516653405],
            [121.36634895465008, 31.222330794626345],
            [121.36627023428554, 31.222724209774995],
            [121.366255797159, 31.223633235803177],
            [121.36619407725996, 31.22395611341328],
            [121.36635972201312, 31.22430098354593],
            [121.36582991328936, 31.22461368802452],
            [121.36440993490936, 31.224719058985016],
            [121.36296034977448, 31.224938360531155],
            [121.36206025255751, 31.22546422609993],
            [121.3618732685265, 31.225088711424036]
          ]
        ],
        "type": "Polygon"
      }
    },
    {
      "type": "Feature",
      "properties": {
        "use": 1
      },
      "geometry": {
        "coordinates": [
          [
            [121.38997250709548, 31.223159681139762],
            [121.38982530954644, 31.222290694966475],
            [121.3897944638367, 31.221807797075705],
            [121.38996569640233, 31.221504622425982],
            [121.39047150767767, 31.221434243701292],
            [121.39091265390485, 31.22137768988471],
            [121.39185961140737, 31.22125075734344],
            [121.39391352778796, 31.220925607424263],
            [121.39418030373946, 31.220880703207648],
            [121.39434056983657, 31.220926883576908],
            [121.39462671121615, 31.220956503095437],
            [121.39491285259572, 31.22106064631035],
            [121.39494758373107, 31.22193894627604],
            [121.39499107032032, 31.222685680583623],
            [121.39449399800534, 31.222829493088533],
            [121.39394890958152, 31.222891182889143],
            [121.39115491013183, 31.223141674611142],
            [121.39058771666808, 31.22320200438469],
            [121.38997250709548, 31.223159681139762]
          ]
        ],
        "type": "Polygon"
      }
    },
    {
      "type": "Feature",
      "properties": {
        "use": 1
      },
      "geometry": {
        "coordinates": [
          [
            [121.3703994240401, 31.226907091465577],
            [121.36978187228368, 31.22677507102172],
            [121.36928783088138, 31.22590373146653],
            [121.36876291188878, 31.224847551538176],
            [121.36845413601168, 31.223738549911303],
            [121.36867722344715, 31.223809606089176],
            [121.3690099325911, 31.224411871481493],
            [121.36956572917052, 31.225085193051683],
            [121.3700476153926, 31.225150857373695],
            [121.37057457648984, 31.224908159711738],
            [121.37084613653047, 31.22421164650254],
            [121.3711338242976, 31.223674206659055],
            [121.37179477262481, 31.222830759586614],
            [121.37343521681134, 31.22246058493566],
            [121.37384152003699, 31.223036883686994],
            [121.37415895691663, 31.223866497723122],
            [121.37443873841244, 31.22480010639957],
            [121.37462965355763, 31.22577170962107],
            [121.37354893798903, 31.22632620013286],
            [121.37280003501445, 31.226482544539465],
            [121.37169628272437, 31.226722262793203],
            [121.37076995509318, 31.226880687392338],
            [121.3703994240401, 31.226907091465577]
          ]
        ],
        "type": "Polygon"
      }
    },
    {
      "type": "Feature",
      "properties": {
        "use": 1
      },
      "geometry": {
        "coordinates": [
          [
            [121.35304213392777, 31.228964799706105],
            [121.35279300357503, 31.22894226082611],
            [121.35262404796035, 31.228834024477436],
            [121.35240879017117, 31.228616308504925],
            [121.35231786434684, 31.228464601527065],
            [121.3522803883505, 31.228324320944594],
            [121.352642943935, 31.228054403780543],
            [121.35307231180258, 31.22764165600791],
            [121.35395777245168, 31.226953277866954],
            [121.35502518289195, 31.225965628161717],
            [121.35670005760068, 31.22417359280871],
            [121.35783765787899, 31.22462418782619],
            [121.35876075861731, 31.224725197000858],
            [121.360483533393, 31.224734180304154],
            [121.36092493504225, 31.224728236537338],
            [121.3612454530911, 31.22470445797704],
            [121.36157461025789, 31.22469596713198],
            [121.36169741364068, 31.224853657858347],
            [121.36179704691752, 31.224995505421795],
            [121.3616365166283, 31.22498096359951],
            [121.3614420288487, 31.22499546013026],
            [121.36106572826579, 31.225064282325143],
            [121.36062575738515, 31.225238368375386],
            [121.36033499558505, 31.225350037019766],
            [121.36006635368005, 31.225410363611985],
            [121.35951367890226, 31.22537853773204],
            [121.35840113814487, 31.22537290566511],
            [121.35667726156902, 31.225061031106392],
            [121.35565878972253, 31.226225772390862],
            [121.35508187578732, 31.227129964157555],
            [121.3546718657575, 31.22767869284165],
            [121.35402580963748, 31.22831229942058],
            [121.35352669491589, 31.228779452107318],
            [121.35304213392777, 31.228964799706105]
          ]
        ],
        "type": "Polygon"
      }
    },
    {
      "type": "Feature",
      "properties": {
        "use": 1
      },
      "geometry": {
        "coordinates": [
          [
            [121.36686048666263, 31.227896984205117],
            [121.36650086585855, 31.2277978724064],
            [121.3663288792325, 31.227400784440917],
            [121.36601171086744, 31.226698292809417],
            [121.36534153743906, 31.22517894735796],
            [121.36592307365228, 31.2250959946553],
            [121.36652244104755, 31.224906305135328],
            [121.36719202060056, 31.22438074689086],
            [121.3676289291632, 31.223839941500685],
            [121.36809264260904, 31.22316160310558],
            [121.36845408329202, 31.224648960487414],
            [121.36778493653628, 31.225014381708625],
            [121.3673792862511, 31.225184224795967],
            [121.36740733465552, 31.225614997076043],
            [121.36761222088819, 31.226423468115044],
            [121.36773336814345, 31.226887328387964],
            [121.36788463882672, 31.227070804240903],
            [121.36798137263636, 31.22717618315356],
            [121.36812477299341, 31.227285034187425],
            [121.36829948867184, 31.2273704016261],
            [121.36850376230996, 31.227481044549407],
            [121.36811670084353, 31.22766131486656],
            [121.36771757165963, 31.227736354647295],
            [121.36732829512886, 31.22784509540236],
            [121.36686048666263, 31.227896984205117]
          ]
        ],
        "type": "Polygon"
      }
    },
    {
      "type": "Feature",
      "properties": {
        "use": 1
      },
      "geometry": {
        "coordinates": [
          [
            [121.36464901416804, 31.238949017614246],
            [121.36442519368362, 31.238300847906217],
            [121.36478027770221, 31.237885606772124],
            [121.36500269781808, 31.237220456246234],
            [121.36538828612083, 31.23688664846169],
            [121.36653354206479, 31.236524923853963],
            [121.36746773993218, 31.236233722511116],
            [121.3685114908285, 31.23592007915167],
            [121.3689066288645, 31.236094664025096],
            [121.36899582655337, 31.236373885577606],
            [121.36882625577513, 31.236973236934283],
            [121.36855470488024, 31.237433074569452],
            [121.36801618739736, 31.237829519778877],
            [121.36747766991448, 31.238225964988303],
            [121.36623674316536, 31.238738909046276],
            [121.3654020866208, 31.23900091316724],
            [121.36464901416804, 31.238949017614246]
          ]
        ],
        "type": "Polygon"
      }
    },
    {
      "type": "Feature",
      "properties": {
        "use": 2
      },
      "geometry": {
        "coordinates": [
          [
            [121.38904181567995, 31.220378323665585],
            [121.388794061351, 31.2193189399908],
            [121.3909412655334, 31.21908940529623],
            [121.39114772747553, 31.220290042146175],
            [121.38904181567995, 31.220378323665585]
          ]
        ],
        "type": "Polygon"
      }
    },
    {
      "type": "Feature",
      "properties": {
        "use": 1
      },
      "geometry": {
        "coordinates": [
          [
            [121.35587344776218, 31.23634444118622],
            [121.35322926564021, 31.23405811188158],
            [121.35421106223178, 31.232757186956054],
            [121.35502991249055, 31.231600692796896],
            [121.35567688653752, 31.23008869566043],
            [121.356174999167, 31.22922315873057],
            [121.35678215262317, 31.228544103351737],
            [121.35891036628959, 31.23321535531774],
            [121.35747011375179, 31.23487269093635],
            [121.35587344776218, 31.23634444118622]
          ]
        ],
        "type": "Polygon"
      }
    },
    {
      "type": "Feature",
      "properties": {
        "use": 2
      },
      "geometry": {
        "coordinates": [
          [
            [121.39317498491386, 31.221049230317675],
            [121.3931870549979, 31.220549990531822],
            [121.39387266424191, 31.220374834170457],
            [121.39418044908119, 31.220342874064656],
            [121.39452825653098, 31.22038792368747],
            [121.39469885928611, 31.220467055976126],
            [121.39480942812543, 31.220665981009198],
            [121.39487997435566, 31.2208221229119],
            [121.39490919907158, 31.220943634375324],
            [121.39490384941797, 31.22102344809062],
            [121.39484345217755, 31.221048221122942],
            [121.39467767581851, 31.220978369720484],
            [121.39451830570357, 31.220935910588977],
            [121.39413648240941, 31.220885896452756],
            [121.39317498491386, 31.221049230317675]
          ]
        ],
        "type": "Polygon"
      }
    },
    {
      "type": "Feature",
      "properties": {
        "use": 1
      },
      "geometry": {
        "coordinates": [
          [
            [121.39424380813205, 31.21983954936742],
            [121.39450612159902, 31.219457234289806],
            [121.39467867124006, 31.21907491921219],
            [121.39474010384919, 31.21816860430114],
            [121.39492597910089, 31.217315501067603],
            [121.3953074334151, 31.217058781895346],
            [121.39556750712697, 31.216954385741836],
            [121.3957172457607, 31.216901592862698],
            [121.3960286903987, 31.21690813079313],
            [121.39619958118416, 31.216973254770775],
            [121.39633118596986, 31.21720011030557],
            [121.39632279278243, 31.217453571746056],
            [121.39638385858368, 31.217997573265176],
            [121.39643308224015, 31.218643099403337],
            [121.39716682043354, 31.219347672498884],
            [121.39776567719608, 31.219406222560586],
            [121.39859298653613, 31.219540749780606],
            [121.39945178074663, 31.219523969004804],
            [121.40020242295688, 31.219545315642566],
            [121.40065067029362, 31.219512333028916],
            [121.40081259212911, 31.219521329747806],
            [121.4008764812574, 31.21952549749591],
            [121.40092550265524, 31.219533845638992],
            [121.40095306516713, 31.21956666228033],
            [121.4007629228967, 31.219588234381657],
            [121.40045641633273, 31.21963136278776],
            [121.40019499527263, 31.219675320648523],
            [121.39987784213491, 31.219760131058663],
            [121.39896155280978, 31.220007411213704],
            [121.39785188676461, 31.220034909247488],
            [121.39637395822669, 31.2199454508581],
            [121.39564807744102, 31.219942960995162],
            [121.39525818713057, 31.219981945655128],
            [121.39501671682925, 31.2200298576467],
            [121.39484171102437, 31.220043666042297],
            [121.39473346005312, 31.22002559290936],
            [121.39457468626583, 31.219979079145624],
            [121.39431275547099, 31.21992911857717],
            [121.3942453684005, 31.219897128076163],
            [121.39424380813205, 31.21983954936742]
          ]
        ],
        "type": "Polygon"
      }
    },
    {
      "type": "Feature",
      "properties": {
        "use": 2
      },
      "geometry": {
        "coordinates": [
          [
            [121.4027837831004, 31.223388286670684],
            [121.4033816105744, 31.223163855089638],
            [121.40367839738522, 31.22296392266145],
            [121.40394470419386, 31.22271185970409],
            [121.40417532803792, 31.22180076609048],
            [121.40426161806073, 31.220822462018788],
            [121.40418059185032, 31.21998283783377],
            [121.4039657377744, 31.21930665416808],
            [121.40352591233432, 31.219017220569413],
            [121.40719575900783, 31.219315158277993],
            [121.40671929981318, 31.220972713659748],
            [121.40652769660798, 31.22255601308892],
            [121.40654664981683, 31.22338682907578],
            [121.40650729693988, 31.22426882372801],
            [121.4052680949134, 31.224152376049663],
            [121.4048725374099, 31.22413127775367],
            [121.40455978362792, 31.224039370141803],
            [121.40365864429006, 31.22378403503677],
            [121.4027837831004, 31.223388286670684]
          ]
        ],
        "type": "Polygon"
      }
    },
    {
      "type": "Feature",
      "properties": {
        "use": 2
      },
      "geometry": {
        "coordinates": [
          [
            [121.47871444275438, 31.24378449265066],
            [121.4793847639711, 31.24245720437989],
            [121.48218668993076, 31.242691882653276],
            [121.48196256550112, 31.243439859478162],
            [121.48172443334485, 31.244175859927886],
            [121.4812621767548, 31.24565384923976],
            [121.48085619044954, 31.24547065102449],
            [121.4803803774584, 31.245234373140633],
            [121.48020946325173, 31.24511753066608],
            [121.4800474397531, 31.24501208993324],
            [121.4799093376113, 31.24491512181737],
            [121.47981065085385, 31.244845101061884],
            [121.47976234476681, 31.244809285633977],
            [121.47928197318618, 31.244344891417242],
            [121.47896853028118, 31.24403470130646],
            [121.47871444275438, 31.24378449265066]
          ]
        ],
        "type": "Polygon"
      }
    },
    {
      "type": "Feature",
      "properties": {
        "use": 2
      },
      "geometry": {
        "coordinates": [
          [
            [121.41878129891927, 31.247261617046632],
            [121.41874284872706, 31.24685261494137],
            [121.41903737483906, 31.246467335747518],
            [121.41970967114037, 31.245767946793464],
            [121.42034153182323, 31.244089254968344],
            [121.41983503287918, 31.2428269497006],
            [121.41914701354297, 31.242200831026828],
            [121.41896990777386, 31.241969502818893],
            [121.4186124784772, 31.24238828694724],
            [121.41799974507646, 31.24131998305946],
            [121.41712247221182, 31.240790714681793],
            [121.41683093534762, 31.240484828746773],
            [121.41690473134705, 31.24022699796343],
            [121.41704510167715, 31.23995760910845],
            [121.41735408717398, 31.23966419258368],
            [121.41718612824887, 31.238995352142112],
            [121.41686850031678, 31.23841791752432],
            [121.41649522953375, 31.237754070706792],
            [121.41669783002034, 31.23688221845176],
            [121.41788226660583, 31.235438331527376],
            [121.42046272296281, 31.233062528363405],
            [121.42099108696488, 31.234113816394775],
            [121.42123073865947, 31.235367084871157],
            [121.4212850427254, 31.236010921869916],
            [121.4211948013295, 31.236698898840537],
            [121.42115886399955, 31.238030712809916],
            [121.42118679053041, 31.238155999279783],
            [121.42125867982871, 31.238217977955983],
            [121.42141327873404, 31.238367640789665],
            [121.42155503320967, 31.238461058222626],
            [121.42170207775004, 31.23857665264228],
            [121.42177040164182, 31.238630668481303],
            [121.4219600597932, 31.238725028660575],
            [121.42257282028342, 31.238975637075097],
            [121.42277841435026, 31.23903162974078],
            [121.42292761413042, 31.23909244418079],
            [121.42330426554363, 31.23926765207568],
            [121.4237287010724, 31.23951958005847],
            [121.42393213261535, 31.239651159159003],
            [121.42407916987338, 31.239763451370305],
            [121.42444091753309, 31.24002178783396],
            [121.42492126213571, 31.240288411650727],
            [121.42516713825945, 31.24045177397491],
            [121.42540173552783, 31.24058379531222],
            [121.4256056475221, 31.24070421329476],
            [121.42571650894786, 31.24077882518082],
            [121.42581287909252, 31.24084309198783],
            [121.42588644159315, 31.240876430811134],
            [121.42599948009318, 31.240991738178877],
            [121.42604764373019, 31.241182002274563],
            [121.42603558169273, 31.241392417931863],
            [121.4259546931011, 31.24163965116113],
            [121.42579203279632, 31.241980906414838],
            [121.42420444947163, 31.246054338289255],
            [121.42451010057286, 31.246497281270727],
            [121.42482920139476, 31.246684003419166],
            [121.42521104647238, 31.24678132100938],
            [121.42662423257127, 31.246981573847947],
            [121.42817564152162, 31.247209533241787],
            [121.42870783781497, 31.247309155427956],
            [121.428957142292, 31.247360761199538],
            [121.429013319592, 31.247437492635626],
            [121.42921976298803, 31.24764265588561],
            [121.42923458388043, 31.24794965577764],
            [121.42919171985244, 31.248705340349062],
            [121.42901303766462, 31.2501008639763],
            [121.42894844219458, 31.250752662148365],
            [121.42901884579362, 31.251093329382428],
            [121.42914468735465, 31.251364632672065],
            [121.42933443639711, 31.251482824874643],
            [121.42963389972668, 31.251614929289474],
            [121.42996179969128, 31.251613326402634],
            [121.43077175549791, 31.251379215324043],
            [121.43130171966703, 31.25097900494355],
            [121.43196916873075, 31.25063222013641],
            [121.43239931592154, 31.250313579588635],
            [121.43284821105254, 31.25009110557957],
            [121.43306443992998, 31.25010985627526],
            [121.43345564958231, 31.25081245945293],
            [121.43378811832483, 31.251571210765675],
            [121.43437260681475, 31.253091808075368],
            [121.4346209861722, 31.253916315564048],
            [121.4347965562012, 31.254533345159842],
            [121.43494288405499, 31.254676833041323],
            [121.43517781708383, 31.254920847005224],
            [121.43550680919185, 31.255096702769954],
            [121.43574204409634, 31.255145398220964],
            [121.43606838024466, 31.25515869398734],
            [121.43646146519941, 31.255052150748767],
            [121.43697288980337, 31.25479069995336],
            [121.43717115005262, 31.254563491293467],
            [121.43736802828329, 31.25430253144101],
            [121.43768558334813, 31.25346732742053],
            [121.43785790075782, 31.252708423061794],
            [121.43788083580668, 31.252327363873675],
            [121.43803482658586, 31.252114362162928],
            [121.43833168466504, 31.25186632194113],
            [121.43866130667695, 31.25178634003179],
            [121.43916293933354, 31.25178338490221],
            [121.43959085314185, 31.251808439537847],
            [121.44078892901695, 31.25196097923387],
            [121.44090796897615, 31.252201131975127],
            [121.44082501079647, 31.253189591851392],
            [121.4403618920189, 31.25427130925258],
            [121.43952800046297, 31.25546444036741],
            [121.43918666029427, 31.255731263706025],
            [121.43884532012555, 31.255998087044645],
            [121.43818124674608, 31.25601717996215],
            [121.43751795452368, 31.255931466161464],
            [121.43715066796082, 31.25572066376824],
            [121.43659146224522, 31.255159518534484],
            [121.43630663938802, 31.25523978585732],
            [121.43581703181425, 31.25532005252289],
            [121.43534095986931, 31.255270028291076],
            [121.43517100445663, 31.25633925590102],
            [121.43474442632622, 31.257032411583303],
            [121.43414070154222, 31.257310186047235],
            [121.4323391144249, 31.257498366255078],
            [121.43100482833165, 31.25728495494078],
            [121.43044041039711, 31.256789492372338],
            [121.4295109653888, 31.25568577476769],
            [121.42865129720455, 31.254681904785482],
            [121.4275350062997, 31.254273491065106],
            [121.42606053123752, 31.253990436981272],
            [121.42487501687313, 31.253572851698287],
            [121.42254353014056, 31.253479307586886],
            [121.42043047037524, 31.25337707504378],
            [121.4197784109359, 31.25307173297141],
            [121.41926802103609, 31.252719809715813],
            [121.41926635862193, 31.2524843796562],
            [121.419497440544, 31.252545521127566],
            [121.42153070101439, 31.25268699124508],
            [121.42132819210266, 31.251190071432553],
            [121.4199318349502, 31.250937294900854],
            [121.42066667223932, 31.250184597681567],
            [121.42133714103102, 31.248676012451902],
            [121.41965324116158, 31.247852637203483],
            [121.42169235223355, 31.24818575297914],
            [121.41963330602218, 31.247842298588793],
            [121.41904775132384, 31.247670571545633],
            [121.41878129891927, 31.247261617046632]
          ]
        ],
        "type": "Polygon"
      }
    },
    {
      "type": "Feature",
      "properties": {
        "use": 2
      },
      "geometry": {
        "coordinates": [
          [
            [121.4592767198074, 31.24287202953832],
            [121.45927778938454, 31.24264903466711],
            [121.45946222873562, 31.24258281704654],
            [121.46015283382562, 31.242343145664936],
            [121.46088105322877, 31.242091414632334],
            [121.46225756161965, 31.241531672710764],
            [121.46253717464649, 31.24142751121766],
            [121.46267227937226, 31.241419650220887],
            [121.46276036620645, 31.241524348645953],
            [121.4628569801302, 31.241751384444022],
            [121.46222680544037, 31.242196245272737],
            [121.46207670572423, 31.242307273213722],
            [121.46181524025832, 31.242408093421126],
            [121.46146157373583, 31.242529335038714],
            [121.46120052274759, 31.242617531605575],
            [121.46100335109679, 31.24267920662926],
            [121.46077257197666, 31.242734847306956],
            [121.46054142500893, 31.242792763084704],
            [121.46024346462033, 31.242865488791892],
            [121.4597940151864, 31.242998974305134],
            [121.45961742094366, 31.24301417368929],
            [121.45945107556327, 31.243036636918788],
            [121.45927180531692, 31.24306451597431],
            [121.45926896284143, 31.242970538335157],
            [121.4592767198074, 31.24287202953832]
          ]
        ],
        "type": "Polygon"
      }
    },
    {
      "type": "Feature",
      "properties": {
        "use": 2
      },
      "geometry": {
        "coordinates": [
          [
            [121.44638998743756, 31.250661717305903],
            [121.44631259379574, 31.25025473669085],
            [121.44627231963344, 31.25013329785133],
            [121.44624497593021, 31.25004944390148],
            [121.44621315582586, 31.24993993480295],
            [121.44616469419407, 31.249796105285085],
            [121.44592278608297, 31.24927243418327],
            [121.44582098987982, 31.24903806568241],
            [121.44576641558939, 31.24889789611982],
            [121.44556282317808, 31.24865792817539],
            [121.44504661653372, 31.248082291632883],
            [121.44439646071123, 31.247376988660662],
            [121.4447376537814, 31.247283412439202],
            [121.4451261712652, 31.24728592720271],
            [121.44591732594466, 31.247412673674432],
            [121.44633064993934, 31.24748363301139],
            [121.4467794672455, 31.24760010908905],
            [121.44711385228928, 31.247694707195244],
            [121.44735625531865, 31.24782862460495],
            [121.44757628109983, 31.248012535666014],
            [121.44772403530214, 31.248157127635324],
            [121.44779846544714, 31.248610861156976],
            [121.44776120315004, 31.249109530205814],
            [121.44778058097592, 31.25004810486213],
            [121.44709746428961, 31.25047416134005],
            [121.44674044079163, 31.250626916323753],
            [121.44638998743756, 31.250661717305903]
          ]
        ],
        "type": "Polygon"
      }
    },
    {
      "type": "Feature",
      "properties": {
        "use": 1
      },
      "geometry": {
        "coordinates": [
          [
            [121.42773041511487, 31.25672545708011],
            [121.42762378767914, 31.25665215931038],
            [121.42764655126794, 31.256537382734685],
            [121.42767040985005, 31.256407517745462],
            [121.42790452884702, 31.25614630282297],
            [121.42804200550363, 31.25599357827751],
            [121.42801370056603, 31.255872280350125],
            [121.42783983072596, 31.255661110918027],
            [121.42777513260489, 31.255175919013084],
            [121.42572967370802, 31.254018909325794],
            [121.42838454822447, 31.254637382634996],
            [121.42887239136931, 31.25496732529418],
            [121.42942685723415, 31.255589155000862],
            [121.43007552629405, 31.25636377627042],
            [121.43028533151475, 31.256606645116854],
            [121.4303402556651, 31.256672928974723],
            [121.43039155297541, 31.256733012014994],
            [121.4304438394251, 31.25679816844606],
            [121.43049288006817, 31.256839796238534],
            [121.43047062313005, 31.256848741378434],
            [121.43041447765411, 31.256862115528094],
            [121.43033249972154, 31.256864006585033],
            [121.4297433415258, 31.25687622806556],
            [121.42936076491979, 31.25688077145403],
            [121.42882913871958, 31.256851467736155],
            [121.42817176720389, 31.256799129673446],
            [121.42773041511487, 31.25672545708011]
          ]
        ],
        "type": "Polygon"
      }
    },
    {
      "type": "Feature",
      "properties": {
        "use": 2
      },
      "geometry": {
        "coordinates": [
          [
            [121.42097599608724, 31.232774754866824],
            [121.42240303472875, 31.232864212626723],
            [121.42401106337672, 31.233729368866875],
            [121.4248291639098, 31.23545417318391],
            [121.42661107961953, 31.237239958633907],
            [121.42756126362812, 31.23968879225596],
            [121.42806924177695, 31.240435207907865],
            [121.4285443337813, 31.241631504061743],
            [121.42943729878277, 31.242660366991977],
            [121.43021516227697, 31.244096927863367],
            [121.43143812461793, 31.245080561091967],
            [121.43197540137966, 31.246185984083674],
            [121.43342458530446, 31.24685827762994],
            [121.43474767026609, 31.247622961160097],
            [121.43627340126392, 31.248127773161286],
            [121.43906879173386, 31.247389747371045],
            [121.43972943205114, 31.246944268201915],
            [121.44008610331343, 31.246238915176164],
            [121.44062542443396, 31.244834604460948],
            [121.44123081247021, 31.24370846805285],
            [121.44214016955945, 31.242755587715052],
            [121.44413619902315, 31.241239656115397],
            [121.4463813388322, 31.24071018540362],
            [121.44737059355153, 31.240654178202316],
            [121.44782655934287, 31.240766391383453],
            [121.4482343694923, 31.240734499510864],
            [121.44874309178515, 31.24061488804254],
            [121.44905052763824, 31.240481208162386],
            [121.44935611701803, 31.24027477613624],
            [121.44956112544592, 31.24018719562132],
            [121.4496591651581, 31.239928130617784],
            [121.44976797947241, 31.23963859603315],
            [121.44998086792452, 31.238632487685223],
            [121.45013711664016, 31.238336558589126],
            [121.4504019507302, 31.23822631420576],
            [121.45140215552668, 31.238075457100166],
            [121.4530949065618, 31.238083218218293],
            [121.45372292850377, 31.23811408440846],
            [121.45453707615826, 31.238253819406655],
            [121.45469277471648, 31.238438827963712],
            [121.45484847327468, 31.238623836520773],
            [121.45421490491526, 31.239998585487754],
            [121.454050216703, 31.239930900562904],
            [121.4537326455376, 31.23983713464986],
            [121.4534548422961, 31.239758403918774],
            [121.45309830809842, 31.239655504806514],
            [121.45280424119571, 31.239641624751357],
            [121.4525876938088, 31.239653143480247],
            [121.45226793578803, 31.23972552079171],
            [121.45185621189253, 31.239865556664032],
            [121.45144558978012, 31.240093060937674],
            [121.45093249196213, 31.240440788897004],
            [121.45021335269419, 31.24100910395393],
            [121.44958692495527, 31.241650920560694],
            [121.44867295181487, 31.242577284229366],
            [121.44834798210475, 31.242907976695143],
            [121.44818549725088, 31.243055660980534],
            [121.44802714393927, 31.24318215099261],
            [121.44733785834516, 31.243622663349942],
            [121.44661965193845, 31.244013723175733],
            [121.44595427487234, 31.244461386390345],
            [121.44527089617418, 31.244903918916563],
            [121.44446034739207, 31.245443070089046],
            [121.4437106081067, 31.24604937255036],
            [121.44334431850612, 31.246480254176284],
            [121.44330599912122, 31.24671398526662],
            [121.44334748102972, 31.24689465211388],
            [121.44346534508037, 31.247165828920487],
            [121.44367160033562, 31.24741639600991],
            [121.44411230585415, 31.247878121947434],
            [121.44438956740612, 31.248118561403615],
            [121.44464316847976, 31.248429798893433],
            [121.44485663639512, 31.24866298023369],
            [121.44515685939795, 31.249007415112548],
            [121.44537945892137, 31.249347399885423],
            [121.44559417161872, 31.249700869379083],
            [121.4458223046989, 31.250341850207896],
            [121.44591383763881, 31.25135156976974],
            [121.44593559723364, 31.251855857822775],
            [121.44592402835295, 31.25211534633891],
            [121.44587559713925, 31.252365138444347],
            [121.44580606161111, 31.252443031095382],
            [121.44574786833977, 31.25247244184776],
            [121.4456305185775, 31.252532422946693],
            [121.44555591809856, 31.2525637333666],
            [121.44548325661032, 31.25256936743426],
            [121.44536021239543, 31.25254497221522],
            [121.44411190537879, 31.252007792156803],
            [121.44410671975717, 31.25196460147477],
            [121.44410207247172, 31.251932518210495],
            [121.4440561453693, 31.25190451882974],
            [121.44390463446634, 31.25182153280937],
            [121.44372919908105, 31.251747560244993],
            [121.44172252418099, 31.251484535161254],
            [121.43915872309032, 31.2512005857226],
            [121.43831824137959, 31.251242195338115],
            [121.43760501555408, 31.251759765601236],
            [121.4373416290524, 31.25215668598088],
            [121.43713391699444, 31.25324714421525],
            [121.43709279754553, 31.25345432334479],
            [121.43707533843502, 31.253564875365498],
            [121.43701899610124, 31.253678751433224],
            [121.43689101898063, 31.25391372691024],
            [121.43684657069593, 31.253895167073097],
            [121.43681767570047, 31.25386995916458],
            [121.43671905832153, 31.253867741864674],
            [121.43665578802702, 31.25392555719083],
            [121.43665131888532, 31.25401489718429],
            [121.43670459437416, 31.25405727682352],
            [121.43676063269426, 31.254060497221637],
            [121.43679161826441, 31.254079780345982],
            [121.43669762831405, 31.25422532157062],
            [121.436399781476, 31.254517372149124],
            [121.43618636491863, 31.254627467644745],
            [121.43605846218136, 31.25467843689317],
            [121.43592642765901, 31.25469761691022],
            [121.43573236203805, 31.254694038988255],
            [121.43564759934318, 31.254672600186296],
            [121.4355669684333, 31.25461584001308],
            [121.43552194448627, 31.254587651597546],
            [121.43546020936853, 31.254518510323823],
            [121.43540671424708, 31.25445976429249],
            [121.435363245827, 31.25441339937486],
            [121.43534769841048, 31.2543809869139],
            [121.4353432917753, 31.254329526565993],
            [121.43531318208711, 31.25418350784372],
            [121.43529713280853, 31.254150908923116],
            [121.43528590347634, 31.254116936514624],
            [121.43525541156612, 31.254036630335754],
            [121.43526695590978, 31.25401531880005],
            [121.43529376342599, 31.253979585669907],
            [121.43539406966511, 31.25386080022271],
            [121.4353929602388, 31.253751805458187],
            [121.43539346229036, 31.253636386673314],
            [121.43532938749614, 31.253351562017233],
            [121.43529188773189, 31.253244026973306],
            [121.43518725104988, 31.25308388060384],
            [121.43503968393048, 31.252930363329536],
            [121.43507207359124, 31.252789788402943],
            [121.43511285536664, 31.252720956465268],
            [121.43507972668276, 31.25261199005343],
            [121.43500349945498, 31.252490539331077],
            [121.43490048404166, 31.252515027527288],
            [121.4348198648202, 31.25230323601161],
            [121.43476657548709, 31.252278057699392],
            [121.43470660099837, 31.252257641952895],
            [121.4346872479761, 31.252099614236542],
            [121.43462332724144, 31.25191872614988],
            [121.43443621255238, 31.251584692433312],
            [121.43407217780641, 31.250912267202576],
            [121.43374252854105, 31.25028968055458],
            [121.43367005850837, 31.250103202841917],
            [121.4336203819001, 31.25000868716628],
            [121.43358265337642, 31.249932685384096],
            [121.43357228822161, 31.249890236511234],
            [121.43354101392538, 31.249869493589543],
            [121.43349788096512, 31.24981140907637],
            [121.4333917459879, 31.249689635636635],
            [121.4333214515006, 31.249613807834464],
            [121.43323466049331, 31.24956448581349],
            [121.43312388460853, 31.249514240433577],
            [121.43300803554536, 31.24951604075396],
            [121.43275086923526, 31.24953845777764],
            [121.4323525101281, 31.249663986330052],
            [121.43126869819756, 31.25035780404793],
            [121.43093243145273, 31.250577710957224],
            [121.43056380923689, 31.2508114484959],
            [121.43043781835013, 31.250845136325992],
            [121.43019583060197, 31.250960073308605],
            [121.43002167311295, 31.25100780417791],
            [121.42991442801576, 31.251021885876384],
            [121.42977387192485, 31.25103466562149],
            [121.42972217209089, 31.251025359310916],
            [121.429681662022, 31.251013480967757],
            [121.4295760976235, 31.25096747760312],
            [121.4295427076294, 31.250917602637443],
            [121.42951197144788, 31.250866020950582],
            [121.42948320327915, 31.250809391871012],
            [121.429491247561, 31.25071258556796],
            [121.42950296408343, 31.250548874476422],
            [121.42951616412887, 31.2503858312394],
            [121.42952936417441, 31.250174197912116],
            [121.42955153479949, 31.24999407622412],
            [121.42959181734324, 31.24966669363546],
            [121.42963710867078, 31.24860788325126],
            [121.42970323318016, 31.248233956328036],
            [121.4297000312589, 31.2479192982598],
            [121.42968527492893, 31.247621103701775],
            [121.42957038042326, 31.247408520643702],
            [121.42944529191988, 31.247258431565026],
            [121.42937857529918, 31.24717777326726],
            [121.42936430925269, 31.247162601108187],
            [121.42934885067784, 31.247138253119907],
            [121.42927478120916, 31.247064305344548],
            [121.42919355657531, 31.2470148264771],
            [121.42913021354649, 31.24698843928767],
            [121.42907215699495, 31.24696657171427],
            [121.42910138495495, 31.24686332295876],
            [121.42877073127063, 31.246809168526884],
            [121.4287218372566, 31.246871296522045],
            [121.42826661128757, 31.24680304781908],
            [121.42560589105989, 31.246292157616537],
            [121.42528465927624, 31.24621843819053],
            [121.42496943925747, 31.246113880347988],
            [121.42486492355124, 31.245987363036583],
            [121.42485349316391, 31.2458442477076],
            [121.42511165217928, 31.24520734069243],
            [121.42568877586632, 31.24385772103101],
            [121.42623245577494, 31.242412790167883],
            [121.42662386371939, 31.241647525254475],
            [121.42665865171676, 31.24101918862563],
            [121.42657084353411, 31.240919252174074],
            [121.42645898173794, 31.240757618582876],
            [121.42633654006232, 31.240595622713123],
            [121.42597784052725, 31.240390992469713],
            [121.42567673116534, 31.240228932621427],
            [121.42528361091644, 31.240028529066393],
            [121.42454392722465, 31.23949933599821],
            [121.42372390770151, 31.238981042000745],
            [121.42336273642148, 31.23873017518291],
            [121.42291373900204, 31.23854757424654],
            [121.42233628695168, 31.23836533635277],
            [121.42199926458926, 31.238185021583178],
            [121.42183759741022, 31.238021486705186],
            [121.42171395480597, 31.237857951716236],
            [121.42165753945383, 31.23772210865269],
            [121.42168803741572, 31.237400483264466],
            [121.42175140054255, 31.23668648783522],
            [121.42176671511253, 31.236487609666863],
            [121.42181402096097, 31.23631867321803],
            [121.42179604289565, 31.236122331861505],
            [121.42180978367918, 31.2359666715505],
            [121.421761472149, 31.23514715109674],
            [121.42163971997336, 31.234595312987885],
            [121.42148106510186, 31.234127106921946],
            [121.4213624197202, 31.233803707923027],
            [121.4212142274615, 31.233421358046705],
            [121.42097599608724, 31.232774754866824]
          ]
        ],
        "type": "Polygon"
      }
    },
    {
      "type": "Feature",
      "properties": {
        "use": 1
      },
      "geometry": {
        "coordinates": [
          [
            [121.40381139918844, 31.233917200284367],
            [121.40516717649567, 31.232156591751426],
            [121.40552086005079, 31.230591420309025],
            [121.4085693486856, 31.22512842261999],
            [121.40968249399228, 31.22552722312517],
            [121.4107249641487, 31.22602675189752],
            [121.41091053693343, 31.226194967704714],
            [121.41114322648625, 31.22659485567918],
            [121.41117333346799, 31.226851334495024],
            [121.41108564852966, 31.227339483873223],
            [121.41099207399529, 31.227759642154282],
            [121.41087494108046, 31.228109292619095],
            [121.41021110109648, 31.229294299217827],
            [121.40974765544857, 31.230257912927698],
            [121.40955730209845, 31.230475772091012],
            [121.40872380953903, 31.23095510988874],
            [121.40865776583439, 31.231096552692726],
            [121.40881354998709, 31.231298881160555],
            [121.4092697290352, 31.23106916745141],
            [121.4081150630912, 31.233158616095423],
            [121.4073325047506, 31.233843725779025],
            [121.40676144394799, 31.23413681467779],
            [121.4061552981168, 31.234309907218744],
            [121.40466344802266, 31.23359547592026],
            [121.40416710123664, 31.233981824543793],
            [121.40381139918844, 31.233917200284367]
          ]
        ],
        "type": "Polygon"
      }
    },
    {
      "type": "Feature",
      "properties": {
        "use": 1
      },
      "geometry": {
        "coordinates": [
          [
            [121.39641455782584, 31.224938133323263],
            [121.39619020331492, 31.222897524250342],
            [121.3970362316532, 31.222789094845133],
            [121.39790878978846, 31.222719413427072],
            [121.39789239243639, 31.222959861768306],
            [121.3979160062863, 31.223337173450567],
            [121.3979420974224, 31.224065498283977],
            [121.39799437974119, 31.22493551034205],
            [121.3969257241784, 31.224971765476226],
            [121.39663679833211, 31.224972056961818],
            [121.39641455782584, 31.224938133323263]
          ]
        ],
        "type": "Polygon"
      }
    },
    {
      "type": "Feature",
      "properties": {
        "use": 2
      },
      "geometry": {
        "coordinates": [
          [
            [121.39810844997282, 31.225907396930552],
            [121.39807808394733, 31.22272149857514],
            [121.39850747955053, 31.222658423568284],
            [121.39927373378927, 31.2227393823903],
            [121.4006530238417, 31.22299466745642],
            [121.40167526275533, 31.223413203506077],
            [121.40242132444251, 31.2237553314219],
            [121.40432437936346, 31.22451850680946],
            [121.40512084535857, 31.224635651911797],
            [121.40520354598948, 31.2251241126228],
            [121.40463641785982, 31.225425027499384],
            [121.40327029532733, 31.225284049036773],
            [121.40223373107045, 31.225028308071785],
            [121.40108006487753, 31.22479773981138],
            [121.4000519134043, 31.224618305502972],
            [121.39926277901856, 31.224720245656044],
            [121.39892941673526, 31.225385868267452],
            [121.39888516756028, 31.225603223991833],
            [121.39875689818848, 31.22580005159591],
            [121.39840905833529, 31.225886748846463],
            [121.39810844997282, 31.225907396930552]
          ]
        ],
        "type": "Polygon"
      }
    },
    {
      "type": "Feature",
      "properties": {
        "use": 2
      },
      "geometry": {
        "coordinates": [
          [
            [121.39555133213094, 31.222175940292118],
            [121.39547153485516, 31.221819835635408],
            [121.39549032679244, 31.221562703588642],
            [121.39544403962992, 31.220854421074485],
            [121.39519660136827, 31.22030101336897],
            [121.39511654884684, 31.220070525180482],
            [121.39524837367077, 31.21997593231734],
            [121.39616770581426, 31.219936775916423],
            [121.39726360241445, 31.219995766617615],
            [121.3980211087605, 31.220044072055156],
            [121.39893752311758, 31.22001687999866],
            [121.40026714313302, 31.219660505809316],
            [121.40095469707234, 31.219562995243894],
            [121.40124498098953, 31.22019026344207],
            [121.40173726659413, 31.221316451397243],
            [121.40196261070474, 31.222084333298945],
            [121.40204879809093, 31.222532445345788],
            [121.40213498547712, 31.22298055739263],
            [121.40075890504795, 31.222473010522734],
            [121.39927688594742, 31.222176851021274],
            [121.3974470685068, 31.222226310592617],
            [121.3965393523485, 31.222381232706297],
            [121.39625388775029, 31.222416890197163],
            [121.39589314073217, 31.22242265784609],
            [121.3957103325698, 31.22237336937467],
            [121.39555133213094, 31.222175940292118]
          ]
        ],
        "type": "Polygon"
      }
    },
    {
      "type": "Feature",
      "properties": {
        "use": 2
      },
      "geometry": {
        "coordinates": [
          [
            [121.4821165241732, 31.24715873066029],
            [121.48194553409886, 31.2469149165464],
            [121.48187136741893, 31.246466672098293],
            [121.48219113413765, 31.246529299976103],
            [121.48240027034306, 31.246535080753986],
            [121.48258190231928, 31.246539741793143],
            [121.48275028413174, 31.24653969604325],
            [121.48297629385476, 31.24652397392211],
            [121.48333401308344, 31.246490290195155],
            [121.48361490951743, 31.2464575377718],
            [121.48359470209414, 31.24641338953864],
            [121.4835593053298, 31.24641796002087],
            [121.48353641012051, 31.24636077683126],
            [121.48375257830554, 31.246300211866348],
            [121.48388131232616, 31.24626211377499],
            [121.48400171197625, 31.24622876597281],
            [121.48407752248951, 31.246205189524087],
            [121.48408823084094, 31.24623056300338],
            [121.48412757048834, 31.246219353234395],
            [121.48413239193411, 31.246240302241777],
            [121.48415763879923, 31.24623261585299],
            [121.48416828385803, 31.246254793065585],
            [121.48421406979278, 31.24623940744035],
            [121.48425415381583, 31.246197914704503],
            [121.48429327937797, 31.24616490482977],
            [121.4843290226897, 31.246134738045676],
            [121.48438348706179, 31.246093883562985],
            [121.48444626225243, 31.246056137656065],
            [121.48458319062388, 31.24599619114747],
            [121.48472863594858, 31.24621557523635],
            [121.4847484921209, 31.24634906172795],
            [121.48483006751644, 31.246773513478324],
            [121.48491786481839, 31.2476653651956],
            [121.48365937212898, 31.247544929097614],
            [121.4825031694366, 31.247376792321845],
            [121.48221687790075, 31.247327121139698],
            [121.4821165241732, 31.24715873066029]
          ]
        ],
        "type": "Polygon"
      }
    }
  ]
}
