{
  "type": "FeatureCollection",
  "features": [
    {
      "type": "Feature",
      "properties": {
        "line": "丽江-香格里拉"
      },
      "geometry": {
        "coordinates": [
          [100.21189803435709, 26.882152387710136],
          [100.19044511063788, 26.885186048261488],
          [100.1772061755832, 26.885614546109252],
          [100.16746601464132, 26.879552145798655],
          [100.15871443760176, 26.866998182072777],
          [100.14903988348118, 26.85183453424564],
          [100.14456332507956, 26.835864225157508],
          [100.13011147220243, 26.82670559399763],
          [100.11263030043267, 26.82367531037714],
          [100.09653506758713, 26.82465550861511],
          [100.08247930359909, 26.842822091808387],
          [100.06891289035741, 26.846723386846435],
          [100.04953538989844, 26.855345999442434],
          [100.04274694324306, 26.86009666699995],
          [100.02267740770674, 26.863466014716707],
          [100.02560497937236, 26.87389858741568],
          [100.03724750894037, 26.883900827714015],
          [100.05043052126553, 26.901320576926494],
          [100.05873169884308, 26.91742792180692],
          [100.06068564747426, 26.935817637645826],
          [100.06019645326029, 26.946785643231976],
          [100.06601835378581, 26.976758737201564],
          [100.07474435688692, 26.99570518984585],
          [100.0810419632088, 27.014710032787747],
          [100.07959733009045, 27.03288124930627],
          [100.08395566819871, 27.05530489987528],
          [100.0785771761415, 27.092742406359548],
          [100.0737558189511, 27.11035158085369],
          [100.0756764970393, 27.121434054571765],
          [100.07230423949409, 27.147165584294683],
          [100.07853380276697, 27.157110355226294],
          [100.08856480871646, 27.16235507814909],
          [100.08576328625855, 27.174614240171692],
          [100.07409398362717, 27.18631766976665],
          [100.05822543586294, 27.190111381384398],
          [100.05294443977056, 27.205819251002353],
          [100.04429231351759, 27.219162094388125],
          [100.0384664650623, 27.23183989947917],
          [100.04221533569569, 27.247965780467794],
          [100.03977669515456, 27.254995076943587],
          [100.03294885228564, 27.267040662400348],
          [100.02621298947798, 27.275266450778687],
          [100.02524151702733, 27.28836539401638],
          [100.0123069552144, 27.300275292286898],
          [100.00431456481408, 27.316246055535743],
          [99.99887678247825, 27.325539491775004],
          [100.00030434391192, 27.337317573680068],
          [99.9994706984549, 27.343246705773566],
          [99.98697345195353, 27.349455147670085],
          [99.97619533803072, 27.35226473063213],
          [99.9715944302323, 27.363429267812805],
          [99.95513660311099, 27.381474346861495],
          [99.94802871796657, 27.397052793664727],
          [99.9455259861453, 27.408558324356477],
          [99.93925272805882, 27.419312999666687],
          [99.927188910381, 27.427701719852237],
          [99.91334413433879, 27.45120082288055],
          [99.90789563532229, 27.463480563425918],
          [99.90000145816464, 27.475287041014923],
          [99.90087594538448, 27.485625248806016],
          [99.89666846356488, 27.493459445009634],
          [99.88367597843154, 27.50091035430553],
          [99.8657099608925, 27.505696243673455],
          [99.85598978279023, 27.50950783138812],
          [99.85450139132513, 27.518342885574867],
          [99.84886910106633, 27.525304822598414],
          [99.84164734064115, 27.52941641183341],
          [99.83503909946609, 27.53967271122889],
          [99.8314940134756, 27.542650067362942],
          [99.82860022318732, 27.5525465898057],
          [99.82756861599506, 27.56040291945999],
          [99.82387028810416, 27.565134838002223],
          [99.8139081871904, 27.571050781238313],
          [99.80281900785366, 27.575138388828563],
          [99.79727142301448, 27.580049440363297],
          [99.79415476716343, 27.58823187722244],
          [99.78979911730733, 27.59701504310317],
          [99.78794402315339, 27.602824956109373],
          [99.77486489265999, 27.610423826838755],
          [99.76887929579385, 27.61970330076896],
          [99.76759852173842, 27.62553443723513],
          [99.766674991635, 27.632823449221675],
          [99.76503730276067, 27.638492899482088],
          [99.7606338458562, 27.64351889364795],
          [99.74906423955753, 27.649531126343575],
          [99.7511675008692, 27.65829768165861],
          [99.74873261086469, 27.66744874505379],
          [99.74484550828078, 27.67088419018131],
          [99.7376180625709, 27.6712166636989],
          [99.73065075700941, 27.675110172946916],
          [99.72791313766447, 27.683874438317716],
          [99.72664883586452, 27.689548442614438],
          [99.72836510105083, 27.694222255174353],
          [99.7238124126738, 27.704884640014953],
          [99.72398457918501, 27.715678881809566],
          [99.72603321080032, 27.719723405964345],
          [99.72269618972831, 27.725740649850252],
          [99.71975366241526, 27.734023534375964],
          [99.71232632309432, 27.74754434343147],
          [99.70920487635277, 27.753383494331985],
          [99.70572031725686, 27.757601008868846],
          [99.70435968078158, 27.771942352515936],
          [99.7029911456653, 27.783107592413145],
          [99.70244270892186, 27.790868641207837],
          [99.6983242244176, 27.800076240591608],
          [99.69338723334823, 27.8109907882462],
          [99.69285494751676, 27.817063327392475],
          [99.68845439435188, 27.821663919055993],
          [99.69281789875788, 27.82966347598068],
          [99.69313813273322, 27.83645374504053],
          [99.69613825571514, 27.843485317414334],
          [99.69341452130169, 27.84711315428693],
          [99.68493964504972, 27.850254207255617],
          [99.67808191822712, 27.85364914312231],
          [99.67307349007558, 27.866050657716315],
          [99.67277798942587, 27.872615366765316],
          [99.66494917065853, 27.885153793402438],
          [99.65518972368591, 27.89378278218645],
          [99.64648905782991, 27.900737472171926],
          [99.64470752487046, 27.908611699846062],
          [99.63985202998657, 27.911955062059178]
        ],
        "type": "LineString"
      },
      "id": 0
    }
  ]
}
