{
  "type": "FeatureCollection",
  "features": [
    {
      "type": "Feature",
      "properties": {
        "name": "针阔混交林带",
        "color": "#025402"
      },
      "geometry": {
        "coordinates": [
          [
            [101.74731479549845, 29.5507109648585],
            [101.73775577364243, 29.545411165187584],
            [101.76967821115308, 29.511973437115294],
            [101.77846150046054, 29.518794119954833],
            [101.74731479549845, 29.5507109648585]
          ]
        ],
        "type": "Polygon"
      }
    },
    {
      "type": "Feature",
      "properties": {
        "name": "针叶林带",
        "color": "#007400"
      },
      "geometry": {
        "coordinates": [
          [
            [101.76495449841974, 29.55937819320775],
            [101.75527489286628, 29.553768536894125],
            [101.76157998000514, 29.545967306573232],
            [101.76685836879403, 29.540246196795053],
            [101.77305188523422, 29.533148558750312],
            [101.78048195047847, 29.524353195436333],
            [101.79039287029082, 29.529976251956313],
            [101.7853107056076, 29.536315576129795],
            [101.77988250235569, 29.543193490627928],
            [101.76857477235944, 29.556160525387583],
            [101.76495449841974, 29.55937819320775]
          ]
        ],
        "type": "Polygon"
      }
    },
    {
      "type": "Feature",
      "properties": {
        "name": "灌丛林带",
        "color": "#009c00"
      },
      "geometry": {
        "coordinates": [
          [
            [101.78310902775075, 29.57058889083646],
            [101.77180838061332, 29.565006867505573],
            [101.78185402223869, 29.55042504978016],
            [101.78915037238244, 29.540556066980955],
            [101.79470499873537, 29.533124051739264],
            [101.80556393111203, 29.539037153478148],
            [101.79305836802519, 29.555447336777164],
            [101.78767351596827, 29.56321186810932],
            [101.78310902775075, 29.57058889083646]
          ]
        ],
        "type": "Polygon"
      },
      "id": 1
    },
    {
      "type": "Feature",
      "properties": {
        "name": "高山草甸带",
        "color": "#aaedaa"
      },
      "geometry": {
        "coordinates": [
          [
            [101.80803559674138, 29.583415908178196],
            [101.78771428038488, 29.572727045962893],
            [101.80313757547816, 29.55353579259517],
            [101.81360159671533, 29.54134413113681],
            [101.83152152462947, 29.554033536233916],
            [101.82481549143444, 29.56212333663106],
            [101.81593797450063, 29.572604088430012],
            [101.80803559674138, 29.583415908178196]
          ]
        ],
        "type": "Polygon"
      },
      "id": 5
    },

    {
      "type": "Feature",
      "properties": {
        "name": "高寒荒漠带",
        "color": "#7b7b7b"
      },
      "geometry": {
        "coordinates": [
          [
            [101.8410562917087, 29.601090131043307],
            [101.81486641914256, 29.587451378255324],
            [101.82622981643476, 29.57374761792046],
            [101.8358017235775, 29.561574307803696],
            [101.8402091638132, 29.55454866123226],
            [101.85652908721511, 29.564693661752116],
            [101.86449451651737, 29.568993899373112],
            [101.8518739895054, 29.585431835036573],
            [101.84664276660078, 29.591439229186832],
            [101.84524041344429, 29.593863432464588],
            [101.84420710024267, 29.595515422253527],
            [101.8410562917087, 29.601090131043307]
          ]
        ],
        "type": "Polygon"
      },
      "id": 2
    },
    {
      "type": "Feature",
      "properties": {
        "name": "积雪冰川带",
        "color": "#dfdfdf"
      },
      "geometry": {
        "coordinates": [
          [
            [101.87007790449968, 29.61818225568966],
            [101.84789636102226, 29.605641873115616],
            [101.85253001926333, 29.598169236450943],
            [101.85959899622145, 29.586928351476814],
            [101.86599021140904, 29.57922562270356],
            [101.87353498344584, 29.57180744832739],
            [101.89507473518705, 29.582633841254605],
            [101.90487231973674, 29.588850649615374],
            [101.90073641872982, 29.59481000360384],
            [101.88535015460837, 29.61700041695434],
            [101.88035033688499, 29.622656802231518],
            [101.87459452634113, 29.619969778395372],
            [101.87007790449968, 29.61818225568966]
          ]
        ],
        "type": "Polygon"
      },
      "id": 3
    }
  ]
}
